"region";"sppName";"latinName";"RFMO";"RFMO_Stock_ID";"X3A_CODE";"FIDES_AREA";"area";"areaBis";"TAC.area.description";"Comments";"areaRDB";"latinNameASFIS";"TAXOCODE";"latinNameJoin"
"Baltic Sea";"European Eel";"Anguilla anguilla";"ICES";NA;"ELE";"No TAC";"22-32";"27_3_C_22,27_3_B_23,27_3_D_24,27_3_D_25,27_3_D_26,27_3_D_27,27_3_D_28,27_3_D_29,27_3_D_30,27_3_D_31,27_3_D_32";"";"";"27.3.c.22,27.3.b.23,27.3.d.24,27.3.d.25,27.3.d.26,27.3.d.27,27.3.d.28,27.3.d.28.1,27.3.d.28.2,27.3.d.29,27.3.d.30,27.3.d.31,27.3.d.32";"Anguilla anguilla";"1430200201";"Anguilla anguilla"
"Baltic Sea";"Herring";"Clupea harengus";"ICES";NA;"HER";"3BC+24";"22-24";"27_3_C_22,27_3_B_23,27_3_D_24";"";"";"27.3.c.22,27.3.b.23,27.3.d.24";"Clupea harengus";"1210500105";"Clupea harengus"
"Baltic Sea";"Herring";"Clupea harengus";"ICES";NA;"HER";"3D-R30";"25-27, 28.2, 29, 32";"27_3_D_25,27_3_D_26,27_3_D_27,27_3_D_28_2,27_3_D_29,27_3_D_32";"";"";"27.3.d.25,27.3.d.26,27.3.d.27,27.3.d.28.2,27.3.d.29,27.3.d.32";"Clupea harengus";"1210500105";"Clupea harengus"
"Baltic Sea";"Herring";"Clupea harengus";"ICES";NA;"HER";"03D.RG";"28.1";"27_3_D_28_1";"";"";"27.3.d.28.1";"Clupea harengus";"1210500105";"Clupea harengus"
"Baltic Sea";"Herring";"Clupea harengus";"ICES";NA;"HER";"30/31.";"30-31";"27_3_D_30,27_3_D_31";"";"";"27.3.d.30,27.3.d.31";"Clupea harengus";"1210500105";"Clupea harengus"
"Baltic Sea";"Vendace";"Coregonus albula";"ICES";NA;"FVE";"No TAC";"22-32";"27_3_C_22,27_3_B_23,27_3_D_24,27_3_D_25,27_3_D_26,27_3_D_27,27_3_D_28,27_3_D_29,27_3_D_30,27_3_D_31,27_3_D_32";"";"";"27.3.c.22,27.3.b.23,27.3.d.24,27.3.d.25,27.3.d.26,27.3.d.27,27.3.d.28,27.3.d.28.1,27.3.d.28.2,27.3.d.29,27.3.d.30,27.3.d.31,27.3.d.32";"Coregonus albula";"1231200101";"Coregonus albula"
"Baltic Sea";"Common Whitefish/houting";"Coregonus lavaretus";"ICES";NA;"PLN";"No TAC";"3d";"27_3_D";"";"";"27.3.d.24,27.3.d.25,27.3.d.26,27.3.d.27,27.3.d.28,27.3.d.28.1,27.3.d.28.2,27.3.d.29,27.3.d.30,27.3.d.31,27.3.d.32";"Coregonus lavaretus";"1231200102";"Coregonus lavaretus"
"Baltic Sea";"Cod";"Gadus morhua";"ICES";NA;"COD";"3BC+24";"22-24";"27_3_C_22,27_3_B_23,27_3_D_24";"IIIb)c)d) (1) - Sub Divisions 22 to 24";"";"27.3.c.22,27.3.b.23,27.3.d.24";"Gadus morhua";"1480400202";"Gadus morhua"
"Baltic Sea";"Cod";"Gadus morhua";"ICES";NA;"COD";"3DX32.";"25-32";"27_3_D_25,27_3_D_26,27_3_D_27,27_3_D_28,27_3_D_29,27_3_D_30,27_3_D_31,27_3_D_32";"IIId) (1) - Sub Divisions 25-32";"";"27.3.d.25,27.3.d.26,27.3.d.27,27.3.d.28,27.3.d.28.1,27.3.d.28.2,27.3.d.29,27.3.d.30,27.3.d.31,27.3.d.32";"Gadus morhua";"1480400202";"Gadus morhua"
"Baltic Sea";"Dab";"Limanda limanda";"ICES";NA;"DAB";"No TAC";"22-32";"27_3_C_22,27_3_B_23,27_3_D_24,27_3_D_25,27_3_D_26,27_3_D_27,27_3_D_28,27_3_D_29,27_3_D_30,27_3_D_31,27_3_D_32";"";"";"27.3.c.22,27.3.b.23,27.3.d.24,27.3.d.25,27.3.d.26,27.3.d.27,27.3.d.28,27.3.d.28.1,27.3.d.28.2,27.3.d.29,27.3.d.30,27.3.d.31,27.3.d.32";"Limanda limanda";"1830202405";"Limanda limanda"
"Baltic Sea";"Perch";"Perca fluviatilis";"ICES";NA;"FPE";"No TAC";"3d";"27_3_D";"";"";"27.3.d.24,27.3.d.25,27.3.d.26,27.3.d.27,27.3.d.28,27.3.d.28.1,27.3.d.28.2,27.3.d.29,27.3.d.30,27.3.d.31,27.3.d.32";"Perca fluviatilis";"1701400201";"Perca fluviatilis"
"Baltic Sea";"Flounder";"Platichthys flesus";"ICES";NA;"FLE";"No TAC";"22-32";"27_3_C_22,27_3_B_23,27_3_D_24,27_3_D_25,27_3_D_26,27_3_D_27,27_3_D_28,27_3_D_29,27_3_D_30,27_3_D_31,27_3_D_32";"";"";"27.3.c.22,27.3.b.23,27.3.d.24,27.3.d.25,27.3.d.26,27.3.d.27,27.3.d.28,27.3.d.28.1,27.3.d.28.2,27.3.d.29,27.3.d.30,27.3.d.31,27.3.d.32";"Platichthys flesus";"1830204802";"Platichthys flesus"
"Baltic Sea";"Plaice";"Pleuronectes platessa";"ICES";NA;"PLE";"3BCD-C";"22-23";"27_3_B_23,27_3_C_22";"";"";"27.3.b.23,27.3.c.22";"Pleuronectes platessa";"1830200405";"Pleuronectes platessa"
"Baltic Sea";"Plaice";"Pleuronectes platessa";"ICES";NA;"PLE";"3BCD-C";"24-32";"27_3_D_24,27_3_D_25,27_3_D_26,27_3_D_27,27_3_D_28,27_3_D_29,27_3_D_30,27_3_D_31,27_3_D_32";"";"";"27.3.d.24,27.3.d.25,27.3.d.26,27.3.d.27,27.3.d.28,27.3.d.28.1,27.3.d.28.2,27.3.d.29,27.3.d.30,27.3.d.31,27.3.d.32";"Pleuronectes platessa";"1830200405";"Pleuronectes platessa"
"Baltic Sea";"Salmon";"Salmo salar";"ICES";NA;"SAL";"3BCD-F";"22-31";"27_3_C_22,27_3_B_23,27_3_D_24,27_3_D_25,27_3_D_26,27_3_D_27,27_3_D_28,27_3_D_29,27_3_D_30,27_3_D_31";"";"";"27.3.c.22,27.3.b.23,27.3.d.24,27.3.d.25,27.3.d.26,27.3.d.27,27.3.d.28,27.3.d.28.1,27.3.d.28.2,27.3.d.29,27.3.d.30,27.3.d.31";"Salmo salar";"1230100401";"Salmo salar"
"Baltic Sea";"Salmon";"Salmo salar";"ICES";NA;"SAL";"3D32.";"32";"27_3_D_32";"";"";"27.3.d.32";"Salmo salar";"1230100401";"Salmo salar"
"Baltic Sea";"Sea trout";"Salmo trutta";"ICES";NA;"TRS";"No TAC";"22-32";"27_3_C_22,27_3_B_23,27_3_D_24,27_3_D_25,27_3_D_26,27_3_D_27,27_3_D_28,27_3_D_29,27_3_D_30,27_3_D_31,27_3_D_32";"";"";"27.3.c.22,27.3.b.23,27.3.d.24,27.3.d.25,27.3.d.26,27.3.d.27,27.3.d.28,27.3.d.28.1,27.3.d.28.2,27.3.d.29,27.3.d.30,27.3.d.31,27.3.d.32";"Salmo trutta";"1230100402";"Salmo trutta"
"Baltic Sea";"Pike-perch";"Sander lucioperca";"ICES";NA;"FPP";"No TAC";"3d";"27_3_D";"";"";"27.3.d.24,27.3.d.25,27.3.d.26,27.3.d.27,27.3.d.28,27.3.d.28.1,27.3.d.28.2,27.3.d.29,27.3.d.30,27.3.d.31,27.3.d.32";"Sander lucioperca";"1701436103";"Sander lucioperca"
"Baltic Sea";"Turbot";"Scophtalmus maximus";"ICES";NA;"TUR";"No TAC";"22-32";"27_3_C_22,27_3_B_23,27_3_D_24,27_3_D_25,27_3_D_26,27_3_D_27,27_3_D_28,27_3_D_29,27_3_D_30,27_3_D_31,27_3_D_32";"";"";"27.3.c.22,27.3.b.23,27.3.d.24,27.3.d.25,27.3.d.26,27.3.d.27,27.3.d.28,27.3.d.28.1,27.3.d.28.2,27.3.d.29,27.3.d.30,27.3.d.31,27.3.d.32";"Scophtalmus maximus";NA;"Scophtalmus maximus,Scophthalmus maximus,Psetta maxima"
"Baltic Sea";"Brill";"Scophthalmus rhombus";"ICES";NA;"BLL";"No TAC";"22-32";"27_3_C_22,27_3_B_23,27_3_D_24,27_3_D_25,27_3_D_26,27_3_D_27,27_3_D_28,27_3_D_29,27_3_D_30,27_3_D_31,27_3_D_32";"";"";"27.3.c.22,27.3.b.23,27.3.d.24,27.3.d.25,27.3.d.26,27.3.d.27,27.3.d.28,27.3.d.28.1,27.3.d.28.2,27.3.d.29,27.3.d.30,27.3.d.31,27.3.d.32";"Scophthalmus rhombus";"1830506401";"Scophthalmus rhombus"
"Baltic Sea";"Sole";"Solea solea";"ICES";NA;"SOL";"3ABC24";"20-24";"27_3_A,27_3_C_22,27_3_B_23,27_3_D_24";"";"";"27.3.a,27.3.a.20,27.3.a.21,27.3.c.22,27.3.b.23,27.3.d.24";"Solea solea";"1830300701";"Solea solea"
"Baltic Sea";"Sprat";"Sprattus sprattus";"ICES";NA;"SPR";"3BCD-C";"22-32";"27_3_C_22,27_3_B_23,27_3_D_24,27_3_D_25,27_3_D_26,27_3_D_27,27_3_D_28,27_3_D_29,27_3_D_30,27_3_D_31,27_3_D_32";"";"To be checked";"27.3.c.22,27.3.b.23,27.3.d.24,27.3.d.25,27.3.d.26,27.3.d.27,27.3.d.28,27.3.d.28.1,27.3.d.28.2,27.3.d.29,27.3.d.30,27.3.d.31,27.3.d.32";"Sprattus sprattus";"1210506601";"Sprattus sprattus"
"North Sea and Eastern Arctic";"European Eel";"Anguilla anguilla";"ICES";NA;"ELE";"No TAC";"1, 2";"27_1,27_2";"";"";"27.1,27.2,27.2.a,27.2.a.1,27.2.a.2,27.2.b,27.2.b.2";"Anguilla anguilla";"1430200201";"Anguilla anguilla"
"North Sea and Eastern Arctic";"Greater silver smelt";"Argentina silus";"ICES";NA;"ARU";"1/2.";"1, 2";"27_1,27_2";"";"";"27.1,27.2,27.2.a,27.2.a.1,27.2.a.2,27.2.b,27.2.b.2";"Argentina silus";"1230501503";"Argentina silus"
"North Sea and Eastern Arctic";"Tusk";"Brosme brosme";"ICES";NA;"USK";"1214EI";"1, 2";"27_1,27_2";"EC and International Waters of I-II and XIV";"";"27.1,27.2,27.2.a,27.2.a.1,27.2.a.2,27.2.b,27.2.b.2";"Brosme brosme";"1480400101";"Brosme brosme"
"North Sea and Eastern Arctic";"Herring";"Clupea harengus";"ICES";NA;"HER";"1/2-";"1, 2";"27_1,27_2";"";"";"27.1,27.2,27.2.a,27.2.a.1,27.2.a.2,27.2.b,27.2.b.2";"Clupea harengus";"1210500105";"Clupea harengus"
"North Sea and Eastern Arctic";"Cod";"Gadus morhua";"ICES";NA;"COD";"1/2B.";"1, 2";"27_1,27_2";"I-IIb)";"";"27.1,27.2,27.2.a,27.2.a.1,27.2.a.2,27.2.b,27.2.b.2";"Gadus morhua";"1480400202";"Gadus morhua"
"North Sea and Eastern Arctic";"Tope";"Galeorhinus galeus";"ICES";NA;"GAG";"No TAC";"1, 2";"27_1,27_2";"";"";"27.1,27.2,27.2.a,27.2.a.1,27.2.a.2,27.2.b,27.2.b.2";"Galeorhinus galeus";"1080401103";"Galeorhinus galeus"
"North Sea and Eastern Arctic";"American plaice";"Hippoglossoides platessoides";"ICES";NA;"PLA";"No TAC";"1, 2";"27_1,27_2";"";"";"27.1,27.2,27.2.a,27.2.a.1,27.2.a.2,27.2.b,27.2.b.2";"Hippoglossoides platessoides";"1830201401";"Hippoglossoides platessoides"
"North Sea and Eastern Arctic";"Capelin";"Mallotus villosus";"ICES";NA;"CAP";"02B.";"1, 2";"27_1,27_2";"ICES division IIb - Spitzbergen and Bear Island";"";"27.1,27.2,27.2.a,27.2.a.1,27.2.a.2,27.2.b,27.2.b.2";"Mallotus villosus";"1230400201";"Mallotus villosus"
"North Sea and Eastern Arctic";"Haddock";"Melanogrammus aeglefinus";"ICES";NA;"HAD";"1N2AB.";"1, 2";"27_1,27_2";"I-II (Norwegian waters)";"";"27.1,27.2,27.2.a,27.2.a.1,27.2.a.2,27.2.b,27.2.b.2";"Melanogrammus aeglefinus";"1480401001";"Melanogrammus aeglefinus"
"North Sea and Eastern Arctic";"Blue whiting";"Micromesistius poutassou";"ICES";NA;"WHB";"1X14";"1, 2";"27_1,27_2";"";"";"27.1,27.2,27.2.a,27.2.a.1,27.2.a.2,27.2.b,27.2.b.2";"Micromesistius poutassou";"1480403301";"Micromesistius poutassou"
"North Sea and Eastern Arctic";"Blue ling";"Molva dypterygia";"ICES";NA;"BLI";"24-";"2";"27_2";"";"";"27.2,27.2.a,27.2.a.1,27.2.a.2,27.2.b,27.2.b.2";"Molva dypterygia";"1480400502";"Molva dypterygia"
"North Sea and Eastern Arctic";"Ling";"Molva molva";"ICES";NA;"LIN";"1/2.";"1, 2";"27_1,27_2";"";"";"27.1,27.2,27.2.a,27.2.a.1,27.2.a.2,27.2.b,27.2.b.2";"Molva molva";"1480400501";"Molva molva"
"North Sea and Eastern Arctic";"Smooth-hound";"Mustelus spp.";"ICES";NA;"SKH";"";"1, 2";"27_1,27_2";"";"";"27.1,27.2,27.2.a,27.2.a.1,27.2.a.2,27.2.b,27.2.b.2";"Mustelus spp.";"10804007XX";"Mustelus spp.,Mustelus antarcticus,Mustelus californicus,Mustelus canis,Mustelus dorsalis,Mustelus fasciatus,Mustelus griseus,Mustelus henlei,Mustelus higmani,Mustelus lenticulatus,Mustelus lunulatus,Mustelus manazo,Mustelus schmitti,Mustelus mustelus,Mustelus norrisi,Mustelus asterias,Mustelus mento,Mustelus mosis,Mustelus palumbes,Mustelus punctulatus,Mustelus whitneyi,Mustelus spp.,Mustelus"
"North Sea and Eastern Arctic";"Northern shrimp";"Pandalus borealis";"ICES";NA;"PRA";"2AC4-C";"1, 2";"27_1,27_2";"EC waters of IIa) and IV";"";"27.1,27.2,27.2.a,27.2.a.1,27.2.a.2,27.2.b,27.2.b.2";"Pandalus borealis";"2280400203";"Pandalus borealis"
"North Sea and Eastern Arctic";"Saithe";"Pollachius virens";"ICES";NA;"POK";"1/2INT,1N2AB.";"1, 2";"27_1,27_2";"I-II (International waters)";"";"27.1,27.2,27.2.a,27.2.a.1,27.2.a.2,27.2.b,27.2.b.2";"Pollachius virens";"1480401501";"Pollachius virens"
"North Sea and Eastern Arctic";"Greenland halibut";"Reinhardtius hippoglossoides";"ICES";NA;"GHL";"1/2INT";"1, 2";"27_1,27_2";"I-II (International waters)";"";"27.1,27.2,27.2.a,27.2.a.1,27.2.a.2,27.2.b,27.2.b.2";"Reinhardtius hippoglossoides";"1830200501";"Reinhardtius hippoglossoides"
"North Sea and Eastern Arctic";"Salmon";"Salmo salar";"ICES";NA;"SAL";"No TAC";"1, 2";"27_1,27_2";"";"";"27.1,27.2,27.2.a,27.2.a.1,27.2.a.2,27.2.b,27.2.b.2";"Salmo salar";"1230100401";"Salmo salar"
"North Sea and Eastern Arctic";"Sea trout";"Salmo trutta";"ICES";NA;"TRS";"";"1, 2";"27_1,27_2";"";"";"27.1,27.2,27.2.a,27.2.a.1,27.2.a.2,27.2.b,27.2.b.2";"Salmo trutta";"1230100402";"Salmo trutta"
"North Sea and Eastern Arctic";"Mackerel";"Scomber scombrus";"ICES";NA;"MAC";"2A34.";"2";"27_2";"IIa";"";"27.2,27.2.a,27.2.a.1,27.2.a.2,27.2.b,27.2.b.2";"Scomber scombrus";"1750100205";"Scomber scombrus"
"North Sea and Eastern Arctic";"Beaked redfish";"Sebastes mentella";"ICES";NA;"REB";"1N2AB.";"1, 2";"27_1,27_2";"";"";"27.1,27.2,27.2.a,27.2.a.1,27.2.a.2,27.2.b,27.2.b.2";"Sebastes mentella";"1780100112";"Sebastes mentella"
"North Sea and Eastern Arctic";"Golden Redfish";"Sebastes norvegicus";"ICES";NA;"REG";"XXX";"1, 2";"27_1,27_2";"NEAFC Stock - catches not from the stock that is subject to NEAFC management mesures";"";"27.1,27.2,27.2.a,27.2.a.1,27.2.a.2,27.2.b,27.2.b.2";"Sebastes norvegicus";NA;"Sebastes norvegicus"
"North Sea and Eastern Arctic";"Picked dogfish";"Squalus acanthias";"ICES";NA;"DGS";"15X14";"1, 2";"27_1,27_2";"";"";"27.1,27.2,27.2.a,27.2.a.1,27.2.a.2,27.2.b,27.2.b.2";"Squalus acanthias";"1090100704";"Squalus acanthias"
"North Sea and Eastern Arctic";"Horse mackerel";"Trachurus trachurus";"ICES";NA;"JAX";"2A-14";"2a";"27_2_A";"NEAFC Stock - catches not from the stock that is subject to NEAFC management mesures";"";"27.2.a,27.2.a.1,27.2.a.2";"Trachurus trachurus";"1702300401";"Trachurus trachurus"
"North Sea and Eastern Arctic";"Sand eel";"Ammodytidae";"ICES";NA;"SAN";"2A3A4.";"3a, 4";"27_3_A,27_4";"IIIa,   EC waters of IIa and IV";"";"27.3.a,27.3.a.20,27.3.a.21,27.4,27.4.a,27.4.b,27.4.c";"Ammodytidae";"17204XXXXX";"Ammodytidae,Ammodytes personatus,Ammodytes tobianus,Ammodytes americanus,Ammodytes gilli,Ammodytes marinus,Ammodytes spp.,Ammodytoides renniei,Gymnammodytes capensis,Gymnammodytes cicerelus,Gymnammodytes semisquamatus,Gymnammodytes spp.,Hyperoplus immaculatus,Hyperoplus lanceolatus,Ammodytidae,Ammodytes"
"North Sea and Eastern Arctic";"Catfish";"Anarhichas spp.";"ICES";NA;"CAT";"No TAC";"4";"27_4";"";"";"27.4,27.4.a,27.4.b,27.4.c";"Anarhichas spp.";"17102001XX";"Anarhichas spp.,Anarhichas lupus,Anarhichas denticulatus,Anarhichas minor,Anarhichas spp.,Anarhichas"
"North Sea and Eastern Arctic";"European Eel";"Anguilla anguilla";"ICES";NA;"ELE";"No TAC";"3a, 4, 7d";"27_3_A,27_4,27_7_D";"";"";"27.3.a,27.3.a.20,27.3.a.21,27.4,27.4.a,27.4.b,27.4.c,27.7.d";"Anguilla anguilla";"1430200201";"Anguilla anguilla"
"North Sea and Eastern Arctic";"Greater silver smelt";"Argentina silus";"ICES";NA;"ARU";"3A4-C";"3a, 4";"27_3_A,27_4";"";"";"27.3.a,27.3.a.20,27.3.a.21,27.4,27.4.a,27.4.b,27.4.c";"Argentina silus";"1230501503";"Argentina silus"
"North Sea and Eastern Arctic";"Argentine";"Argentina spp.";"ICES";NA;"ARU";"3A4-C";"4";"27_4";"";"";"27.4,27.4.a,27.4.b,27.4.c";"Argentina spp.";"12305015XX";"Argentina spp.,Argentina elongata,Argentina kagoshimae,Argentina sphyraena,Argentina spp.,Argentina"
"North Sea and Eastern Arctic";"Red gurnard";"Aspitrigla cuculus";"ICES";NA;"GUR";"No TAC";"3a";"27_3_A";"";"";"27.3.a,27.3.a.20,27.3.a.21";"Aspitrigla cuculus";"1780200403";"Aspitrigla cuculus,Chelidonichthys cuculus"
"North Sea and Eastern Arctic";"Tusk";"Brosme brosme";"ICES";NA;"USK";"03A.,04-C.,04-N.";"3a, 4";"27_3_A,27_4";"EU waters of IV";"";"27.3.a,27.3.a.20,27.3.a.21,27.4,27.4.a,27.4.b,27.4.c";"Brosme brosme";"1480400101";"Brosme brosme"
"North Sea and Eastern Arctic";"Herring";"Clupea harengus";"ICES";NA;"HER";"03A.,03A-BC,2A47DX,4AB.";"3a, 4, 7d";"27_3_A,27_4,27_7_D";"";"";"27.3.a,27.3.a.20,27.3.a.21,27.4,27.4.a,27.4.b,27.4.c,27.7.d";"Clupea harengus";"1210500105";"Clupea harengus"
"North Sea and Eastern Arctic";"Roundnose grenadier";"Coryphaenoides rupestris";"ICES";NA;"RNG";"03-";"3a";"27_3_A";"EU and international waters of III";"";"27.3.a,27.3.a.20,27.3.a.21";"Coryphaenoides rupestris";"1480600401";"Coryphaenoides rupestris"
"North Sea and Eastern Arctic";"Common Shrimp";"Crangon crangon";"ICES";NA;"CSH";"No TAC";"4, 7d";"27_4,27_7_D";"";"";"27.4,27.4.a,27.4.b,27.4.c,27.7.d";"Crangon crangon";"2282300303";"Crangon crangon"
"North Sea and Eastern Arctic";"Sea bass";"Dicentrarchus labrax";"ICES";NA;"BSS";"No TAC";"4, 7d";"27_4,27_7_D";"";"";"27.4,27.4.a,27.4.b,27.4.c,27.7.d";"Dicentrarchus labrax";"1700634503";"Dicentrarchus labrax"
"North Sea and Eastern Arctic";"Grey gurnard";"Eutrigla gurnardus";"ICES";NA;"GUG";"No TAC";"3a, 4, 7d";"27_3_A,27_4,27_7_D";"";"";"27.3.a,27.3.a.20,27.3.a.21,27.4,27.4.a,27.4.b,27.4.c,27.7.d";"Eutrigla gurnardus";"1780207001";"Eutrigla gurnardus"
"North Sea and Eastern Arctic";"Cod";"Gadus morhua";"ICES";NA;"COD";"03AN.";"3aN";"27_3_A-4_AB_NK";"Skagerrak (Division IIIa)";"";"27.3.a.20";"Gadus morhua";"1480400202";"Gadus morhua"
"North Sea and Eastern Arctic";"Cod";"Gadus morhua";"ICES";NA;"COD";"03AS.";"3aS";"27_3_A";"Kattegat (Division IIIa)";"";"27.3.a.21";"Gadus morhua";"1480400202";"Gadus morhua"
"North Sea and Eastern Arctic";"Cod";"Gadus morhua";"ICES";NA;"COD";"2A3AX4,07D.";"4, 7d";"27_4,27_7_D";"IV,   EC waters of Iia,   that part of IIIa not covered by the Skagerrak and the Kattegat, ICES division VIId - Eastern Channel";"";"27.4,27.4.a,27.4.b,27.4.c,27.7.d";"Gadus morhua";"1480400202";"Gadus morhua"
"North Sea and Eastern Arctic";"Tope";"Galeorhinus galeus";"ICES";NA;"GAG";"No TAC";"3a, 4, 7d";"27_3_A,27_4,27_7_D";"";"";"27.3.a,27.3.a.20,27.3.a.21,27.4,27.4.a,27.4.b,27.4.c,27.7.d";"Galeorhinus galeus";"1080401103";"Galeorhinus galeus"
"North Sea and Eastern Arctic";"Witch flounder";"Glyptocephalus cynoglossus";"ICES";NA;"WIT";"No TAC";"3a, 4";"27_3_A,27_4";"";"";"27.3.a,27.3.a.20,27.3.a.21,27.4,27.4.a,27.4.b,27.4.c";"Glyptocephalus cynoglossus";"1830201102";"Glyptocephalus cynoglossus"
"North Sea and Eastern Arctic";"Blue-mouth rockfish";"Helicolenus dactylopterus";"ICES";NA;"BRF";"No TAC";"4";"27_4";"";"";"27.4,27.4.a,27.4.b,27.4.c";"Helicolenus dactylopterus";"1780101703";"Helicolenus dactylopterus"
"North Sea and Eastern Arctic";"Four-spot megrim";"Lepidorhombus boscii";"ICES";NA;"LEZ,LDB";"2AC4-C";"4, 7d";"27_4,27_7_D";"EC waters of IIa) and IV";"";"27.4,27.4.a,27.4.b,27.4.c,27.7.d";"Lepidorhombus boscii";"1830500302";"Lepidorhombus boscii"
"North Sea and Eastern Arctic";"Megrim";"Lepidorhombus whiffiagonis";"ICES";NA;"LEZ,MEG";"2AC4-C";"4, 7d";"27_4,27_7_D";"EC waters of IIa) and IV";"";"27.4,27.4.a,27.4.b,27.4.c,27.7.d";"Lepidorhombus whiffiagonis";"1830500301";"Lepidorhombus whiffiagonis"
"North Sea and Eastern Arctic";"Cuckoo ray";"Leucoraja naevus";"ICES";NA;"RJN";"03A-C.,2AC4-C";"3a, 4";"27_3_A,27_4";"";"";"27.3.a,27.3.a.20,27.3.a.21,27.4,27.4.a,27.4.b,27.4.c";"Leucoraja naevus";NA;"Leucoraja naevus"
"North Sea and Eastern Arctic";"Dab";"Limanda limanda";"ICES";NA;"DAB";"2AC4-C";"3a, 4, 7d";"27_3_A,27_4,27_7_D";"";"";"27.3.a,27.3.a.20,27.3.a.21,27.4,27.4.a,27.4.b,27.4.c,27.7.d";"Limanda limanda";"1830202405";"Limanda limanda"
"North Sea and Eastern Arctic";"Black-bellied angler";"Lophius budegassa";"ICES";NA;"ANF,MNZ";"No TAC";"3a, 4, 7d";"27_3_A,27_4,27_7_D";"";"";"27.3.a,27.3.a.20,27.3.a.21,27.4,27.4.a,27.4.b,27.4.c,27.7.d";"Lophius budegassa";"1950100102";"Lophius budegassa"
"North Sea and Eastern Arctic";"Anglerfish";"Lophius piscatorius";"ICES";NA;"MON,MNZ";"2AC4-C,*2AC4-C,04-N.";"3a, 4, 7d";"27_3_A,27_4,27_7_D";"";"";"27.3.a,27.3.a.20,27.3.a.21,27.4,27.4.a,27.4.b,27.4.c,27.7.d";"Lophius piscatorius";"1950100101";"Lophius piscatorius"
"North Sea and Eastern Arctic";"Roughhead grenadier";"Macrourus berglax";"ICES";NA;"RHG";"";"4";"27_4";"EU and international waters of I-II and IV";"";"27.4,27.4.a,27.4.b,27.4.c";"Macrourus berglax";"1480600103";"Macrourus berglax"
"North Sea and Eastern Arctic";"Haddock";"Melanogrammus aeglefinus";"ICES";NA;"HAD";"03A.,04-N.,*04N-";"3a, 4";"27_3_A,27_4";"IIIa) and EU waters of IIIbcd";"";"27.3.a,27.3.a.20,27.3.a.21,27.4,27.4.a,27.4.b,27.4.c";"Melanogrammus aeglefinus";"1480401001";"Melanogrammus aeglefinus"
"North Sea and Eastern Arctic";"Whiting";"Merlangius merlangus";"ICES";NA;"WHG";"03A.,2AC4.";"3a, 4, 7d";"27_3_A,27_4,27_7_D";"";"";"27.3.a,27.3.a.20,27.3.a.21,27.4,27.4.a,27.4.b,27.4.c,27.7.d";"Merlangius merlangus";"1480403401";"Merlangius merlangus"
"North Sea and Eastern Arctic";"Hake";"Merluccius merluccius";"ICES";NA;"HKE";"2AC4-C,3A.";"3a, 4, 7d";"27_3_A,27_4,27_7_D";"EC waters of IIa) and IV";"";"27.3.a,27.3.a.20,27.3.a.21,27.4,27.4.a,27.4.b,27.4.c,27.7.d";"Merluccius merluccius";"1480500401";"Merluccius merluccius"
"North Sea and Eastern Arctic";"Blue whiting";"Micromesistius poutassou";"ICES";NA;"WHB";"1X14";"3a, 4, 7d";"27_3_A,27_4,27_7_D";"";"";"27.3.a,27.3.a.20,27.3.a.21,27.4,27.4.a,27.4.b,27.4.c,27.7.d";"Micromesistius poutassou";"1480403301";"Micromesistius poutassou"
"North Sea and Eastern Arctic";"Lemon sole";"Microstomus kitt";"ICES";NA;"LEM";"2AC4-C";"4, 7d";"27_4,27_7_D";"EC waters of IIa) and IV";"";"27.4,27.4.a,27.4.b,27.4.c,27.7.d";"Microstomus kitt";"1830204504";"Microstomus kitt"
"North Sea and Eastern Arctic";"Blue ling";"Molva dypterygia";"ICES";NA;"BLI";"03A-,*24X7C";"3a, 4";"27_3_A,27_4";"EU and international waters of II and IV";"";"27.3.a,27.3.a.20,27.3.a.21,27.4,27.4.a,27.4.b,27.4.c";"Molva dypterygia";"1480400502";"Molva dypterygia"
"North Sea and Eastern Arctic";"Ling";"Molva molva";"ICES";NA;"LIN";"03A-C.,04-C.,04-N.";"3a, 4";"27_3_A,27_4";"EU waters of IV";"";"27.3.a,27.3.a.20,27.3.a.21,27.4,27.4.a,27.4.b,27.4.c";"Molva molva";"1480400501";"Molva molva"
"North Sea and Eastern Arctic";"Red mullet";"Mullus barbatus";"ICES";NA;"MUT";"No TAC";"4, 7d";"27_4,27_7_D";"";"";"27.4,27.4.a,27.4.b,27.4.c,27.7.d";"Mullus barbatus";"1704100702";"Mullus barbatus"
"North Sea and Eastern Arctic";"Striped red mullet";"Mullus surmuletus";"ICES";NA;"MUR";"No TAC";"4, 7d";"27_4,27_7_D";"";"";"27.4,27.4.a,27.4.b,27.4.c,27.7.d";"Mullus surmuletus";"1704100701";"Mullus surmuletus"
"North Sea and Eastern Arctic";"Smooth-hound";"Mustelus spp.";"ICES";NA;"SKH";"";"3a, 4, 7d";"27_3_A,27_4,27_7_D";"";"";"27.3.a,27.3.a.20,27.3.a.21,27.4,27.4.a,27.4.b,27.4.c,27.7.d";"Mustelus spp.";"10804007XX";"Mustelus spp.,Mustelus antarcticus,Mustelus californicus,Mustelus canis,Mustelus dorsalis,Mustelus fasciatus,Mustelus griseus,Mustelus henlei,Mustelus higmani,Mustelus lenticulatus,Mustelus lunulatus,Mustelus manazo,Mustelus schmitti,Mustelus mustelus,Mustelus norrisi,Mustelus asterias,Mustelus mento,Mustelus mosis,Mustelus palumbes,Mustelus punctulatus,Mustelus whitneyi,Mustelus spp.,Mustelus"
"North Sea and Eastern Arctic";"Norway lobster";"Nephrops norvegicus";"ICES";NA;"NEP";"03A.,04-N.2AC4-C";"3a, 4 and 2a Union waters";"27_2_A,27_3_A,27_4";"IIIa) and EU waters of IIIbcd";"";"27.2.a,27.2.a.1,27.2.a.2,27.3.a,27.3.a.20,27.3.a.21,27.4,27.4.a,27.4.b,27.4.c";"Nephrops norvegicus";"2294200602";"Nephrops norvegicus"
"North Sea and Eastern Arctic";"Northern shrimp";"Pandalus borealis";"ICES";NA;"PRA";"03A.,04-N.";"3a, 4";"27_3_A,27_4";"IIIa)";"";"27.3.a,27.3.a.20,27.3.a.21,27.4,27.4.a,27.4.b,27.4.c";"Pandalus borealis";"2280400203";"Pandalus borealis"
"North Sea and Eastern Arctic";"Common scallop";"Pecten maximus";"ICES";NA;"SCE";"No TAC";"4, 7d";"27_4,27_7_D";"";"";"27.4,27.4.a,27.4.b,27.4.c,27.7.d";"Pecten maximus";"3160800309";"Pecten maximus"
"North Sea and Eastern Arctic";"Greater Forkbeard";"Phycis blennoides";"ICES";NA;"GFB";"-1234";"4";"27_4";"EU and international waters of I-II,  III and IV";"";"27.4,27.4.a,27.4.b,27.4.c";"Phycis blennoides";"1480400601";"Phycis blennoides"
"North Sea and Eastern Arctic";"Forkbeard";"Phycis phycis";"ICES";NA;"FOR";"No TAC";"4";"27_4";"";"";"27.4,27.4.a,27.4.b,27.4.c";"Phycis phycis";"1480400602";"Phycis phycis"
"North Sea and Eastern Arctic";"Flounder";"Platichthys flesus";"ICES";NA;"FLE";"2AC4-C";"4";"27_4";"EC waters of IIa) and IV";"";"27.4,27.4.a,27.4.b,27.4.c";"Platichthys flesus";"1830204802";"Platichthys flesus"
"North Sea and Eastern Arctic";"Plaice";"Pleuronectes platessa";"ICES";NA;"PLE";"03AN.";"3aN";"27_3_A_20";"Skagerrak (Division IIIa), Kattegat (Division IIIa)";"";"27.3.a.20";"Pleuronectes platessa";"1830200405";"Pleuronectes platessa"
"North Sea and Eastern Arctic";"Plaice";"Pleuronectes platessa";"ICES";NA;"PLE";"03AS.";"3aS";"27_3_A_21";"";"";"27.3.a.21";"Pleuronectes platessa";"1830200405";"Pleuronectes platessa"
"North Sea and Eastern Arctic";"Plaice";"Pleuronectes platessa";"ICES";NA;"PLE";"2A3AX4,7DE.";"4, 7d";"27_4,27_7_D";"IV,  EC waters of Iia,   that part of IIIa not covered by the Skagerrak and the Kattegat";"";"27.4,27.4.a,27.4.b,27.4.c,27.7.d";"Pleuronectes platessa";"1830200405";"Pleuronectes platessa"
"North Sea and Eastern Arctic";"Saithe";"Pollachius virens";"ICES";NA;"POK";"2C3A4";"3a, 4";"27_3_A,27_4";"EU waters of IV and in IIIa";"";"27.3.a,27.3.a.20,27.3.a.21,27.4,27.4.a,27.4.b,27.4.c";"Pollachius virens";"1480401501";"Pollachius virens"
"North Sea and Eastern Arctic";"Turbot";"Scophthalmus maximus";"ICES";NA;"TUR";"No TAC";"3a, 4, 7d";"27_3_A,27_4,27_7_D";"EC waters of IIa) and IV";"";"27.3.a,27.3.a.20,27.3.a.21,27.4,27.4.a,27.4.b,27.4.c,27.7.d";"Scophthalmus maximus";"1830506403";"Scophthalmus maximus,Psetta maxima"
"North Sea and Eastern Arctic";"Blonde ray";"Raja brachyura";"ICES";NA;"RJH";"04-C.,07D.";"4c, 7d";"27_4_C,27_7_D";"";"";"27.4.c,27.7.d";"Raja brachyura";"1100400105";"Raja brachyura"
"North Sea and Eastern Arctic";"Thornback ray";"Raja clavata";"ICES";NA;"RJC";"07D.,2AC4-C";"3a, 4, 7d";"27_3_A,27_4,27_7_D";"";"";"27.3.a,27.3.a.20,27.3.a.21,27.4,27.4.a,27.4.b,27.4.c,27.7.d";"Raja clavata";"1100400102";"Raja clavata"
"North Sea and Eastern Arctic";"Small-eyed ray";"Raja microocellata";"ICES";NA;"RJE";"07D.";"7d";"27_7_D";"";"";"27.7.d";"Raja microocellata";"1100400109";"Raja microocellata"
"North Sea and Eastern Arctic";"Spotted ray";"Raja montagui";"ICES";NA;"RJM";"07D.,03A-C.,2AC4-C";"3a, 4, 7d";"27_3_A,27_4,27_7_D";"";"";"27.3.a,27.3.a.20,27.3.a.21,27.4,27.4.a,27.4.b,27.4.c,27.7.d";"Raja montagui";"1100400104";"Raja montagui"
"North Sea and Eastern Arctic";"Undulate ray";"Raja undulata";"ICES";NA;"RJU";"07DE.";"7d";"27_7_D";"";"";"27.7.d";"Raja undulata";"1100400112";"Raja undulata"
"North Sea and Eastern Arctic";"All skates and rays";"Rajidae";"ICES";NA;"SKA";"No TAC";"3a";"27_3_A";"to be coded as all other rays in the script";"";"27.3.a,27.3.a.20,27.3.a.21";"Rajidae";"11004XXXXX";"Rajidae,Raja batis,Raja radiata,Raja circularis,Raja fullonica,Raja wallacei,Raja naevus,Raja oxyrinchus,Raja springeri,Raja stellulata,Raja stenorhynchus,Raja straeleni,Raja taaf,Raja teevani,Raja tengu,Raja texana,Raja whitleyi,Raja velezi,Raja alba,Raja rhina,Raja robertsi,Raja rondeleti,Raja rouxi,Raja schmidti,Raja fyllae,Raja georgiana,Raja ackleyi,Raja acutispina,Raja africana,Raja annandalei,Raja asterias,Raja australis,Raja badia,Raja bathyphila,Raja bigelowi,Raja binoculata,Raja boesemani,Raja bullisi,Raja campbelli,Raja castelnaui,Raja caudaspinosa,Raja cerva,Raja cervigoni,Raja clarkii,Raja compagnoi,Raja cortezensis,Raja cyclophora,Raja dageti,Raja dissimilis,Raja doutrei,Raja eglanteria,Raja equatorialis,Raja erinacea,Raja fuliginea,Raja garmani,Raja gigas,Raja gudgeri,Raja heemstrai,Raja herwigi,Raja hollandi,Raja hyperborea,Raja innominata,Raja inornata,Raja jenseni,Raja johannisdavisi,Raja kenojei,Raja laevis,Raja lanceorostrata,Raja lemprieri,Raja lentiginosa,Raja leopardus,Raja leucosticta,Raja lintea,Raja macrocauda,Raja maderensis,Raja meerdervoortii,Raja melitensis,Raja miraletus,Raja nasuta,Raja nidarosiensis,Raja ocellata,Raja olseni,Raja pita,Raja polyommata,Raja polystigma,Raja powelli,Raja pulchra,Raja pullopunctata,Raja purpuriventralis,Raja radula,Raja ravidula,Raja spp.,Bathyraja eatonii,Bathyraja maccaini,Bathyraja murrayi,Bathyraja caeluronigricans,Bathyraja diplotaenia,Bathyraja abyssicola,Bathyraja aleutica,Bathyraja andriashevi,Bathyraja griseocauda,Bathyraja hesperafricana,Bathyraja interrupta,Bathyraja irrasa,Bathyraja isotrachys,Bathyraja lindbergi,Bathyraja matsubarai,Bathyraja meridionalis,Bathyraja minispinosa,Bathyraja notoroensis,Bathyraja pallida,Bathyraja parmifera,Bathyraja richardsoni,Bathyraja rosispinis,Bathyraja shuntovi,Bathyraja simoterus,Bathyraja smirnovi,Bathyraja smithii,Bathyraja spinicauda,Bathyraja spinosissima,Bathyraja trachouros,Bathyraja trachura,Bathyraja tzinovskii,Bathyraja violacea,Bathyraja brachyurops,Bathyraja macloviana,Bathyraja scaphiops,Bathyraja spp.,Arhynchobatis asperrimus,Cruriraja atlantis,Cruriraja durbanensis,Cruriraja parcomaculata,Cruriraja poeyi,Cruriraja triangularis,Gurgesiella atlantica,Gurgesiella sibogae,Irolita waitii,Malacoraja spinacidermis,Malacoraja senta,Malacoraja kreffti,Neoraja africana,Neoraja stehmanni,Notoraja ochroderma,Notoraja subtilispinosa,Notoraja tobitukai,Pavoraja alleni,Pavoraja asperula,Pavoraja laxipella,Pavoraja nitida,Pavoraja spinifera,Rhinoraja kujiensis,Rhinoraja longicauda,Rhinoraja odai,Dipturus innominatus,Dipturus intermedius,Zearaja nasuta,Zearaja chilensis,Rioraja agassizi,Psammobatis bergi,Psammobatis normani,Psammobatis spp.,Sympterygia bonapartii,Sympterygia acuta,Breviraja atripinna,Breviraja caerulea,Breviraja colesi,Breviraja cubensis,Breviraja spinosa,Rajella barnardi,Rajella kukujevi,Rajidae,Raja,Dipturus batis,Amblyraja radiata,Dipturus oxyrinchus,Rajella fyllae,Leucoraja circularis,Dipturus nidarosiensis,Leucoraja fullonica,Amblyraja hyperborea,Rostroraja alba,Dipturus linteus,Rajella lintea"
"North Sea and Eastern Arctic";"Greenland halibut";"Reinhardtius hippoglossoides";"ICES";NA;"GHL";"2A-C46";"4";"27_4";"EU waters of IIa and IV,   EU and international waters of Vb and VI";"";"27.4,27.4.a,27.4.b,27.4.c";"Reinhardtius hippoglossoides";"1830200501";"Reinhardtius hippoglossoides"
"North Sea and Eastern Arctic";"Salmon";"Salmo salar";"ICES";NA;"SAL";"No TAC";"3a, 4, 7d";"27_3_A,27_4,27_7_D";"";"";"27.3.a,27.3.a.20,27.3.a.21,27.4,27.4.a,27.4.b,27.4.c,27.7.d";"Salmo salar";"1230100401";"Salmo salar"
"North Sea and Eastern Arctic";"Sea trout";"Salmo trutta";"ICES";NA;"TRS";"";"3a, 4, 7d";"27_3_A,27_4,27_7_D";"";"";"27.3.a,27.3.a.20,27.3.a.21,27.4,27.4.a,27.4.b,27.4.c,27.7.d";"Salmo trutta";"1230100402";"Salmo trutta"
"North Sea and Eastern Arctic";"Mackerel";"Scomber scombrus";"ICES";NA;"MAC";"2A34.";"3a, 4, 7d";"27_3_A,27_4,27_7_D";"IVa) (1), IVb) (1),IVc) (1)";"";"27.3.a,27.3.a.20,27.3.a.21,27.4,27.4.a,27.4.b,27.4.c,27.7.d";"Scomber scombrus";"1750100205";"Scomber scombrus"
"North Sea and Eastern Arctic";"Brill";"Scophthalmus rhombus";"ICES";NA;"BLL";"2AC4-C";"3a, 4, 7d";"27_3_A,27_4,27_7_D";"EC waters of IIa) and IV";"";"27.3.a,27.3.a.20,27.3.a.21,27.4,27.4.a,27.4.b,27.4.c,27.7.d";"Scophthalmus rhombus";"1830506401";"Scophthalmus rhombus"
"North Sea and Eastern Arctic";"Lesser-spotted dogfish";"Scyliorhinus canicula";"ICES";NA;"SYC";"";"3a, 4, 7d";"27_3_A,27_4,27_7_D";"";"";"27.3.a,27.3.a.20,27.3.a.21,27.4,27.4.a,27.4.b,27.4.c,27.7.d";"Scyliorhinus canicula";"1080100301";"Scyliorhinus canicula"
"North Sea and Eastern Arctic";"Sole";"Solea solea";"ICES";NA;"SOL";"24-C.";"Union waters of 2a and 4";"27_2_A,27_4";"";"";"27.2.a,27.2.a.1,27.2.a.2,27.4,27.4.a,27.4.b,27.4.c";"Solea solea";"1830300701";"Solea solea"
"North Sea and Eastern Arctic";"Sole";"Solea solea";"ICES";NA;"SOL";"07D.";"7d";"27_7_D";"";"";"27.7.d";"Solea solea";"1830300701";"Solea solea"
"North Sea and Eastern Arctic";"Sprat";"Sprattus sprattus";"ICES";NA;"SPR";"03A.,2AC4-C";"Union waters of 2a, 3a and 4";"27_2_A,27_3_A,27_4";"IIIa)";"";"27.2.a,27.2.a.1,27.2.a.2,27.3.a,27.3.a.20,27.3.a.21,27.4,27.4.a,27.4.b,27.4.c";"Sprattus sprattus";"1210506601";"Sprattus sprattus"
"North Sea and Eastern Arctic";"Sprat";"Sprattus sprattus";"ICES";NA;"SPR";"7DE.";"7d";"27_7_D";"VIId)e)";"";"27.7.d";"Sprattus sprattus";"1210506601";"Sprattus sprattus"
"North Sea and Eastern Arctic";"Picked dogfish";"Squalus acanthias";"ICES";NA;"DGS";"15X14";"3a, 4 and 7d";"27_3_A,27_4,27_7_D";"";"";"27.3.a,27.3.a.20,27.3.a.21,27.4,27.4.a,27.4.b,27.4.c,27.7.d";"Squalus acanthias";"1090100704";"Squalus acanthias"
"North Sea and Eastern Arctic";"Horse mackerel";"Trachurus trachurus";"ICES";NA;"JAX";"4BC7D";"Union waters of 4b, 4c and 7d";"27_4_B,27_4_C,27_7_D";"NEAFC Stock - catches not from the stock that is subject to NEAFC management mesures";"";"27.4.b,27.4.c,27.7.d";"Trachurus trachurus";"1702300401";"Trachurus trachurus"
"North Sea and Eastern Arctic";"Tub gurnard";"Trigla lucerna";"ICES";NA;"GUU";"No TAC";"4";"27_4";"";"";"27.4,27.4.a,27.4.b,27.4.c";"Trigla lucerna";NA;"Trigla lucerna,Chelidonichthys lucerna"
"North Sea and Eastern Arctic";"Norway pout";"Trisopterus esmarki";"ICES";NA;"NOP";"2A3A4.";"3a, 4";"27_3_A,27_4";"IIIa,   EU waters of IIa and IV, IIIa,  EC waters of IIa and IV";"";"27.3.a,27.3.a.20,27.3.a.21,27.4,27.4.a,27.4.b,27.4.c";"Trisopterus esmarki";NA;"Trisopterus esmarki,Trisopterus esmarkii"
"North Sea and Eastern Arctic";"John Dory";"Zeus faber";"ICES";NA;"JOD";"No TAC";"4, 7d";"27_4,27_7_D";"";"";"27.4,27.4.a,27.4.b,27.4.c,27.7.d";"Zeus faber";"1620100101";"Zeus faber"
"North-East Atlantic";"Queen scallop";"Aequipecten opercularis";"ICES";NA;"QSC";"No TAC";"7";"27_7";"";"";"27.7.a,27.7.b,27.7.c,27.7.d,27.7.e,27.7.f,27.7.g,27.7.h,27.7.j,27.7.k";"Aequipecten opercularis";"3160800105";"Aequipecten opercularis"
"North-East Atlantic";"Smoothhead";"Alepocephalus bairdii";"ICES";NA;"ALC";"No TAC";"6, 12";"27_6,27_12";"";"";"27.6.a,27.6.a.n,27.6.a.s,27.6.b,27.12";"Alepocephalus bairdii";"1231400701";"Alepocephalus bairdii"
"North-East Atlantic";"Sand eel";"Ammodytidae";"ICES";NA;"SAN";"No TAC";"6a";"27_6_A";"??";"";"27.6.a,27.6.a.n,27.6.a.s";"Ammodytidae";"17204XXXXX";"Ammodytidae,Ammodytes personatus,Ammodytes tobianus,Ammodytes americanus,Ammodytes gilli,Ammodytes marinus,Ammodytes spp.,Ammodytoides renniei,Gymnammodytes capensis,Gymnammodytes cicerelus,Gymnammodytes semisquamatus,Gymnammodytes spp.,Hyperoplus immaculatus,Hyperoplus lanceolatus,Ammodytidae,Ammodytes"
"North-East Atlantic";"European Eel";"Anguilla anguilla";"ICES";NA;"ELE";"No TAC";"5, 6, 7 (excl. 7d), 8, 9, 10, 12 and 14";"27_5,27_6,27_7_A,27_7_B,27_7_C,27_7_E,27_7_F,27_7_G,27_7_H,27_7_J,27_7_K,27_8,27_9,27_10,27_12,27_14";"";"";"27.5.a,27.5.b,27.5.b.1,27.5.b.2,27.6.a,27.6.a.n,27.6.a.s,27.6.b,27.7.a,27.7.b,27.7.c,27.7.e,27.7.f,27.7.g,27.7.h,27.7.j,27.7.k,27.8.a,27.8.b,27.8.c,27.8.d,27.8.e,27.9.a,27.9.b,27.9.b.1,27.9.b.2,27.10,27.10.a,27.10.b,27.12,27.14,27.14.a,27.14.b,27.14.b.1,27.14.b.2";"Anguilla anguilla";"1430200201";"Anguilla anguilla"
"North-East Atlantic";"Black scabbardfish";"Aphanopus carbo";"ICES";NA;"BSF";"56712-";"5, 6, 7, 12";"27_5,27_6,27_7,27_12";"";"";"27.5.a,27.5.b,27.5.b.1,27.5.b.2,27.6.a,27.6.a.n,27.6.a.s,27.6.b,27.7.a,27.7.b,27.7.c,27.7.d,27.7.e,27.7.f,27.7.g,27.7.h,27.7.j,27.7.k,27.12";"Aphanopus carbo";"1750601201";"Aphanopus carbo"
"North-East Atlantic";"Black scabbardfish";"Aphanopus carbo";"ICES";NA;"BSF";"8910-";"9, 10, 13";"27_9,27_10,27_13";"";"";"27.9.a,27.9.b,27.9.b.1,27.9.b.2,27.10,27.10.a,27.10.b,27.13";"Aphanopus carbo";"1750601201";"Aphanopus carbo"
"North-East Atlantic";"Deep water catsharks";"Apristurus spp.";"ICES";NA;"API";"";"5, 6, 7, 8, 9, 10";"27_5,27_6,27_8,27_9,27_10";"";"";"27.5.a,27.5.b,27.5.b.1,27.5.b.2,27.6.a,27.6.a.n,27.6.a.s,27.6.b,27.8.a,27.8.b,27.8.c,27.8.d,27.8.e,27.9.a,27.9.b,27.9.b.1,27.9.b.2,27.10,27.10.a,27.10.b";"Apristurus spp.";"10801014XX";"Apristurus spp.,Apristurus acanutus,Apristurus atlanticus,Apristurus brunneus,Apristurus canutus,Apristurus gibbosus,Apristurus herklotsi,Apristurus indicus,Apristurus investigatoris,Apristurus japonicus,Apristurus kampae,Apristurus laurussonii,Apristurus longicephalus,Apristurus macrorhynchus,Apristurus macrostomus,Apristurus maderensis,Apristurus manis,Apristurus microps,Apristurus micropterygeus,Apristurus nasutus,Apristurus parvipinnis,Apristurus platyrhynchus,Apristurus profundorum,Apristurus riveri,Apristurus saldanha,Apristurus sibogae,Apristurus sinensis,Apristurus spongiceps,Apristurus stenseni,Apristurus verweyi,Apristurus spp.,Apristurus"
"North-East Atlantic";"Greater silver smelt";"Argentina silus";"ICES";NA;"ARU";"567.";"5b, 6, 7";"27_5_B,27_6,27_7";"";"";"27.5.b,27.5.b.1,27.5.b.2,27.6.a,27.6.a.n,27.6.a.s,27.6.b,27.7.a,27.7.b,27.7.c,27.7.d,27.7.e,27.7.f,27.7.g,27.7.h,27.7.j,27.7.k";"Argentina silus";"1230501503";"Argentina silus"
"North-East Atlantic";"Meagre";"Argyrosomus regius";"ICES";NA;"MGR";"No TAC";"5, 6, 7 (excl. 7d), 8, 9, 10, 12 and 14";"27_5,27_6,27_7_A,27_7_B,27_7_C,27_7_E,27_7_F,27_7_G,27_7_H,27_7_J,27_7_K,27_8,27_9,27_10,27_12,27_14";"";"";"27.5.a,27.5.b,27.5.b.1,27.5.b.2,27.6.a,27.6.a.n,27.6.a.s,27.6.b,27.7.a,27.7.b,27.7.c,27.7.e,27.7.f,27.7.g,27.7.h,27.7.j,27.7.k,27.8.a,27.8.b,27.8.c,27.8.d,27.8.e,27.9.a,27.9.b,27.9.b.1,27.9.b.2,27.10,27.10.a,27.10.b,27.12,27.14,27.14.a,27.14.b,27.14.b.1,27.14.b.2";"Argyrosomus regius";"1703710601";"Argyrosomus regius"
"North-East Atlantic";"Red gurnard";"Aspitrigla cuculus";"ICES";NA;"GUR";"No TAC";"5, 6, 7 (excl. 7d), 8, 9, 10, 12 and 14";"27_5,27_6,27_7_A,27_7_B,27_7_C,27_7_E,27_7_F,27_7_G,27_7_H,27_7_J,27_7_K,27_8,27_9,27_10,27_12,27_14";"";"";"27.5.a,27.5.b,27.5.b.1,27.5.b.2,27.6.a,27.6.a.n,27.6.a.s,27.6.b,27.7.a,27.7.b,27.7.c,27.7.e,27.7.f,27.7.g,27.7.h,27.7.j,27.7.k,27.8.a,27.8.b,27.8.c,27.8.d,27.8.e,27.9.a,27.9.b,27.9.b.1,27.9.b.2,27.10,27.10.a,27.10.b,27.12,27.14,27.14.a,27.14.b,27.14.b.1,27.14.b.2";"Aspitrigla cuculus";"1780200403";"Aspitrigla cuculus,Chelidonichthys cuculus"
"North-East Atlantic";"Alfonsinos";"Beryx spp.";"ICES";NA;"ALF";"3X14-";"mars-14";"27_5,27_6,27_7_A,27_7_B,27_7_C,27_7_E,27_7_F,27_7_G,27_7_H,27_7_J,27_7_K,27_8,27_9,27_10,27_11,27_12,27_14";"";"";"27.5.a,27.5.b,27.5.b.1,27.5.b.2,27.6.a,27.6.a.n,27.6.a.s,27.6.b,27.7.a,27.7.b,27.7.c,27.7.e,27.7.f,27.7.g,27.7.h,27.7.j,27.7.k,27.8.a,27.8.b,27.8.c,27.8.d,27.8.e,27.9.a,27.9.b,27.9.b.1,27.9.b.2,27.10,27.10.a,27.10.b,27.11,27.12,27.14,27.14.a,27.14.b,27.14.b.1,27.14.b.2";"Beryx spp.";"16102003XX";"Beryx spp.,Beryx decadactylus,Beryx splendens,Beryx spp.,Beryx"
"North-East Atlantic";"Tusk";"Brosme brosme";"ICES";NA;"USK";"567EI.";"5, 6, 7";"27_5,27_6,27_7";"";"";"27.5.a,27.5.b,27.5.b.1,27.5.b.2,27.6.a,27.6.a.n,27.6.a.s,27.6.b,27.7.a,27.7.b,27.7.c,27.7.d,27.7.e,27.7.f,27.7.g,27.7.h,27.7.j,27.7.k";"Brosme brosme";"1480400101";"Brosme brosme"
"North-East Atlantic";"Edible crab";"Cancer pagurus";"ICES";NA;"CRE";"No TAC";"5, 6, 7 (excl. 7d), 8, 9, 10, 12 and 14";"27_5,27_6,27_7_A,27_7_B,27_7_C,27_7_E,27_7_F,27_7_G,27_7_H,27_7_J,27_7_K,27_8,27_9,27_10,27_12,27_14";"";"";"27.5.a,27.5.b,27.5.b.1,27.5.b.2,27.6.a,27.6.a.n,27.6.a.s,27.6.b,27.7.a,27.7.b,27.7.c,27.7.e,27.7.f,27.7.g,27.7.h,27.7.j,27.7.k,27.8.a,27.8.b,27.8.c,27.8.d,27.8.e,27.9.a,27.9.b,27.9.b.1,27.9.b.2,27.10,27.10.a,27.10.b,27.12,27.14,27.14.a,27.14.b,27.14.b.1,27.14.b.2";"Cancer pagurus";"2310901006";"Cancer pagurus"
"North-East Atlantic";"Boarfish";"Capros aper";"ICES";NA;"BOR";"678-";"6, 7, 8";"27_6,27_7,27_8";"EU and international waters of VI, VII and VIII";"";"27.6.a,27.6.a.n,27.6.a.s,27.6.b,27.7.a,27.7.b,27.7.c,27.7.d,27.7.e,27.7.f,27.7.g,27.7.h,27.7.j,27.7.k,27.8.a,27.8.b,27.8.c,27.8.d,27.8.e";"Capros aper";"1620300201";"Capros aper,Caproidae"
"North-East Atlantic";"Gulper shark";"Centrophorus spp.";"ICES";NA;"CWO";"";"5, 6, 7, 8, 9, 10";"27_5,27_6,27_7_A,27_7_B,27_7_C,27_7_E,27_7_F,27_7_G,27_7_H,27_7_J,27_7_K,27_8,27_9,27_10";"";"";"27.5.a,27.5.b,27.5.b.1,27.5.b.2,27.6.a,27.6.a.n,27.6.a.s,27.6.b,27.7.a,27.7.b,27.7.c,27.7.e,27.7.f,27.7.g,27.7.h,27.7.j,27.7.k,27.8.a,27.8.b,27.8.c,27.8.d,27.8.e,27.9.a,27.9.b,27.9.b.1,27.9.b.2,27.10,27.10.a,27.10.b";"Centrophorus spp.";"10901008XX";"Centrophorus spp.,Centrophorus granulosus,Centrophorus uyato,Centrophorus squamosus,Centrophorus lusitanicus,Centrophorus acus,Centrophorus harrissoni,Centrophorus moluccensis,Centrophorus niaukang,Centrophorus tessellatus,Centrophorus atromarginatus,Centrophorus isodon,Centrophorus spp."
"North-East Atlantic";"Portuguese dogfish";"Centroscymnus coelolepis";"ICES";NA;"CYO";"No TAC";"5, 6, 7, 8, 9, 10";"27_5,27_6,27_7,27_8,27_9,27_10";"";"";"27.5.a,27.5.b,27.5.b.1,27.5.b.2,27.6.a,27.6.a.n,27.6.a.s,27.6.b,27.7.a,27.7.b,27.7.c,27.7.d,27.7.e,27.7.f,27.7.g,27.7.h,27.7.j,27.7.k,27.8.a,27.8.b,27.8.c,27.8.d,27.8.e,27.9.a,27.9.b,27.9.b.1,27.9.b.2,27.10,27.10.a,27.10.b";"Centroscymnus coelolepis";"1090101601";"Centroscymnus coelolepis"
"North-East Atlantic";"Longnose velvet dogfish";"Centroscymnus crepidater";"ICES";NA;"CYP";"";"5, 6, 7, 8, 9, 10";"27_5,27_6,27_7_A,27_7_B,27_7_C,27_7_E,27_7_F,27_7_G,27_7_H,27_7_J,27_7_K,27_8,27_9,27_10";"";"";"27.5.a,27.5.b,27.5.b.1,27.5.b.2,27.6.a,27.6.a.n,27.6.a.s,27.6.b,27.7.a,27.7.b,27.7.c,27.7.e,27.7.f,27.7.g,27.7.h,27.7.j,27.7.k,27.8.a,27.8.b,27.8.c,27.8.d,27.8.e,27.9.a,27.9.b,27.9.b.1,27.9.b.2,27.10,27.10.a,27.10.b";"Centroscymnus crepidater";"1090101602";"Centroscymnus crepidater"
"North-East Atlantic";"Black dogfish";"Centroscyllium fabricii";"ICES";NA;"CFB";"";"5, 6, 7, 8, 9, 10";"27_5,27_6,27_7_A,27_7_B,27_7_C,27_7_E,27_7_F,27_7_G,27_7_H,27_7_J,27_7_K,27_8,27_9,27_10";"";"";"27.5.a,27.5.b,27.5.b.1,27.5.b.2,27.6.a,27.6.a.n,27.6.a.s,27.6.b,27.7.a,27.7.b,27.7.c,27.7.e,27.7.f,27.7.g,27.7.h,27.7.j,27.7.k,27.8.a,27.8.b,27.8.c,27.8.d,27.8.e,27.9.a,27.9.b,27.9.b.1,27.9.b.2,27.10,27.10.a,27.10.b";"Centroscyllium fabricii";"1090101901";"Centroscyllium fabricii"
"North-East Atlantic";"Frilled shark";"Chlamydoselachus anguineus";"ICES";NA;"HXC";"";"5, 6, 7, 8, 9, 10";"27_5,27_6,27_7_A,27_7_B,27_7_C,27_7_E,27_7_F,27_7_G,27_7_H,27_7_J,27_7_K,27_8,27_9,27_10";"";"";"27.5.a,27.5.b,27.5.b.1,27.5.b.2,27.6.a,27.6.a.n,27.6.a.s,27.6.b,27.7.a,27.7.b,27.7.c,27.7.e,27.7.f,27.7.g,27.7.h,27.7.j,27.7.k,27.8.a,27.8.b,27.8.c,27.8.d,27.8.e,27.9.a,27.9.b,27.9.b.1,27.9.b.2,27.10,27.10.a,27.10.b";"Chlamydoselachus anguineus";"1050100101";"Chlamydoselachus anguineus"
"North-East Atlantic";"Herring";"Clupea harengus";"ICES";NA;"HER";"06ACL.";"5a";"27_5_A";"";"";"27.5.a";"Clupea harengus";"1210500105";"Clupea harengus"
"North-East Atlantic";"Herring";"Clupea harengus";"ICES";NA;"HER";"5B6ANB";"5b, 6b";"27_5_B,27_6_B";"";"";"27.5.b,27.5.b.1,27.5.b.2,27.6.b";"Clupea harengus";"1210500105";"Clupea harengus"
"North-East Atlantic";"Herring";"Clupea harengus";"ICES";NA;"HER";"07A/MM";"7aN";"27_7_A";"";"";"27.7.a";"Clupea harengus";"1210500105";"Clupea harengus"
"North-East Atlantic";"Herring";"Clupea harengus";"ICES";NA;"HER";"6AS7BC";"6a, 7bc";"27_6_A,27_7_B,27_7_C";"";"";"27.6.a,27.6.a.n,27.6.a.s,27.7.b,27.7.c";"Clupea harengus";"1210500105";"Clupea harengus"
"North-East Atlantic";"Herring";"Clupea harengus";"ICES";NA;"HER";"7G-K";"7aS, 7gh, 7jk";"27_7_A,27_7_G,27_7_H,27_7_J,27_7_K";"";"";"27.7.a,27.7.g,27.7.h,27.7.j,27.7.k";"Clupea harengus";"1210500105";"Clupea harengus"
"North-East Atlantic";"Conger";"Conger conger";"ICES";NA;"COE";"XDS";"5, 6, 7 (excl. 7d), 8, 9, 10, 12 and 14";"27_5,27_6,27_7_A,27_7_B,27_7_C,27_7_E,27_7_F,27_7_G,27_7_H,27_7_J,27_7_K,27_8,27_9,27_10,27_12,27_14";"NEAFC Stock - Deep Sea Fisheries";"";"27.5.a,27.5.b,27.5.b.1,27.5.b.2,27.6.a,27.6.a.n,27.6.a.s,27.6.b,27.7.a,27.7.b,27.7.c,27.7.e,27.7.f,27.7.g,27.7.h,27.7.j,27.7.k,27.8.a,27.8.b,27.8.c,27.8.d,27.8.e,27.9.a,27.9.b,27.9.b.1,27.9.b.2,27.10,27.10.a,27.10.b,27.12,27.14,27.14.a,27.14.b,27.14.b.1,27.14.b.2";"Conger conger";"1431300101";"Conger conger"
"North-East Atlantic";"Roundnose grenadier";"Coryphaenoides rupestris";"ICES";NA;"RNG";"5B67-";"5b, 6, 7";"27_5_B,27_6,27_7_A,27_7_B,27_7_C,27_7_E,27_7_F,27_7_G,27_7_H,27_7_J,27_7_K";"to be confirmed";"";"27.5.b,27.5.b.1,27.5.b.2,27.6.a,27.6.a.n,27.6.a.s,27.6.b,27.7.a,27.7.b,27.7.c,27.7.e,27.7.f,27.7.g,27.7.h,27.7.j,27.7.k";"Coryphaenoides rupestris";"1480600401";"Coryphaenoides rupestris"
"North-East Atlantic";"Roundnose grenadier";"Coryphaenoides rupestris";"ICES";NA;"RNG";"8X14-,514GRN";"8, 9, 10, 12, 14";"27_8,27_9,27_10,27_12,27_14";"to be confirmed";"";"27.8.a,27.8.b,27.8.c,27.8.d,27.8.e,27.9.a,27.9.b,27.9.b.1,27.9.b.2,27.10,27.10.a,27.10.b,27.12,27.14,27.14.a,27.14.b,27.14.b.1,27.14.b.2";"Coryphaenoides rupestris";"1480600401";"Coryphaenoides rupestris"
"North-East Atlantic";"Kitefin shark";"Dalatias licha";"ICES";NA;"SCK";"XDS";"5, 6, 7 (excl. 7d), 8, 9, 10, 12 and 14";"27_5,27_6,27_7_A,27_7_B,27_7_C,27_7_E,27_7_F,27_7_G,27_7_H,27_7_J,27_7_K,27_8,27_9,27_10,27_12,27_14";"NEAFC Stock - Deep Sea Fisheries";"";"27.5.a,27.5.b,27.5.b.1,27.5.b.2,27.6.a,27.6.a.n,27.6.a.s,27.6.b,27.7.a,27.7.b,27.7.c,27.7.e,27.7.f,27.7.g,27.7.h,27.7.j,27.7.k,27.8.a,27.8.b,27.8.c,27.8.d,27.8.e,27.9.a,27.9.b,27.9.b.1,27.9.b.2,27.10,27.10.a,27.10.b,27.12,27.14,27.14.a,27.14.b,27.14.b.1,27.14.b.2";"Dalatias licha";"1090101801";"Dalatias licha"
"North-East Atlantic";"Common stingray";"Dasyatis pastinaca";"ICES";NA;"SRX";"67AKXD,07D.,89-C.";"7, 8";"27_7,27_8";"SRX = all rays";"";"27.7.a,27.7.b,27.7.c,27.7.d,27.7.e,27.7.f,27.7.g,27.7.h,27.7.j,27.7.k,27.8.a,27.8.b,27.8.c,27.8.d,27.8.e";"Dasyatis pastinaca";"1100500326";"Dasyatis pastinaca"
"North-East Atlantic";"Birdbeak dogfish";"Deania calcea";"ICES";NA;"DCA";"XDS";"5, 6, 7, 9, 10, 12";"27_5,27_6,27_7_A,27_7_B,27_7_C,27_7_E,27_7_F,27_7_G,27_7_H,27_7_J,27_7_K,27_8,27_9,27_10,27_12";"";"";"27.5.a,27.5.b,27.5.b.1,27.5.b.2,27.6.a,27.6.a.n,27.6.a.s,27.6.b,27.7.a,27.7.b,27.7.c,27.7.e,27.7.f,27.7.g,27.7.h,27.7.j,27.7.k,27.8.a,27.8.b,27.8.c,27.8.d,27.8.e,27.9.a,27.9.b,27.9.b.1,27.9.b.2,27.10,27.10.a,27.10.b,27.12";"Deania calcea";"1090101401";"Deania calcea"
"North-East Atlantic";"Sea bass";"Dicentrarchus labrax";"ICES";NA;"BSS";"No TAC";"5, 6, 7 (excl. 7d), 8, 9, 10, 12 and 14";"27_5,27_6,27_7_A,27_7_B,27_7_C,27_7_E,27_7_F,27_7_G,27_7_H,27_7_J,27_7_K,27_8,27_9,27_10,27_12,27_14";"";"";"27.5.a,27.5.b,27.5.b.1,27.5.b.2,27.6.a,27.6.a.n,27.6.a.s,27.6.b,27.7.a,27.7.b,27.7.c,27.7.e,27.7.f,27.7.g,27.7.h,27.7.j,27.7.k,27.8.a,27.8.b,27.8.c,27.8.d,27.8.e,27.9.a,27.9.b,27.9.b.1,27.9.b.2,27.10,27.10.a,27.10.b,27.12,27.14,27.14.a,27.14.b,27.14.b.1,27.14.b.2";"Dicentrarchus labrax";"1700634503";"Dicentrarchus labrax"
"North-East Atlantic";"Wedge sole";"Dicologlossa cuneata";"ICES";NA;"CET";"No TAC";"8c, 9";"27_8_C,27_9";"";"";"27.8.c,27.9.a,27.9.b,27.9.b.1,27.9.b.2";"Dicologlossa cuneata";"1830301701";"Dicologlossa cuneata"
"North-East Atlantic";"Blue skate";"Dipturus batis, Dipturis intermedius";"ICES";NA;"DRJ,RJB";"";"6, 7a, 7e-k";"27_6,27_7_A,27_7_E,27_7_F,27_7_G,27_7_H,27_7_J,27_7_K";"";"";"27.6.a,27.6.a.n,27.6.a.s,27.6.b,27.7.a,27.7.e,27.7.f,27.7.g,27.7.h,27.7.j,27.7.k";"Dipturus batis, Dipturis intermedius";NA;"Dipturus batis,Dipturis intermedius,Dipturus intermedius"
"North-East Atlantic";"Blue skate";"Dipturus batis, Dipturis intermedius";"ICES";NA;"DRJ,RJB";"";"8, 9a";"27_8_C,27_9_A";"";"";"27.8.c,27.9.a";"Dipturus batis, Dipturis intermedius";NA;"Dipturus batis,Dipturis intermedius,Dipturus intermedius"
"North-East Atlantic";"Anchovy";"Engraulis encrasicolus";"ICES";NA;"ANE";"08.";"8";"27_8";"";"";"27.8.a,27.8.b,27.8.c,27.8.d,27.8.e";"Engraulis encrasicolus";"1210600201";"Engraulis encrasicolus"
"North-East Atlantic";"Anchovy";"Engraulis encrasicolus";"ICES";NA;"ANE";"9/3411";"9, 10";"27_9,27_10";"";"";"27.9.a,27.9.b,27.9.b.1,27.9.b.2,27.10,27.10.a,27.10.b";"Engraulis encrasicolus";"1210600201";"Engraulis encrasicolus"
"North-East Atlantic";"Great lanternshark";"Etmopterus princeps";"ICES";NA;"ETR";"";"5, 6, 7, 8, 9, 10";"27_5,27_6,27_7,27_8,27_9,27_10";"";"";"27.5.a,27.5.b,27.5.b.1,27.5.b.2,27.6.a,27.6.a.n,27.6.a.s,27.6.b,27.7.a,27.7.b,27.7.c,27.7.d,27.7.e,27.7.f,27.7.g,27.7.h,27.7.j,27.7.k,27.8.a,27.8.b,27.8.c,27.8.d,27.8.e,27.9.a,27.9.b,27.9.b.1,27.9.b.2,27.10,27.10.a,27.10.b";"Etmopterus princeps";"1090101005";"Etmopterus princeps"
"North-East Atlantic";"Velvet belly";"Etmopterus spinax";"ICES";NA;"ETX";"No TAC";"6, 7, 8, 10";"27_6,27_7_A,27_7_B,27_7_C,27_7_E,27_7_F,27_7_G,27_7_H,27_7_J,27_7_K,27_8,27_10";"";"";"27.6.a,27.6.a.n,27.6.a.s,27.6.b,27.7.a,27.7.b,27.7.c,27.7.e,27.7.f,27.7.g,27.7.h,27.7.j,27.7.k,27.8.a,27.8.b,27.8.c,27.8.d,27.8.e,27.10,27.10.a,27.10.b";"Etmopterus spinax";"1090101001";"Etmopterus spinax"
"North-East Atlantic";"Grey gurnard";"Eutrigla gurnardus";"ICES";NA;"GUG";"No TAC";"7e";"27_7_E";"";"";"27.7.e";"Eutrigla gurnardus";"1780207001";"Eutrigla gurnardus"
"North-East Atlantic";"Cod";"Gadus morhua";"ICES";NA;"COD";"05B-F.";"5b";"27_5_B";"Faroe zone: Vb)";"";"27.5.b,27.5.b.1,27.5.b.2";"Gadus morhua";"1480400202";"Gadus morhua"
"North-East Atlantic";"Cod";"Gadus morhua";"ICES";NA;"COD";"5BE6A";"6a";"27_6_A";"Via,   EU and international waters of Vb east of 12W";"";"27.6.a,27.6.a.n,27.6.a.s";"Gadus morhua";"1480400202";"Gadus morhua"
"North-East Atlantic";"Cod";"Gadus morhua";"ICES";NA;"COD";"5W6-14";"6b";"27_6_B";"Vib,   EU and international waters of Vb west of 12 W and of XII and XIV";"";"27.6.b";"Gadus morhua";"1480400202";"Gadus morhua"
"North-East Atlantic";"Cod";"Gadus morhua";"ICES";NA;"COD";"07A.";"7a";"27_7_A";"ICES division VIIa - Irish Sea";"";"27.7.a";"Gadus morhua";"1480400202";"Gadus morhua"
"North-East Atlantic";"Cod";"Gadus morhua";"ICES";NA;"COD";"7XAD34";"7b, 7c, 7e-k, 8, 9, 10";"27_7_B,27_7_C,27_7_E,27_7_F,27_7_G,27_7_H,27_7_J,27_7_K,27_8,27_9,27_10";"VII b-c, e-k, VIII, IX and X, EC waters of CECAF 34.1.1";"";"27.7.b,27.7.c,27.7.e,27.7.f,27.7.g,27.7.h,27.7.j,27.7.k,27.8.a,27.8.b,27.8.c,27.8.d,27.8.e,27.9.a,27.9.b,27.9.b.1,27.9.b.2,27.10,27.10.a,27.10.b";"Gadus morhua";"1480400202";"Gadus morhua"
"North-East Atlantic";"Cod";"Gadus morhua";"ICES";NA;"COD";"5W6-14";"5, 14";"27_5,27_14";"";"";"27.5.a,27.5.b,27.5.b.1,27.5.b.2,27.14,27.14.a,27.14.b,27.14.b.1,27.14.b.2";"Gadus morhua";"1480400202";"Gadus morhua"
"North-East Atlantic";"Tope shark";"Galeorhinus galeus";"ICES";NA;"GAG";"No TAC";"5-10, 12";"27_5,27_6,27_7_A,27_7_B,27_7_C,27_7_E,27_7_F,27_7_G,27_7_H,27_7_J,27_7_K,27_8,27_9,27_10,27_12";"";"";"27.5.a,27.5.b,27.5.b.1,27.5.b.2,27.6.a,27.6.a.n,27.6.a.s,27.6.b,27.7.a,27.7.b,27.7.c,27.7.e,27.7.f,27.7.g,27.7.h,27.7.j,27.7.k,27.8.a,27.8.b,27.8.c,27.8.d,27.8.e,27.9.a,27.9.b,27.9.b.1,27.9.b.2,27.10,27.10.a,27.10.b,27.12";"Galeorhinus galeus";"1080401103";"Galeorhinus galeus"
"North-East Atlantic";"Black-mouthed dogfish";"Galeus melastomus";"ICES";NA;"SHO";"";"6, 7";"27_6,27_7_A,27_7_B,27_7_C,27_7_E,27_7_F,27_7_G,27_7_H,27_7_J,27_7_K";"";"";"27.6.a,27.6.a.n,27.6.a.s,27.6.b,27.7.a,27.7.b,27.7.c,27.7.e,27.7.f,27.7.g,27.7.h,27.7.j,27.7.k";"Galeus melastomus";"1080100104";"Galeus melastomus"
"North-East Atlantic";"Black-mouthed dogfish";"Galeus melastomus";"ICES";NA;"SHO";"";"8, 9a";"27_8,27_9_A";"";"";"27.8.a,27.8.b,27.8.c,27.8.d,27.8.e,27.9.a";"Galeus melastomus";"1080100104";"Galeus melastomus"
"North-East Atlantic";"Mouse catshark";"Galeus murinus";"ICES";NA;"GAM";"";"5, 6, 7, 8, 9, 10";"27_5,27_6,27_7_A,27_7_B,27_7_C,27_7_E,27_7_F,27_7_G,27_7_H,27_7_J,27_7_K,27_8,27_9,27_10";"";"";"27.5.a,27.5.b,27.5.b.1,27.5.b.2,27.6.a,27.6.a.n,27.6.a.s,27.6.b,27.7.a,27.7.b,27.7.c,27.7.e,27.7.f,27.7.g,27.7.h,27.7.j,27.7.k,27.8.a,27.8.b,27.8.c,27.8.d,27.8.e,27.9.a,27.9.b,27.9.b.1,27.9.b.2,27.10,27.10.a,27.10.b";"Galeus murinus";"1080100106";"Galeus murinus"
"North-East Atlantic";"Witch ";"Glyptocephalus cynoglossus";"ICES";NA;"WIT";"No TAC";"6, 7";"27_6,27_7_A,27_7_B,27_7_E,27_7_F,27_7_G,27_7_H,27_7_J,27_7_K";"";"";"27.6.a,27.6.a.n,27.6.a.s,27.6.b,27.7.a,27.7.b,27.7.e,27.7.f,27.7.g,27.7.h,27.7.j,27.7.k";"Glyptocephalus cynoglossus";"1830201102";"Glyptocephalus cynoglossus"
"North-East Atlantic";"Bluntnose sixgill shark";"Hexanchus griseus";"ICES";NA;"SBL";"No TAC";"5, 6, 7, 8, 9, 10";"27_5,27_6,27_7_A,27_7_B,27_7_C,27_7_E,27_7_F,27_7_G,27_7_H,27_7_J,27_7_K,27_8,27_9,27_10";"";"";"27.5.a,27.5.b,27.5.b.1,27.5.b.2,27.6.a,27.6.a.n,27.6.a.s,27.6.b,27.7.a,27.7.b,27.7.c,27.7.e,27.7.f,27.7.g,27.7.h,27.7.j,27.7.k,27.8.a,27.8.b,27.8.c,27.8.d,27.8.e,27.9.a,27.9.b,27.9.b.1,27.9.b.2,27.10,27.10.a,27.10.b";"Hexanchus griseus";"1050200201";"Hexanchus griseus"
"North-East Atlantic";"Bluemouth rockfish";"Helicolenus dactylopterus";"ICES";NA;"BRF";"No TAC";"5, 6, 7 (excl. 7d), 8, 9, 10, 12 and 14";"27_5,27_6,27_7_A,27_7_B,27_7_C,27_7_E,27_7_F,27_7_G,27_7_H,27_7_J,27_7_K,27_8,27_9,27_10,27_12,27_14";"";"";"27.5.a,27.5.b,27.5.b.1,27.5.b.2,27.6.a,27.6.a.n,27.6.a.s,27.6.b,27.7.a,27.7.b,27.7.c,27.7.e,27.7.f,27.7.g,27.7.h,27.7.j,27.7.k,27.8.a,27.8.b,27.8.c,27.8.d,27.8.e,27.9.a,27.9.b,27.9.b.1,27.9.b.2,27.10,27.10.a,27.10.b,27.12,27.14,27.14.a,27.14.b,27.14.b.1,27.14.b.2";"Helicolenus dactylopterus";"1780101703";"Helicolenus dactylopterus"
"North-East Atlantic";"Atlantic halibut";"Hippoglossus hippoglossus";"ICES";NA;"HAL";"514GRN";"5, 14";"27_5,27_14";"";"";"27.5.a,27.5.b,27.5.b.1,27.5.b.2,27.14,27.14.a,27.14.b,27.14.b.1,27.14.b.2";"Hippoglossus hippoglossus";"1830200201";"Hippoglossus hippoglossus"
"North-East Atlantic";"Lobster";"Homarus gammarus";"ICES";NA;"LBE";"No TAC";"5, 6, 7 (excl. 7d), 8, 9, 10, 12 and 14";"27_5,27_6,27_7_A,27_7_B,27_7_C,27_7_E,27_7_F,27_7_G,27_7_H,27_7_J,27_7_K,27_8,27_9,27_10,27_12,27_14";"";"";"27.5.a,27.5.b,27.5.b.1,27.5.b.2,27.6.a,27.6.a.n,27.6.a.s,27.6.b,27.7.a,27.7.b,27.7.c,27.7.e,27.7.f,27.7.g,27.7.h,27.7.j,27.7.k,27.8.a,27.8.b,27.8.c,27.8.d,27.8.e,27.9.a,27.9.b,27.9.b.1,27.9.b.2,27.10,27.10.a,27.10.b,27.12,27.14,27.14.a,27.14.b,27.14.b.1,27.14.b.2";"Homarus gammarus";"2294200718";"Homarus gammarus"
"North-East Atlantic";"Orange roughy";"Hoplostethus atlanticus";"ICES";NA;"ORY";"No TAC";"5, 6, 7 (excl. 7d), 8, 9, 10, 12 and 14";"27_5,27_6,27_7_A,27_7_B,27_7_C,27_7_E,27_7_F,27_7_G,27_7_H,27_7_J,27_7_K,27_8,27_9,27_10,27_12,27_14";"";"";"27.5.a,27.5.b,27.5.b.1,27.5.b.2,27.6.a,27.6.a.n,27.6.a.s,27.6.b,27.7.a,27.7.b,27.7.c,27.7.e,27.7.f,27.7.g,27.7.h,27.7.j,27.7.k,27.8.a,27.8.b,27.8.c,27.8.d,27.8.e,27.9.a,27.9.b,27.9.b.1,27.9.b.2,27.10,27.10.a,27.10.b,27.12,27.14,27.14.a,27.14.b,27.14.b.1,27.14.b.2";"Hoplostethus atlanticus";"1610500202";"Hoplostethus atlanticus"
"North-East Atlantic";"Silver scabbardfish";"Lepidopus caudatus";"ICES";NA;"SFS";"XDS";"9a";"27_9_A";"NEAFC Stock - Deep Sea Fisheries";"";"27.9.a";"Lepidopus caudatus";"1750600601";"Lepidopus caudatus"
"North-East Atlantic";"Four-spot megrim";"Lepidorhombus boscii";"ICES";NA;"LEZ,LDB";"8C3411";"8c, 9a";"27_8_C,27_9_A";"VIIIc), IX, X,  COPACE 34.1.1 (1),   international waters of XII and XIV ";"";"27.8.c,27.9.a";"Lepidorhombus boscii";"1830500302";"Lepidorhombus boscii"
"North-East Atlantic";"Megrim";"Lepidorhombus whiffiagonis";"ICES";NA;"LEZ,MEG";"56-14";"6";"27_6";"VI,  EU and international waters of Vb";"";"27.6.a,27.6.a.n,27.6.a.s,27.6.b";"Lepidorhombus whiffiagonis";"1830500301";"Lepidorhombus whiffiagonis"
"North-East Atlantic";"Megrim";"Lepidorhombus whiffiagonis";"ICES";NA;"LEZ,MEG";"07.,8ABDE.";"7, 8abd";"27_7_A,27_7_B,27_7_C,27_7_E,27_7_F,27_7_G,27_7_H,27_7_J,27_7_K,27_8_A,27_8_B";"";"";"27.7.a,27.7.b,27.7.c,27.7.e,27.7.f,27.7.g,27.7.h,27.7.j,27.7.k,27.8.a,27.8.b";"Lepidorhombus whiffiagonis";"1830500301";"Lepidorhombus whiffiagonis"
"North-East Atlantic";"Megrim";"Lepidorhombus whiffiagonis";"ICES";NA;"LEZ,MEG";"8C3411";"8c, 9a";"27_8_C,27_9_A";"";"";"27.8.c,27.9.a";"Lepidorhombus whiffiagonis";"1830500301";"Lepidorhombus whiffiagonis"
"North-East Atlantic";"Sandy ray";"Leucoraja circularis";"ICES";NA;"RJI";"67AKXD";"6, 7";"27_6,27_7_A,27_7_B,27_7_C,27_7_E,27_7_F,27_7_G,27_7_H,27_7_J,27_8,27_7_K";"";"Leucoraja circularis";"27.6.a,27.6.a.n,27.6.a.s,27.6.b,27.7.a,27.7.b,27.7.c,27.7.e,27.7.f,27.7.g,27.7.h,27.7.j,27.8.a,27.8.b,27.8.c,27.8.d,27.8.e,27.7.k";"Leucoraja circularis";NA;"Leucoraja circularis"
"North-East Atlantic";"Shagreen ray";"Leucoraja fullonica";"ICES";NA;"RJF";"02B.";"6, 7";"27_6,27_7_A,27_7_B,27_7_C,27_7_E,27_7_F,27_7_G,27_7_H,27_7_J,27_7_K";"";"Leucoraja fullonica";"27.6.a,27.6.a.n,27.6.a.s,27.6.b,27.7.a,27.7.b,27.7.c,27.7.e,27.7.f,27.7.g,27.7.h,27.7.j,27.7.k";"Leucoraja fullonica";NA;"Leucoraja fullonica"
"North-East Atlantic";"Cuckoo ray";"Leucoraja naevus";"ICES";NA;"RJN";"67AKXD";"6, 7, 8ab";"27_6,27_7_A,27_7_B,27_7_C,27_7_E,27_7_F,27_7_G,27_7_H,27_7_J,27_7_K,27_8_A,27_8_B";"";"";"27.6.a,27.6.a.n,27.6.a.s,27.6.b,27.7.a,27.7.b,27.7.c,27.7.e,27.7.f,27.7.g,27.7.h,27.7.j,27.7.k,27.8.a,27.8.b";"Leucoraja naevus";NA;"Leucoraja naevus"
"North-East Atlantic";"Cuckoo ray";"Leucoraja naevus";"ICES";NA;"RJN";"89-C.";"8c";"27_8_C";"";"";"27.8.c";"Leucoraja naevus";NA;"Leucoraja naevus"
"North-East Atlantic";"Cuckoo ray";"Leucoraja naevus";"ICES";NA;"RJN";"89-C.";"9a";"27_9_A";"";"";"27.9.a";"Leucoraja naevus";NA;"Leucoraja naevus"
"North-East Atlantic";"Dab";"Limanda limanda";"ICES";NA;"DAB";"No TAC";"7a, 7f-h";"27_7_A,27_7_F,27_7_G,27_7_H";"";"";"27.7.a,27.7.f,27.7.g,27.7.h";"Limanda limanda";"1830202405";"Limanda limanda"
"North-East Atlantic";"Dab";"Limanda limanda";"ICES";NA;"DAB";"No TAC";"7e";"27_7_E";"";"";"27.7.e";"Limanda limanda";"1830202405";"Limanda limanda"
"North-East Atlantic";"Common squid";"Loligo vulgaris";"ICES";NA;"SQR";"No TAC";"5, 6, 7 (excl. 7d), 8, 9, 10, 12 and 14";"27_5,27_6,27_7_A,27_7_B,27_7_C,27_7_E,27_7_F,27_7_G,27_7_H,27_7_J,27_7_K,27_8,27_9,27_10,27_12,27_14";"";"";"27.5.a,27.5.b,27.5.b.1,27.5.b.2,27.6.a,27.6.a.n,27.6.a.s,27.6.b,27.7.a,27.7.b,27.7.c,27.7.e,27.7.f,27.7.g,27.7.h,27.7.j,27.7.k,27.8.a,27.8.b,27.8.c,27.8.d,27.8.e,27.9.a,27.9.b,27.9.b.1,27.9.b.2,27.10,27.10.a,27.10.b,27.12,27.14,27.14.a,27.14.b,27.14.b.1,27.14.b.2";"Loligo vulgaris";"3210400109";"Loligo vulgaris"
"North-East Atlantic";"Black-bellied angler";"Lophius budegassa";"ICES";NA;"ANF,MNZ";"*56-14,56-14";"6";"27_6";"";"";"27.6.a,27.6.a.n,27.6.a.s,27.6.b";"Lophius budegassa";"1950100102";"Lophius budegassa"
"North-East Atlantic";"Black-bellied angler";"Lophius budegassa";"ICES";NA;"ANF,MNZ";"07.,8ABDE";"7, 8abd";"27_7_A,27_7_B,27_7_C,27_7_E,27_7_F,27_7_G,27_7_H,27_7_J,27_7_K,27_8_A,27_8_B,27_8_D";"";"";"27.7.a,27.7.b,27.7.c,27.7.e,27.7.f,27.7.g,27.7.h,27.7.j,27.7.k,27.8.a,27.8.b,27.8.d";"Lophius budegassa";"1950100102";"Lophius budegassa"
"North-East Atlantic";"Black-bellied angler";"Lophius budegassa";"ICES";NA;"ANF,MNZ";"8C3411";"8c, 9a";"27_8_C,27_9_A";"";"";"27.8.c,27.9.a";"Lophius budegassa";"1950100102";"Lophius budegassa"
"North-East Atlantic";"Anglerfish";"Lophius piscatorius";"ICES";NA;"MON,MNZ";"*56-14,56-14";"6";"27_6";"";"";"27.6.a,27.6.a.n,27.6.a.s,27.6.b";"Lophius piscatorius";"1950100101";"Lophius piscatorius"
"North-East Atlantic";"Anglerfish";"Lophius piscatorius";"ICES";NA;"MON,MNZ";"*56-14,56-14";"5b, 12, 14";"27_5_B,27_12,27_14";"";"";"27.5.b,27.5.b.1,27.5.b.2,27.12,27.14,27.14.a,27.14.b,27.14.b.1,27.14.b.2";"Lophius piscatorius";"1950100101";"Lophius piscatorius"
"North-East Atlantic";"Anglerfish";"Lophius piscatorius";"ICES";NA;"MON,MNZ";"07.,8ABDE";"7, 8abd";"27_7_B,27_7_C,27_7_E,27_7_F,27_7_G,27_7_H,27_7_J,27_7_K,27_8_A,27_8_B,27_8_D";"";"";"27.7.b,27.7.c,27.7.e,27.7.f,27.7.g,27.7.h,27.7.j,27.7.k,27.8.a,27.8.b,27.8.d";"Lophius piscatorius";"1950100101";"Lophius piscatorius"
"North-East Atlantic";"Anglerfish";"Lophius piscatorius";"ICES";NA;"MON,MNZ";"8C3411";"8c, 9a";"27_8_C,27_9_A";"";"";"27.8.c,27.9.a";"Lophius piscatorius";"1950100101";"Lophius piscatorius"
"North-East Atlantic";"Roughhead grenadier";"Macrourus berglax";"ICES";NA;"RHG";"8X14-,514GRN";"8, 9, 10, 12, 14";"27_8,27_9,27_10,27_12,27_14";"";"";"27.8.a,27.8.b,27.8.c,27.8.d,27.8.e,27.9.a,27.9.b,27.9.b.1,27.9.b.2,27.10,27.10.a,27.10.b,27.12,27.14,27.14.a,27.14.b,27.14.b.1,27.14.b.2";"Macrourus berglax";"1480600103";"Macrourus berglax"
"North-East Atlantic";"Spider crab";"Maja brachydactyla";"ICES";NA;"JDV";"No TAC";"5, 6, 7";"27_5,27_6,27_7";"";"";"27.5.a,27.5.b,27.5.b.1,27.5.b.2,27.6.a,27.6.a.n,27.6.a.s,27.6.b,27.7.a,27.7.b,27.7.c,27.7.d,27.7.e,27.7.f,27.7.g,27.7.h,27.7.j,27.7.k";"Maja brachydactyla";"2312100504";"Maja brachydactyla"
"North-East Atlantic";"Capelin";"Mallotus villosus";"ICES";NA;"CAP";"514GRN";"14";"27_14";"Greenland zone: V & XIV";"";"27.14,27.14.a,27.14.b,27.14.b.1,27.14.b.2";"Mallotus villosus";"1230400201";"Mallotus villosus"
"North-East Atlantic";"Haddock";"Melanogrammus aeglefinus";"ICES";NA;"HAD";"5BC6A.";"5b, 6a";"27_5_B,27_6_A";"Faroe zone: Vb)";"";"27.5.b,27.5.b.1,27.5.b.2,27.6.a,27.6.a.n,27.6.a.s";"Melanogrammus aeglefinus";"1480401001";"Melanogrammus aeglefinus"
"North-East Atlantic";"Haddock";"Melanogrammus aeglefinus";"ICES";NA;"HAD";"6B1214";"6b, 12, 14";"27_6_B,27_12,27_14";"Ec and international waters of Vib),  XII and XIV";"";"27.6.b,27.12,27.14,27.14.a,27.14.b,27.14.b.1,27.14.b.2";"Melanogrammus aeglefinus";"1480401001";"Melanogrammus aeglefinus"
"North-East Atlantic";"Haddock";"Melanogrammus aeglefinus";"ICES";NA;"HAD";"07A.";"7a";"27_7_A";"ICES division VIIa - Irish Sea";"";"27.7.a";"Melanogrammus aeglefinus";"1480401001";"Melanogrammus aeglefinus"
"North-East Atlantic";"Haddock";"Melanogrammus aeglefinus";"ICES";NA;"HAD";"7X7A34";"7b-k, 8, 9, 10";"27_7_B,27_7_C,27_7_E,27_7_F,27_7_G,27_7_H,27_7_J,27_7_K,27_8,27_9,27_10";"VIIbcdefghjk, VII, IX, X, EC waters of CECAF 34.1.1";"";"27.7.b,27.7.c,27.7.e,27.7.f,27.7.g,27.7.h,27.7.j,27.7.k,27.8.a,27.8.b,27.8.c,27.8.d,27.8.e,27.9.a,27.9.b,27.9.b.1,27.9.b.2,27.10,27.10.a,27.10.b";"Melanogrammus aeglefinus";"1480401001";"Melanogrammus aeglefinus"
"North-East Atlantic";"Whiting";"Merlangius merlangus";"ICES";NA;"WHG";"08.";"8, 9, 10";"27_8,27_9,27_10";"";"";"27.8.a,27.8.b,27.8.c,27.8.d,27.8.e,27.9.a,27.9.b,27.9.b.1,27.9.b.2,27.10,27.10.a,27.10.b";"Merlangius merlangus";"1480403401";"Merlangius merlangus"
"North-East Atlantic";"Whiting";"Merlangius merlangus";"ICES";NA;"WHG";"56-14";"5b, 6, 12, 14";"27_5_B,27_6,27_12,27_14";"";"";"27.5.b,27.5.b.1,27.5.b.2,27.6.a,27.6.a.n,27.6.a.s,27.6.b,27.12,27.14,27.14.a,27.14.b,27.14.b.1,27.14.b.2";"Merlangius merlangus";"1480403401";"Merlangius merlangus"
"North-East Atlantic";"Whiting";"Merlangius merlangus";"ICES";NA;"WHG";"07A.";"7a";"27_7_A";"";"";"27.7.a";"Merlangius merlangus";"1480403401";"Merlangius merlangus"
"North-East Atlantic";"Whiting";"Merlangius merlangus";"ICES";NA;"WHG";"7X7A-C";"7b-k";"27_7_B,27_7_C,27_7_E,27_7_F,27_7_G,27_7_H,27_7_J,27_7_K";"";"";"27.7.b,27.7.c,27.7.e,27.7.f,27.7.g,27.7.h,27.7.j,27.7.k";"Merlangius merlangus";"1480403401";"Merlangius merlangus"
"North-East Atlantic";"Hake";"Merluccius merluccius";"ICES";NA;"HKE";"571214";"5b, 6, 7, 12, 14";"27_5_B,27_6,27_7_A,27_7_B,27_7_C,27_7_E,27_7_F,27_7_G,27_7_H,27_7_J,27_7_K,27_12,27_14";"VIIIabde, Vb (1), Vi, VII, XII, XIV";"";"27.5.b,27.5.b.1,27.5.b.2,27.6.a,27.6.a.n,27.6.a.s,27.6.b,27.7.a,27.7.b,27.7.c,27.7.e,27.7.f,27.7.g,27.7.h,27.7.j,27.7.k,27.12,27.14,27.14.a,27.14.b,27.14.b.1,27.14.b.2";"Merluccius merluccius";"1480500401";"Merluccius merluccius"
"North-East Atlantic";"Hake";"Merluccius merluccius";"ICES";NA;"HKE";"8ABDE.";"8abde";"27_8_A,27_8_B,27_8_D,27_8_E";"";"";"27.8.a,27.8.b,27.8.d,27.8.e";"Merluccius merluccius";"1480500401";"Merluccius merluccius"
"North-East Atlantic";"Hake";"Merluccius merluccius";"ICES";NA;"HKE";"8C3411";"8c, 9, 10";"27_8_C,27_9,27_10";"VIIIc), IX, X, COPACE 34.1.1 (1), internatina waters of XII and XIV";"";"27.8.c,27.9.a,27.9.b,27.9.b.1,27.9.b.2,27.10,27.10.a,27.10.b";"Merluccius merluccius";"1480500401";"Merluccius merluccius"
"North-East Atlantic";"Wedge sole";"Microchirus variegatus";"ICES";NA;"MKG";"No TAC";"5, 6, 7 (excl. 7d), 8, 9, 10, 12 and 14";"27_5,27_6,27_7_A,27_7_B,27_7_C,27_7_E,27_7_F,27_7_G,27_7_H,27_7_J,27_7_K,27_8,27_9,27_10,27_12,27_14";"";"";"27.5.a,27.5.b,27.5.b.1,27.5.b.2,27.6.a,27.6.a.n,27.6.a.s,27.6.b,27.7.a,27.7.b,27.7.c,27.7.e,27.7.f,27.7.g,27.7.h,27.7.j,27.7.k,27.8.a,27.8.b,27.8.c,27.8.d,27.8.e,27.9.a,27.9.b,27.9.b.1,27.9.b.2,27.10,27.10.a,27.10.b,27.12,27.14,27.14.a,27.14.b,27.14.b.1,27.14.b.2";"Microchirus variegatus";"1830308103";"Microchirus variegatus"
"North-East Atlantic";"Blue whiting";"Micromesistius poutassou";"ICES";NA;"WHB";"1X14";"5, 6, 7 (excl. 7d), 8, 9, 10, 12 and 14";"27_5,27_6,27_7_A,27_7_B,27_7_C,27_7_E,27_7_F,27_7_G,27_7_H,27_7_J,27_7_K,27_8,27_9,27_12,27_14";"ICES I-II, III, IV, V, VII, VIIIabde, XII and XIV (EC and international waters)";"";"27.5.a,27.5.b,27.5.b.1,27.5.b.2,27.6.a,27.6.a.n,27.6.a.s,27.6.b,27.7.a,27.7.b,27.7.c,27.7.e,27.7.f,27.7.g,27.7.h,27.7.j,27.7.k,27.8.a,27.8.b,27.8.c,27.8.d,27.8.e,27.9.a,27.9.b,27.9.b.1,27.9.b.2,27.12,27.14,27.14.a,27.14.b,27.14.b.1,27.14.b.2";"Micromesistius poutassou";"1480403301";"Micromesistius poutassou"
"North-East Atlantic";"Lemon sole";"Microstomus kitt";"ICES";NA;"LEM";"No TAC";"5, 6, 7 (excl. 7d), 8, 9, 10, 12 and 14";"27_5,27_6,27_7_A,27_7_B,27_7_C,27_7_E,27_7_F,27_7_G,27_7_H,27_7_J,27_7_K,27_8,27_9,27_10,27_12,27_14";"";"";"27.5.a,27.5.b,27.5.b.1,27.5.b.2,27.6.a,27.6.a.n,27.6.a.s,27.6.b,27.7.a,27.7.b,27.7.c,27.7.e,27.7.f,27.7.g,27.7.h,27.7.j,27.7.k,27.8.a,27.8.b,27.8.c,27.8.d,27.8.e,27.9.a,27.9.b,27.9.b.1,27.9.b.2,27.10,27.10.a,27.10.b,27.12,27.14,27.14.a,27.14.b,27.14.b.1,27.14.b.2";"Microstomus kitt";"1830204504";"Microstomus kitt"
"North-East Atlantic";"Blue ling";"Molva dypterygia";"ICES";NA;"BLI";"5B67-";"5b, 6, 7";"27_5_B,27_6,27_7_A,27_7_B,27_7_C,27_7_E,27_7_F,27_7_G,27_7_H,27_7_J,27_7_K";"EU waters of Iia, IV, Vb, VI and VII";"";"27.5.b,27.5.b.1,27.5.b.2,27.6.a,27.6.a.n,27.6.a.s,27.6.b,27.7.a,27.7.b,27.7.c,27.7.e,27.7.f,27.7.g,27.7.h,27.7.j,27.7.k";"Molva dypterygia";"1480400502";"Molva dypterygia"
"North-East Atlantic";"Blue ling";"Molva dypterygia";"ICES";NA;"BLI";"12INT-";"12 international waters";"27_12";"EU waters of Iia, IV, Vb, VI and VII";"";"27.12";"Molva dypterygia";"1480400502";"Molva dypterygia"
"North-East Atlantic";"Spanish ling";"Molva macrophthalma";"ICES";NA;"SLI";"No TAC";"10";"27_10";"";"";"27.10,27.10.a,27.10.b";"Molva macrophthalma";"1480400504";"Molva macrophthalma"
"North-East Atlantic";"Ling";"Molva molva";"ICES";NA;"LIN";"05EI.";"5";"27_5";"VI, VII, VIII, IX, X, XII, XIV (1)(2)";"";"27.5.a,27.5.b,27.5.b.1,27.5.b.2";"Molva molva";"1480400501";"Molva molva"
"North-East Atlantic";"Ling";"Molva molva";"ICES";NA;"LIN";"6X14.";"6-14";"27_6,27_7_A,27_7_B,27_7_C,27_7_E,27_7_F,27_7_G,27_7_H,27_7_J,27_7_K,27_8,27_9,27_10,27_12,27_14";"VI, VII, VIII, IX, X, XII, XIV (1)(2)";"";"27.6.a,27.6.a.n,27.6.a.s,27.6.b,27.7.a,27.7.b,27.7.c,27.7.e,27.7.f,27.7.g,27.7.h,27.7.j,27.7.k,27.8.a,27.8.b,27.8.c,27.8.d,27.8.e,27.9.a,27.9.b,27.9.b.1,27.9.b.2,27.10,27.10.a,27.10.b,27.12,27.14,27.14.a,27.14.b,27.14.b.1,27.14.b.2";"Molva molva";"1480400501";"Molva molva"
"North-East Atlantic";"Striped red mullet";"Mullus surmuletus";"ICES";NA;"MUR";"No TAC";"5, 6, 7 (excl. 7d), 8, 9, 10, 12 and 14";"27_5,27_6,27_7_A,27_7_B,27_7_C,27_7_E,27_7_F,27_7_G,27_7_H,27_7_J,27_7_K,27_8,27_9,27_10,27_12,27_14";"";"";"27.5.a,27.5.b,27.5.b.1,27.5.b.2,27.6.a,27.6.a.n,27.6.a.s,27.6.b,27.7.a,27.7.b,27.7.c,27.7.e,27.7.f,27.7.g,27.7.h,27.7.j,27.7.k,27.8.a,27.8.b,27.8.c,27.8.d,27.8.e,27.9.a,27.9.b,27.9.b.1,27.9.b.2,27.10,27.10.a,27.10.b,27.12,27.14,27.14.a,27.14.b,27.14.b.1,27.14.b.2";"Mullus surmuletus";"1704100701";"Mullus surmuletus"
"North-East Atlantic";"Starry smooth-hound";"Mustelus asterias";"ICES";NA;"SDS";"No TAC";"6, 7, 8, 9";"27_6,27_7_A,27_7_B,27_7_C,27_7_E,27_7_F,27_7_G,27_7_H,27_7_J,27_7_K,27_8,27_9";"";"";"27.6.a,27.6.a.n,27.6.a.s,27.6.b,27.7.a,27.7.b,27.7.c,27.7.e,27.7.f,27.7.g,27.7.h,27.7.j,27.7.k,27.8.a,27.8.b,27.8.c,27.8.d,27.8.e,27.9.a,27.9.b,27.9.b.1,27.9.b.2";"Mustelus asterias";"1080400715";"Mustelus asterias"
"North-East Atlantic";"Smooth-hound";"Mustelus mustelus";"ICES";NA;"SMD";"No TAC";"6, 7, 8, 9";"27_6,27_7_A,27_7_B,27_7_C,27_7_E,27_7_F,27_7_G,27_7_H,27_7_J,27_7_K,27_8,27_9";"";"";"27.6.a,27.6.a.n,27.6.a.s,27.6.b,27.7.a,27.7.b,27.7.c,27.7.e,27.7.f,27.7.g,27.7.h,27.7.j,27.7.k,27.8.a,27.8.b,27.8.c,27.8.d,27.8.e,27.9.a,27.9.b,27.9.b.1,27.9.b.2";"Mustelus mustelus";"1080400713";"Mustelus mustelus"
"North-East Atlantic";"Blackspotted smooth-hound";"Mustelus punctulatus";"ICES";NA;"MPT";"No TAC";"6, 7, 8, 9";"27_6,27_7_A,27_7_B,27_7_C,27_7_E,27_7_F,27_7_G,27_7_H,27_7_J,27_7_K,27_8,27_9";"";"";"27.6.a,27.6.a.n,27.6.a.s,27.6.b,27.7.a,27.7.b,27.7.c,27.7.e,27.7.f,27.7.g,27.7.h,27.7.j,27.7.k,27.8.a,27.8.b,27.8.c,27.8.d,27.8.e,27.9.a,27.9.b,27.9.b.1,27.9.b.2";"Mustelus punctulatus";"1080400720";"Mustelus punctulatus"
"North-East Atlantic";"Smooth-hound";"Mustelus spp.";"ICES";NA;"SKH";"No TAC";"5-10, 12, 14";"27_5,27_6,27_7_A,27_7_B,27_7_C,27_7_E,27_7_F,27_7_G,27_7_H,27_7_J,27_8,27_9,27_7_K,27_10,27_12,27_14";"";"";"27.5.a,27.5.b,27.5.b.1,27.5.b.2,27.6.a,27.6.a.n,27.6.a.s,27.6.b,27.7.a,27.7.b,27.7.c,27.7.e,27.7.f,27.7.g,27.7.h,27.7.j,27.8.a,27.8.b,27.8.c,27.8.d,27.8.e,27.9.a,27.9.b,27.9.b.1,27.9.b.2,27.7.k,27.10,27.10.a,27.10.b,27.12,27.14,27.14.a,27.14.b,27.14.b.1,27.14.b.2";"Mustelus spp.";"10804007XX";"Mustelus spp.,Mustelus antarcticus,Mustelus californicus,Mustelus canis,Mustelus dorsalis,Mustelus fasciatus,Mustelus griseus,Mustelus henlei,Mustelus higmani,Mustelus lenticulatus,Mustelus lunulatus,Mustelus manazo,Mustelus schmitti,Mustelus mustelus,Mustelus norrisi,Mustelus asterias,Mustelus mento,Mustelus mosis,Mustelus palumbes,Mustelus punctulatus,Mustelus whitneyi,Mustelus spp.,Mustelus"
"North-East Atlantic";"Norway lobster";"Nephrops norvegicus";"ICES";NA;"NEP";"5BC6.";"5b, 6";"27_5_B,27_6";"Vb) (1), VI";"";"27.5.b,27.5.b.1,27.5.b.2,27.6.a,27.6.a.n,27.6.a.s,27.6.b";"Nephrops norvegicus";"2294200602";"Nephrops norvegicus"
"North-East Atlantic";"Norway lobster";"Nephrops norvegicus";"ICES";NA;"NEP";"07.";"7";"27_7_A,27_7_B,27_7_C,27_7_E,27_7_F,27_7_G,27_7_H,27_7_J,27_7_K";"VII";"";"27.7.a,27.7.b,27.7.c,27.7.e,27.7.f,27.7.g,27.7.h,27.7.j,27.7.k";"Nephrops norvegicus";"2294200602";"Nephrops norvegicus"
"North-East Atlantic";"Norway lobster";"Nephrops norvegicus";"ICES";NA;"NEP";"8ABDE.";"8abde";"27_8_A,27_8_B,27_8_D,27_8_E";"VIIIabde";"";"27.8.a,27.8.b,27.8.d,27.8.e";"Nephrops norvegicus";"2294200602";"Nephrops norvegicus"
"North-East Atlantic";"Norway lobster";"Nephrops norvegicus";"ICES";NA;"NEP";"08C.";"8c";"27_8_C";"ICES division VIIIc - Bay of Biscay - South";"";"27.8.c";"Nephrops norvegicus";"2294200602";"Nephrops norvegicus"
"North-East Atlantic";"Norway lobster";"Nephrops norvegicus";"ICES";NA;"NEP";"9/3411";"9";"27_9";"Functional Units 26 and 27 of ICES division IXa";"";"27.9.a,27.9.b,27.9.b.1,27.9.b.2";"Nephrops norvegicus";"2294200602";"Nephrops norvegicus"
"North-East Atlantic";"Common octopus";"Octopus vulgaris";"ICES";NA;"OCC";"No TAC";"5, 6, 7 (excl. 7d), 8, 9, 10, 12 and 14";"27_5,27_6,27_7_A,27_7_B,27_7_C,27_7_E,27_7_F,27_7_G,27_7_H,27_7_J,27_7_K,27_8,27_9,27_10,27_12,27_14";"";"";"27.5.a,27.5.b,27.5.b.1,27.5.b.2,27.6.a,27.6.a.n,27.6.a.s,27.6.b,27.7.a,27.7.b,27.7.c,27.7.e,27.7.f,27.7.g,27.7.h,27.7.j,27.7.k,27.8.a,27.8.b,27.8.c,27.8.d,27.8.e,27.9.a,27.9.b,27.9.b.1,27.9.b.2,27.10,27.10.a,27.10.b,27.12,27.14,27.14.a,27.14.b,27.14.b.1,27.14.b.2";"Octopus vulgaris";"3210900507";"Octopus vulgaris"
"North-East Atlantic";"Sailfin roughshark";"Oxynotus paradoxus";"ICES";NA;"OXN";"";"5, 6, 7, 8, 9, 10";"27_5,27_6,27_7_A,27_7_B,27_7_C,27_7_E,27_7_F,27_7_G,27_7_H,27_7_J,27_7_K,27_8,27_9,27_10";"";"";"27.5.a,27.5.b,27.5.b.1,27.5.b.2,27.6.a,27.6.a.n,27.6.a.s,27.6.b,27.7.a,27.7.b,27.7.c,27.7.e,27.7.f,27.7.g,27.7.h,27.7.j,27.7.k,27.8.a,27.8.b,27.8.c,27.8.d,27.8.e,27.9.a,27.9.b,27.9.b.1,27.9.b.2,27.10,27.10.a,27.10.b";"Oxynotus paradoxus";"1090500602";"Oxynotus paradoxus"
"North-East Atlantic";"Blackspot sea bream";"Pagellus bogaraveo";"ICES";NA;"SBR";"678-";"6, 7, 8";"27_6,27_7,27_8";"";"";"27.6.a,27.6.a.n,27.6.a.s,27.6.b,27.7.a,27.7.b,27.7.c,27.7.d,27.7.e,27.7.f,27.7.g,27.7.h,27.7.j,27.7.k,27.8.a,27.8.b,27.8.c,27.8.d,27.8.e";"Pagellus bogaraveo";"1703900801";"Pagellus bogaraveo"
"North-East Atlantic";"Blackspot sea bream";"Pagellus bogaraveo";"ICES";NA;"SBR";"09-";"9";"27_9";"";"";"27.9.a,27.9.b,27.9.b.1,27.9.b.2";"Pagellus bogaraveo";"1703900801";"Pagellus bogaraveo"
"North-East Atlantic";"Blackspot sea bream";"Pagellus bogaraveo";"ICES";NA;"SBR";"10-";"10";"27_10";"";"";"27.10,27.10.a,27.10.b";"Pagellus bogaraveo";"1703900801";"Pagellus bogaraveo"
"North-East Atlantic";"Northern shrimp";"Pandalus borealis";"ICES";NA;"PRA";"514GRN";"5, 14";"27_5,27_14";"";"";"27.5.a,27.5.b,27.5.b.1,27.5.b.2,27.14,27.14.a,27.14.b,27.14.b.1,27.14.b.2";"Pandalus borealis";"2280400203";"Pandalus borealis"
"North-East Atlantic";"Pandalid shrimps";"Pandalus spp.";"ICES";NA;"PAN";"No TAC";"5, 14";"27_5,27_14";"";"";"27.5.a,27.5.b,27.5.b.1,27.5.b.2,27.14,27.14.a,27.14.b,27.14.b.1,27.14.b.2";"Pandalus spp.";"22804002XX";"Pandalus spp.,Pandalus hypsinotus,Pandalus platyceros,Pandalus jordani,Pandalus montagui,Pandalus danae,Pandalus goniurus,Pandalus kessleri,Pandalus nipponensis,Pandalus amplus,Pandalus spp.,Pandalus"
"North-East Atlantic";"Deepwater rose shrimp";"Parapenaeus longirostris";"ICES";NA;"DPS";"No TAC";"9a";"27_9_A";"";"";"27.9.a";"Parapenaeus longirostris";"2280101701";"Parapenaeus longirostris"
"North-East Atlantic";"Scallop";"Pecten maximus";"ICES";NA;"SCE";"No TAC";"6, 7";"27_6,27_7_E,27_7_A,27_7_B,27_7_C,27_7_F,27_7_G,27_7_H,27_7_J,27_7_K";"";"";"27.6.a,27.6.a.n,27.6.a.s,27.6.b,27.7.e,27.7.a,27.7.b,27.7.c,27.7.f,27.7.g,27.7.h,27.7.j,27.7.k";"Pecten maximus";"3160800309";"Pecten maximus"
"North-East Atlantic";"Greater Forkbeard";"Phycis blennoides";"ICES";NA;"GFB";"567-,89-,1012-";"5, 6, 7 (excl. 7d), 8, 9, 10, 12 and 14";"27_5,27_6,27_7_A,27_7_B,27_7_C,27_7_E,27_7_F,27_7_G,27_7_H,27_7_J,27_7_K,27_8,27_9,27_10,27_12,27_14";"Should we add areas 1 II-III and IV? There also other TAC codes looking redundant";"";"27.5.a,27.5.b,27.5.b.1,27.5.b.2,27.6.a,27.6.a.n,27.6.a.s,27.6.b,27.7.a,27.7.b,27.7.c,27.7.e,27.7.f,27.7.g,27.7.h,27.7.j,27.7.k,27.8.a,27.8.b,27.8.c,27.8.d,27.8.e,27.9.a,27.9.b,27.9.b.1,27.9.b.2,27.10,27.10.a,27.10.b,27.12,27.14,27.14.a,27.14.b,27.14.b.1,27.14.b.2";"Phycis blennoides";"1480400601";"Phycis blennoides"
"North-East Atlantic";"Forkbeard";"Phycis phycis";"ICES";NA;"FOR";"No TAC";"5, 6, 7 (excl. 7d), 8, 9, 10, 12 and 14";"27_5,27_6,27_7_A,27_7_B,27_7_C,27_7_E,27_7_F,27_7_G,27_7_H,27_7_J,27_7_K,27_8,27_9,27_10,27_12,27_14";"";"";"27.5.a,27.5.b,27.5.b.1,27.5.b.2,27.6.a,27.6.a.n,27.6.a.s,27.6.b,27.7.a,27.7.b,27.7.c,27.7.e,27.7.f,27.7.g,27.7.h,27.7.j,27.7.k,27.8.a,27.8.b,27.8.c,27.8.d,27.8.e,27.9.a,27.9.b,27.9.b.1,27.9.b.2,27.10,27.10.a,27.10.b,27.12,27.14,27.14.a,27.14.b,27.14.b.1,27.14.b.2";"Phycis phycis";"1480400602";"Phycis phycis"
"North-East Atlantic";"Plaice";"Pleuronectes platessa";"ICES";NA;"PLE";"56-14";"5b, 6, 12, 14";"27_5_B,27_6,27_12,27_14";"";"";"27.5.b,27.5.b.1,27.5.b.2,27.6.a,27.6.a.n,27.6.a.s,27.6.b,27.12,27.14,27.14.a,27.14.b,27.14.b.1,27.14.b.2";"Pleuronectes platessa";"1830200405";"Pleuronectes platessa"
"North-East Atlantic";"Plaice";"Pleuronectes platessa";"ICES";NA;"PLE";"07A.";"7a";"27_7_A";"ICES division VIIa - Irish Sea";"";"27.7.a";"Pleuronectes platessa";"1830200405";"Pleuronectes platessa"
"North-East Atlantic";"Plaice";"Pleuronectes platessa";"ICES";NA;"PLE";"7BC.";"7bc";"27_7_B,27_7_C";"VIIbc ";"";"27.7.b,27.7.c";"Pleuronectes platessa";"1830200405";"Pleuronectes platessa"
"North-East Atlantic";"Plaice";"Pleuronectes platessa";"ICES";NA;"PLE";"7DE.";"7e";"27_7_E";"VIIde";"";"27.7.e";"Pleuronectes platessa";"1830200405";"Pleuronectes platessa"
"North-East Atlantic";"Plaice";"Pleuronectes platessa";"ICES";NA;"PLE";"7FG.";"7fg";"27_7_F,27_7_G";"VIIfg";"";"27.7.f,27.7.g";"Pleuronectes platessa";"1830200405";"Pleuronectes platessa"
"North-East Atlantic";"Plaice";"Pleuronectes platessa";"ICES";NA;"PLE";"7HJK.";"7h-k";"27_7_H,27_7_J,27_7_K";"VIIhjk";"";"27.7.h,27.7.j,27.7.k";"Pleuronectes platessa";"1830200405";"Pleuronectes platessa"
"North-East Atlantic";"Plaice";"Pleuronectes platessa";"ICES";NA;"PLE";"8/3411";"8, 9, 10";"27_8,27_9,27_10";"VIII, IX, X, COPACE 34.1.1 (1)";"";"27.8.a,27.8.b,27.8.c,27.8.d,27.8.e,27.9.a,27.9.b,27.9.b.1,27.9.b.2,27.10,27.10.a,27.10.b";"Pleuronectes platessa";"1830200405";"Pleuronectes platessa"
"North-East Atlantic";"Pollack";"Pollachius pollachius";"ICES";NA;"POL";"56-14";"5b, 6, 12, 14";"27_5_B,27_6,27_12,27_14";"";"";"27.5.b,27.5.b.1,27.5.b.2,27.6.a,27.6.a.n,27.6.a.s,27.6.b,27.12,27.14,27.14.a,27.14.b,27.14.b.1,27.14.b.2";"Pollachius pollachius";"1480401502";"Pollachius pollachius"
"North-East Atlantic";"Pollack";"Pollachius pollachius";"ICES";NA;"POL";"07.";"7";"27_7";"";"";"27.7.a,27.7.b,27.7.c,27.7.d,27.7.e,27.7.f,27.7.g,27.7.h,27.7.j,27.7.k";"Pollachius pollachius";"1480401502";"Pollachius pollachius"
"North-East Atlantic";"Pollack";"Pollachius pollachius";"ICES";NA;"POL";"8ABDE.";"8abde";"27_8_A,27_8_B,27_8_D,27_8_E";"";"";"27.8.a,27.8.b,27.8.d,27.8.e";"Pollachius pollachius";"1480401502";"Pollachius pollachius"
"North-East Atlantic";"Pollack";"Pollachius pollachius";"ICES";NA;"POL";"08C.";"8c";"27_8_C";"";"";"27.8.c";"Pollachius pollachius";"1480401502";"Pollachius pollachius"
"North-East Atlantic";"Pollack";"Pollachius pollachius";"ICES";NA;"POL";"9/3411";"9, 10";"27_9,27_10";"";"";"27.9.a,27.9.b,27.9.b.1,27.9.b.2,27.10,27.10.a,27.10.b";"Pollachius pollachius";"1480401502";"Pollachius pollachius"
"North-East Atlantic";"Saithe";"Pollachius virens";"ICES";NA;"POK";"56-14";"5b, 6, 12, 14";"27_5_B,27_6,27_12,27_14";"";"";"27.5.b,27.5.b.1,27.5.b.2,27.6.a,27.6.a.n,27.6.a.s,27.6.b,27.12,27.14,27.14.a,27.14.b,27.14.b.1,27.14.b.2";"Pollachius virens";"1480401501";"Pollachius virens"
"North-East Atlantic";"Saithe";"Pollachius virens";"ICES";NA;"POK";"7/3411";"7, 8, 9, 10";"27_7_E,27_7_F,27_7_G,27_7_H,27_7_J,27_7_K,27_8,27_9,27_10";"VII, VIII, IX, X, COPACE 34.1.1(1)";"";"27.7.e,27.7.f,27.7.g,27.7.h,27.7.j,27.7.k,27.8.a,27.8.b,27.8.c,27.8.d,27.8.e,27.9.a,27.9.b,27.9.b.1,27.9.b.2,27.10,27.10.a,27.10.b";"Pollachius virens";"1480401501";"Pollachius virens"
"North-East Atlantic";"Wreckfish";"Polyprion americanus";"ICES";NA;"WRF";"";"10";"27_10";"";"";"27.10,27.10.a,27.10.b";"Polyprion americanus";"1700505801";"Polyprion americanus"
"North-East Atlantic";"Blonde ray";"Raja brachyura";"ICES";NA;"RJH";"67AKXD";"4a, 6";"27_4_A,27_6";"";"";"27.4.a,27.6.a,27.6.a.n,27.6.a.s,27.6.b";"Raja brachyura";"1100400105";"Raja brachyura"
"North-East Atlantic";"Blonde ray";"Raja brachyura";"ICES";NA;"RJH";"67AKXD";"7a,7fg";"27_7_A,27_7_F,27_7_G";"";"";"27.7.a,27.7.f,27.7.g";"Raja brachyura";"1100400105";"Raja brachyura"
"North-East Atlantic";"Blonde ray";"Raja brachyura";"ICES";NA;"RJH";"67AKXD";"7e";"27_7_E";"";"";"27.7.e";"Raja brachyura";"1100400105";"Raja brachyura"
"North-East Atlantic";"Blonde ray";"Raja brachyura";"ICES";NA;"RJH";"89-C.";"9a";"27_9_A";"";"";"27.9.a";"Raja brachyura";"1100400105";"Raja brachyura"
"North-East Atlantic";"Thornback ray";"Raja clavata";"ICES";NA;"RJC";"67AKXD";"6";"27_6";"";"";"27.6.a,27.6.a.n,27.6.a.s,27.6.b";"Raja clavata";"1100400102";"Raja clavata"
"North-East Atlantic";"Thornback ray";"Raja clavata";"ICES";NA;"RJC";"67AKXD";"7a, 7fg";"27_7_A,27_7_F,27_7_G";"";"";"27.7.a,27.7.f,27.7.g";"Raja clavata";"1100400102";"Raja clavata"
"North-East Atlantic";"Thornback ray";"Raja clavata";"ICES";NA;"RJC";"67AKXD";"7e";"27_7_E";"";"";"27.7.e";"Raja clavata";"1100400102";"Raja clavata"
"North-East Atlantic";"Thornback ray";"Raja clavata";"ICES";NA;"RJC";"89-C.";"8";"27_8";"";"";"27.8.a,27.8.b,27.8.c,27.8.d,27.8.e";"Raja clavata";"1100400102";"Raja clavata"
"North-East Atlantic";"Thornback ray";"Raja clavata";"ICES";NA;"RJC";"No TAC";"9a";"27_9_A";"";"";"27.9.a";"Raja clavata";"1100400102";"Raja clavata"
"North-East Atlantic";"Thornback ray";"Raja clavata";"ICES";NA;"RJC";"No TAC";"10, 12";"27_10,27_12";"";"";"27.10,27.10.a,27.10.b,27.12";"Raja clavata";"1100400102";"Raja clavata"
"North-East Atlantic";"Small-eyed ray";"Raja microocellata";"ICES";NA;"RJE";"07D.";"7e";"27_7_E";"";"";"27.7.e";"Raja microocellata";"1100400109";"Raja microocellata"
"North-East Atlantic";"Small-eyed ray";"Raja microocellata";"ICES";NA;"RJE";"7FG.";"7fg";"27_7_F,27_7_G";"";"";"27.7.f,27.7.g";"Raja microocellata";"1100400109";"Raja microocellata"
"North-East Atlantic";"Spotted ray";"Raja montagui";"ICES";NA;"RJM";"67AKXD";"6, 7b, 7j";"27_6,27_7_B,27_7_J";"";"";"27.6.a,27.6.a.n,27.6.a.s,27.6.b,27.7.b,27.7.j";"Raja montagui";"1100400104";"Raja montagui"
"North-East Atlantic";"Spotted ray";"Raja montagui";"ICES";NA;"RJM";"67AKXD";"7a, 7e-h";"27_7_A,,27_7_E,27_7_F,27_7_G,27_7_H";"";"";"27.7.a,,27.7.e,27.7.f,27.7.g,27.7.h";"Raja montagui";"1100400104";"Raja montagui"
"North-East Atlantic";"Spotted ray";"Raja montagui";"ICES";NA;"RJM";"No TAC";"8";"27_8";"";"";"27.8.a,27.8.b,27.8.c,27.8.d,27.8.e";"Raja montagui";"1100400104";"Raja montagui"
"North-East Atlantic";"Spotted ray";"Raja montagui";"ICES";NA;"RJM";"No TAC";"9a";"27_9_A";"";"";"27.9.a";"Raja montagui";"1100400104";"Raja montagui"
"North-East Atlantic";"Undulate ray";"Raja undulata";"ICES";NA;"RJU";"No TAC";"7b, 7j";"27_7_B,27_7_J";"";"";"27.7.b,27.7.j";"Raja undulata";"1100400112";"Raja undulata"
"North-East Atlantic";"Undulate ray";"Raja undulata";"ICES";NA;"RJU";"07DE.";"7e";"27_7_E";"";"";"27.7.e";"Raja undulata";"1100400112";"Raja undulata"
"North-East Atlantic";"Undulate ray";"Raja undulata";"ICES";NA;"RJU";"8-C.";"8ab";"27_8_A,27_8_B";"";"";"27.8.a,27.8.b";"Raja undulata";"1100400112";"Raja undulata"
"North-East Atlantic";"Undulate ray";"Raja undulata";"ICES";NA;"RJU";"8-C.";"8c";"27_8_C";"";"";"27.8.c";"Raja undulata";"1100400112";"Raja undulata"
"North-East Atlantic";"Undulate ray";"Raja undulata";"ICES";NA;"RJU";"9-C.";"9a";"27_9_A";"";"";"27.9.a";"Raja undulata";"1100400112";"Raja undulata"
"North-East Atlantic";"Greenland halibut";"Reinhardtius hippoglossoides";"ICES";NA;"GHL";"5-14GL";"5a, 14";"27_5_A,27_14";"Greenland zone: V & XIV";"";"27.5.a,27.14,27.14.a,27.14.b,27.14.b.1,27.14.b.2";"Reinhardtius hippoglossoides";"1830200501";"Reinhardtius hippoglossoides"
"North-East Atlantic";"Greenland halibut";"Reinhardtius hippoglossoides";"ICES";NA;"GHL";"2A-C46";"5b, 6";"27_5_B,27_6";"EU waters of IIa and VI. In VI";"";"27.5.b,27.5.b.1,27.5.b.2,27.6.a,27.6.a.n,27.6.a.s,27.6.b";"Reinhardtius hippoglossoides";"1830200501";"Reinhardtius hippoglossoides"
"North-East Atlantic";"White skate";"Raja alba";"ICES";NA;"RJA";"No TAC";"5, 6, 7 (excl. 7d), 8, 9, 10, 12 and 14";"27_5,27_6,27_7_A,27_7_B,27_7_C,27_7_E,27_7_F,27_7_G,27_7_H,27_7_J,27_7_K,27_8,27_9,27_10,27_12,27_14";"";"Rostroraja alba";"27.5.a,27.5.b,27.5.b.1,27.5.b.2,27.6.a,27.6.a.n,27.6.a.s,27.6.b,27.7.a,27.7.b,27.7.c,27.7.e,27.7.f,27.7.g,27.7.h,27.7.j,27.7.k,27.8.a,27.8.b,27.8.c,27.8.d,27.8.e,27.9.a,27.9.b,27.9.b.1,27.9.b.2,27.10,27.10.a,27.10.b,27.12,27.14,27.14.a,27.14.b,27.14.b.1,27.14.b.2";"Raja alba";"1100400125";"Raja alba"
"North-East Atlantic";"Salmon";"Salmo salar";"ICES";NA;"SAL";"No TAC";"5, 6, 7 (excl. 7d), 8, 9, 10, 12 and 14";"27_5,27_6,27_7_A,27_7_B,27_7_C,27_7_E,27_7_F,27_7_G,27_7_H,27_7_J,27_7_K,27_8,27_9,27_10,27_12,27_14";"";"";"27.5.a,27.5.b,27.5.b.1,27.5.b.2,27.6.a,27.6.a.n,27.6.a.s,27.6.b,27.7.a,27.7.b,27.7.c,27.7.e,27.7.f,27.7.g,27.7.h,27.7.j,27.7.k,27.8.a,27.8.b,27.8.c,27.8.d,27.8.e,27.9.a,27.9.b,27.9.b.1,27.9.b.2,27.10,27.10.a,27.10.b,27.12,27.14,27.14.a,27.14.b,27.14.b.1,27.14.b.2";"Salmo salar";"1230100401";"Salmo salar"
"North-East Atlantic";"Sea trout";"Salmo trutta";"ICES";NA;"TRS";"";"5, 6, 7 (excl. 7d), 8, 9, 10, 12 and 14";"27_5,27_6,27_7_A,27_7_B,27_7_C,27_7_E,27_7_F,27_7_G,27_7_H,27_7_J,27_7_K,27_8,27_9,27_10,27_12,27_14";"";"";"27.5.a,27.5.b,27.5.b.1,27.5.b.2,27.6.a,27.6.a.n,27.6.a.s,27.6.b,27.7.a,27.7.b,27.7.c,27.7.e,27.7.f,27.7.g,27.7.h,27.7.j,27.7.k,27.8.a,27.8.b,27.8.c,27.8.d,27.8.e,27.9.a,27.9.b,27.9.b.1,27.9.b.2,27.10,27.10.a,27.10.b,27.12,27.14,27.14.a,27.14.b,27.14.b.1,27.14.b.2";"Salmo trutta";"1230100402";"Salmo trutta"
"North-East Atlantic";"Sardine";"Sardina pilchardus";"ICES";NA;"PIL";"No TAC";"8abd";"27_8_A,27_8_B,27_8_D";"";"";"27.8.a,27.8.b,27.8.d";"Sardina pilchardus";"1210506401";"Sardina pilchardus"
"North-East Atlantic";"Sardine";"Sardina pilchardus";"ICES";NA;"PIL";"No TAC";"8c, 9a";"27_8_C,27_9_A";"";"";"27.8.c,27.9.a";"Sardina pilchardus";"1210506401";"Sardina pilchardus"
"North-East Atlantic";"Spanish mackerel";"Scomber colias";"ICES";NA;"VMA";"No TAC";"8, 9, 10";"27_8,27_9,27_10";"";"";"27.8.a,27.8.b,27.8.c,27.8.d,27.8.e,27.9.a,27.9.b,27.9.b.1,27.9.b.2,27.10,27.10.a,27.10.b";"Scomber colias";"1750100209";"Scomber colias"
"North-East Atlantic";"Mackerel";"Scomber scombrus";"ICES";NA;"MAC";"2CX14-";"5, 6, 7, 8, 9";"27_5,27_6,27_7_A,27_7_B,27_7_C,27_7_E,27_7_F,27_7_G,27_7_H,27_7_J,27_7_K,27_8,27_9";"VI, VII, VIIIabde, EC waters of Vb,  international waters of Iia, XII and XIV";"";"27.5.a,27.5.b,27.5.b.1,27.5.b.2,27.6.a,27.6.a.n,27.6.a.s,27.6.b,27.7.a,27.7.b,27.7.c,27.7.e,27.7.f,27.7.g,27.7.h,27.7.j,27.7.k,27.8.a,27.8.b,27.8.c,27.8.d,27.8.e,27.9.a,27.9.b,27.9.b.1,27.9.b.2";"Scomber scombrus";"1750100205";"Scomber scombrus"
"North-East Atlantic";"Turbot";"Scophthalmus maximus";"ICES";NA;"TUR";"No TAC";"5, 6, 7 (excl. 7d), 8, 9, 10, 12 and 14";"27_5,27_6,27_7_A,27_7_B,27_7_C,27_7_E,27_7_F,27_7_G,27_7_H,27_7_J,27_7_K,27_8,27_9,27_10,27_12,27_14";"";"";"27.5.a,27.5.b,27.5.b.1,27.5.b.2,27.6.a,27.6.a.n,27.6.a.s,27.6.b,27.7.a,27.7.b,27.7.c,27.7.e,27.7.f,27.7.g,27.7.h,27.7.j,27.7.k,27.8.a,27.8.b,27.8.c,27.8.d,27.8.e,27.9.a,27.9.b,27.9.b.1,27.9.b.2,27.10,27.10.a,27.10.b,27.12,27.14,27.14.a,27.14.b,27.14.b.1,27.14.b.2";"Scophthalmus maximus";"1830506403";"Scophthalmus maximus,Psetta maxima"
"North-East Atlantic";"Brill";"Scophthalmus rhombus";"ICES";NA;"BLL";"No TAC";"5, 6, 7 (excl. 7d), 8, 9, 10, 12 and 14";"27_5,27_6,27_7_A,27_7_B,27_7_C,27_7_E,27_7_F,27_7_G,27_7_H,27_7_J,27_7_K,27_8,27_9,27_10,27_12,27_14";"";"";"27.5.a,27.5.b,27.5.b.1,27.5.b.2,27.6.a,27.6.a.n,27.6.a.s,27.6.b,27.7.a,27.7.b,27.7.c,27.7.e,27.7.f,27.7.g,27.7.h,27.7.j,27.7.k,27.8.a,27.8.b,27.8.c,27.8.d,27.8.e,27.9.a,27.9.b,27.9.b.1,27.9.b.2,27.10,27.10.a,27.10.b,27.12,27.14,27.14.a,27.14.b,27.14.b.1,27.14.b.2";"Scophthalmus rhombus";"1830506401";"Scophthalmus rhombus"
"North-East Atlantic";"Lesser-spotted dogfish";"Scyliorhinus canicula";"ICES";NA;"SYC";"";"6, 7a-c, 7e-j";"27_6,27_7_A,27_7_B,27_7_C,27_7_E,27_7_F,27_7_G,27_7_H,27_7_J";"";"";"27.6.a,27.6.a.n,27.6.a.s,27.6.b,27.7.a,27.7.b,27.7.c,27.7.e,27.7.f,27.7.g,27.7.h,27.7.j";"Scyliorhinus canicula";"1080100301";"Scyliorhinus canicula"
"North-East Atlantic";"Lesser-spotted dogfish";"Scyliorhinus canicula";"ICES";NA;"SYC";"";"8abd";"27_8_A,27_8_B,27_8_D";"";"";"27.8.a,27.8.b,27.8.d";"Scyliorhinus canicula";"1080100301";"Scyliorhinus canicula"
"North-East Atlantic";"Lesser-spotted dogfish";"Scyliorhinus canicula";"ICES";NA;"SYC";"";"8c, 9a";"27_8_C,27_9_A";"";"";"27.8.c,27.9.a";"Scyliorhinus canicula";"1080100301";"Scyliorhinus canicula"
"North-East Atlantic";"Greater spotted dogfish";"Scyliorhinus stellaris";"ICES";NA;"SYT";"";"6, 7";"27_6,27_7";"";"";"27.6.a,27.6.a.n,27.6.a.s,27.6.b,27.7.a,27.7.b,27.7.c,27.7.d,27.7.e,27.7.f,27.7.g,27.7.h,27.7.j,27.7.k";"Scyliorhinus stellaris";"1080100302";"Scyliorhinus stellaris"
"North-East Atlantic";"Knifetooth dogfish";"Scymnodon ringenes";"ICES";NA;"SYR";"No TAC";"5, 6, 7, 8, 9, 10";"27_5,27_6,27_7_A,27_7_B,27_7_C,27_7_E,27_7_F,27_7_G,27_7_H,27_7_J,27_7_K,27_8,27_9,27_10";"";"";"27.5.a,27.5.b,27.5.b.1,27.5.b.2,27.6.a,27.6.a.n,27.6.a.s,27.6.b,27.7.a,27.7.b,27.7.c,27.7.e,27.7.f,27.7.g,27.7.h,27.7.j,27.7.k,27.8.a,27.8.b,27.8.c,27.8.d,27.8.e,27.9.a,27.9.b,27.9.b.1,27.9.b.2,27.10,27.10.a,27.10.b";"Scymnodon ringenes";NA;"Scymnodon ringenes,Scymnodon ringens"
"North-East Atlantic";"Beaked redfish";"Sebastes mentella";"ICES";NA;"REB";"No TAC";"5, 12, 14 (shallow pelagic)";"27_5,27_12,27_14";"";"";"27.5.a,27.5.b,27.5.b.1,27.5.b.2,27.12,27.14,27.14.a,27.14.b,27.14.b.1,27.14.b.2";"Sebastes mentella";"1780100112";"Sebastes mentella"
"North-East Atlantic";"Beaked redfish";"Sebastes mentella";"ICES";NA;"REB";"No TAC";"5, 12, 14 (deep pelagic)";"27_5,27_12,27_14";"";"";"27.5.a,27.5.b,27.5.b.1,27.5.b.2,27.12,27.14,27.14.a,27.14.b,27.14.b.1,27.14.b.2";"Sebastes mentella";"1780100112";"Sebastes mentella"
"North-East Atlantic";"Beaked redfish";"Sebastes mentella";"ICES";NA;"REB";"No TAC";"5, 14 (demersal)";"27_5,27_14";"";"";"27.5.a,27.5.b,27.5.b.1,27.5.b.2,27.14,27.14.a,27.14.b,27.14.b.1,27.14.b.2";"Sebastes mentella";"1780100112";"Sebastes mentella"
"North-East Atlantic";"Golden Redfish";"Sebastes norvegicus";"ICES";NA;"REG";"XXX";"5, 14";"27_5,27_14";"NEAFC Stock - catches not from the stock that is subject to NEAFC management mesures";"";"27.5.a,27.5.b,27.5.b.1,27.5.b.2,27.14,27.14.a,27.14.b,27.14.b.1,27.14.b.2";"Sebastes norvegicus";NA;"Sebastes norvegicus"
"North-East Atlantic";"Cuttlefish";"Sepia officinalis";"ICES";NA;"CTC";"No TAC";"5, 6, 7 (excl. 7d), 8, 9, 10, 12 and 14";"27_5,27_6,27_7_A,27_7_B,27_7_C,27_7_E,27_7_F,27_7_G,27_7_H,27_7_J,27_7_K,27_8,27_9,27_10,27_12,27_14";"";"";"27.5.a,27.5.b,27.5.b.1,27.5.b.2,27.6.a,27.6.a.n,27.6.a.s,27.6.b,27.7.a,27.7.b,27.7.c,27.7.e,27.7.f,27.7.g,27.7.h,27.7.j,27.7.k,27.8.a,27.8.b,27.8.c,27.8.d,27.8.e,27.9.a,27.9.b,27.9.b.1,27.9.b.2,27.10,27.10.a,27.10.b,27.12,27.14,27.14.a,27.14.b,27.14.b.1,27.14.b.2";"Sepia officinalis";"3210200202";"Sepia officinalis"
"North-East Atlantic";"Sole";"Solea solea";"ICES";NA;"SOL";"56-14";"5b, 6, 12, 14";"27_5_B,27_6,27_12,27_14";"";"";"27.5.b,27.5.b.1,27.5.b.2,27.6.a,27.6.a.n,27.6.a.s,27.6.b,27.12,27.14,27.14.a,27.14.b,27.14.b.1,27.14.b.2";"Solea solea";"1830300701";"Solea solea"
"North-East Atlantic";"Sole";"Solea solea";"ICES";NA;"SOL";"07A.";"7a";"27_7_A";"";"";"27.7.a";"Solea solea";"1830300701";"Solea solea"
"North-East Atlantic";"Sole";"Solea solea";"ICES";NA;"SOL";"7BC.";"7bc";"27_7_B,27_7_C";"";"";"27.7.b,27.7.c";"Solea solea";"1830300701";"Solea solea"
"North-East Atlantic";"Sole";"Solea solea";"ICES";NA;"SOL";"7E.";"7e";"27_7_E";"";"";"27.7.e";"Solea solea";"1830300701";"Solea solea"
"North-East Atlantic";"Sole";"Solea solea";"ICES";NA;"SOL";"7FG.";"7fg";"27_7_F,27_7_G";"";"";"27.7.f,27.7.g";"Solea solea";"1830300701";"Solea solea"
"North-East Atlantic";"Sole";"Solea solea";"ICES";NA;"SOL";"7HJK.";"7hjk";"27_7_H,27_7_J,27_7_K";"";"";"27.7.h,27.7.j,27.7.k";"Solea solea";"1830300701";"Solea solea"
"North-East Atlantic";"Sole";"Solea solea";"ICES";NA;"SOL";"8AB.";"8ab";"27_8_A,27_8_B";"";"";"27.8.a,27.8.b";"Solea solea";"1830300701";"Solea solea"
"North-East Atlantic";"Sole";"Solea solea";"ICES";NA;"SOL";"No TAC";"8cde, 9, 10";"27_8_C,27_8_D,27_8_E,27_9,27_10";"";"";"27.8.c,27.8.d,27.8.e,27.9.a,27.9.b,27.9.b.1,27.9.b.2,27.10,27.10.a,27.10.b";"Solea solea";"1830300701";"Solea solea"
"North-East Atlantic";"Greenland skark";"Samniosus microcephalus";"ICES";NA;"GSK";"";"5, 6, 7 (excl. 7d), 8, 9, 10, 12 and 14";"27_5,27_6,27_7_A,27_7_B,27_7_C,27_7_E,27_7_F,27_7_G,27_7_H,27_7_J,27_7_K,27_8,27_9,27_10,27_12,27_14";"";"";"27.5.a,27.5.b,27.5.b.1,27.5.b.2,27.6.a,27.6.a.n,27.6.a.s,27.6.b,27.7.a,27.7.b,27.7.c,27.7.e,27.7.f,27.7.g,27.7.h,27.7.j,27.7.k,27.8.a,27.8.b,27.8.c,27.8.d,27.8.e,27.9.a,27.9.b,27.9.b.1,27.9.b.2,27.10,27.10.a,27.10.b,27.12,27.14,27.14.a,27.14.b,27.14.b.1,27.14.b.2";"Samniosus microcephalus";NA;"Samniosus microcephalus,Samniosus microcephalus"
"North-East Atlantic";"Sea breams (in plural)";"Sparidae";"ICES";NA;"SBX";"No TAC";"5, 6, 7 (excl. 7d), 8, 9, 10, 12 and 14";"27_5,27_6,27_7_A,27_7_B,27_7_C,27_7_E,27_7_F,27_7_G,27_7_H,27_7_J,27_7_K,27_8,27_9,27_10,27_12,27_14";"";"";"27.5.a,27.5.b,27.5.b.1,27.5.b.2,27.6.a,27.6.a.n,27.6.a.s,27.6.b,27.7.a,27.7.b,27.7.c,27.7.e,27.7.f,27.7.g,27.7.h,27.7.j,27.7.k,27.8.a,27.8.b,27.8.c,27.8.d,27.8.e,27.9.a,27.9.b,27.9.b.1,27.9.b.2,27.10,27.10.a,27.10.b,27.12,27.14,27.14.a,27.14.b,27.14.b.1,27.14.b.2";"Sparidae";"17039XXXXX";"Sparidae,Boopsoidea inornata,Gymnocrotaphus curvidens,Virididentex acromegalus,Pagellus erythrinus,Pagellus acarne,Pagellus bellottii,Pagellus affinis,Pagellus natalensis,Pagellus spp.,Diplodus argenteus,Diplodus annularis,Diplodus sargus,Diplodus vulgaris,Diplodus cervinus,Diplodus puntazzo,Diplodus holbrooki,Diplodus fasciatus,Diplodus noct,Diplodus bellottii,Diplodus prayensis,Diplodus spp.,Calamus taurinus,Calamus arctifrons,Calamus bajonado,Calamus brachysomus,Calamus calamus,Calamus proridens,Calamus penna,Calamus spp.,Dentex gibbosus,Dentex macrophthalmus,Dentex canariensis,Dentex dentex,Dentex angolensis,Dentex congoensis,Dentex maroccanus,Dentex tumifrons,Dentex barnardi,Dentex spp.,Spondyliosoma cantharus,Spondyliosoma emarginatum,Oblada melanura,Archosargus probatocephalus,Archosargus rhomboidalis,Argyrops spinifer,Argyrops bleekeri,Argyrops filamentosus,Argyrozona argyrozona,Cheimerius nufar,Cymatoceps nasutus,Pagrus caeruleostictus,Pagrus pagrus,Pagrus auriga,Pagrus auratus,Pagrus major,Pagrus africanus,Pagrus spp.,Petrus rupestris,Porcostoma dentata,Pterogymnus laniarius,Rhabdosargus globiceps,Rhabdosargus sarba,Rhabdosargus holubi,Rhabdosargus thorpei,Rhabdosargus haffara,Rhabdosargus spp.,Sparodon durbanensis,Sparus aurata,Boops boops,Chrysoblephus cristiceps,Chrysoblephus laticeps,Chrysoblephus gibbiceps,Chrysoblephus anglicus,Chrysoblephus puniceus,Chrysoblephus lophus,Chrysoblephus spp.,Crenidens crenidens,Lithognathus lithognathus,Lithognathus mormyrus,Lithognathus aureti,Lithognathus spp.,Pachymetopon aeneum,Pachymetopon grande,Pachymetopon blochii,Pachymetopon spp.,Polysteganus praeorbitalis,Polysteganus undulosus,Polysteganus coeruleopunctatus,Polysteganus baissaci,Polysteganus spp.,Sarpa salpa,Evynnis cardinalis,Evynnis japonica,Evynnis spp.,Sparidentex hasta,Acanthopagrus berda,Acanthopagrus australis,Acanthopagrus butcheri,Acanthopagrus schlegeli,Acanthopagrus latus,Acanthopagrus bifasciatus,Acanthopagrus arabicus,Acanthopagrus sheim,Stenotomus chrysops,Stenotomus caprinus,Lagodon rhomboides,Polyamblyodon germanum,Polyamblyodon gibbosum,Sparidae,Dentex dentex,Sparidae,Dentex,Spondyliosoma cantharus,Boops boops,Diplodus sargus,Pagellus acarne,Pagrus pagrus,Sarpa salpa,Pagellus erythrinus,Diplodus vulgaris,Diplodus annularis,Diplodus cervinus,Diplodus puntazzo,Lithognathus mormyrus,Pagellus bellottii,Pagrus auriga,Dentex angolensis,Dentex macrophthalmus,Pagrus caeruleostictus,Sparus aurata,Dentex maroccanus,Oblada melanura,Dentex canariensis,Diplodus,Pagrus,Stenotomus chrysops,Dentex gibbosus,Pagellus,Diplodus bellottii"
"North-East Atlantic";"Picked dogfish";"Squalus acanthias";"ICES";NA;"DGS";"15X14";"5, 6, 7 (excl. 7d), 8, 9, 10, 12 and 14";"27_5,27_6,27_7_A,27_7_B,27_7_C,27_7_E,27_7_F,27_7_G,27_7_H,27_7_J,27_7_K,27_8,27_9,27_10,27_12,27_14";"";"";"27.5.a,27.5.b,27.5.b.1,27.5.b.2,27.6.a,27.6.a.n,27.6.a.s,27.6.b,27.7.a,27.7.b,27.7.c,27.7.e,27.7.f,27.7.g,27.7.h,27.7.j,27.7.k,27.8.a,27.8.b,27.8.c,27.8.d,27.8.e,27.9.a,27.9.b,27.9.b.1,27.9.b.2,27.10,27.10.a,27.10.b,27.12,27.14,27.14.a,27.14.b,27.14.b.1,27.14.b.2";"Squalus acanthias";"1090100704";"Squalus acanthias"
"North-East Atlantic";"Mediterranean horse mackerel";"Trachurus mediterraneus";"ICES";NA;"HMM";"No TAC";"8, 9";"27_8,27_9";"";"";"27.8.a,27.8.b,27.8.c,27.8.d,27.8.e,27.9.a,27.9.b,27.9.b.1,27.9.b.2";"Trachurus mediterraneus";"1702300408";"Trachurus mediterraneus"
"North-East Atlantic";"Blue jack mackerel";"Trachurus picturatus";"ICES";NA;"JAX";"08C.,09.,X34PRT";"8, 9, 10";"27_8,27_9,27_10";"TAC = Jack + horse mackerel nei?";"";"27.8.a,27.8.b,27.8.c,27.8.d,27.8.e,27.9.a,27.9.b,27.9.b.1,27.9.b.2,27.10,27.10.a,27.10.b";"Trachurus picturatus";"1702300402";"Trachurus picturatus"
"North-East Atlantic";"Horse mackerel";"Trachurus trachurus";"ICES";NA;"JAX";"2A-14";"4a, 5b, 6a, 7a-c, 7e-k, 8";"27_4_A,27_5_B,27_6_A,27_7_A,27_7_B,27_7_C,27_7_E,27_7_F,27_7_G,27_7_H,27_7_J,27_7_K,27_8";"NEAFC Stock - catches not from the stock that is subject to NEAFC management mesures";"";"27.4.a,27.5.b,27.5.b.1,27.5.b.2,27.6.a,27.6.a.n,27.6.a.s,27.7.a,27.7.b,27.7.c,27.7.e,27.7.f,27.7.g,27.7.h,27.7.j,27.7.k,27.8.a,27.8.b,27.8.c,27.8.d,27.8.e";"Trachurus trachurus";"1702300401";"Trachurus trachurus"
"North-East Atlantic";"Horse mackerel";"Trachurus trachurus";"ICES";NA;"JAX";"09.";"9a";"27_9_A";"NEAFC Stock - catches not from the stock that is subject to NEAFC management mesures";"";"27.9.a";"Trachurus trachurus";"1702300401";"Trachurus trachurus"
"North-East Atlantic";"Pouting";"Trisopterus spp.";"ICES";NA;"XOD";"No TAC";"5, 6, 7 (excl. 7d), 8, 9, 10, 12 and 14";"27_5,27_6,27_7_A,27_7_B,27_7_C,27_7_E,27_7_F,27_7_G,27_7_H,27_7_J,27_7_K,27_8,27_9,27_10,27_12,27_14";"";"";"27.5.a,27.5.b,27.5.b.1,27.5.b.2,27.6.a,27.6.a.n,27.6.a.s,27.6.b,27.7.a,27.7.b,27.7.c,27.7.e,27.7.f,27.7.g,27.7.h,27.7.j,27.7.k,27.8.a,27.8.b,27.8.c,27.8.d,27.8.e,27.9.a,27.9.b,27.9.b.1,27.9.b.2,27.10,27.10.a,27.10.b,27.12,27.14,27.14.a,27.14.b,27.14.b.1,27.14.b.2";"Trisopterus spp.";"14804032XX";"Trisopterus spp.,Trisopterus esmarkii,Trisopterus minutus,Trisopterus luscus,Trisopterus spp.,Trisopterus"
"North-East Atlantic";"John Dory";"Zeus faber";"ICES";NA;"JOD";"No TAC";"5, 6, 7 (excl. 7d), 8, 9, 10, 12 and 14";"27_5,27_6,27_7_A,27_7_B,27_7_C,27_7_E,27_7_F,27_7_G,27_7_H,27_7_J,27_7_K,27_8,27_9,27_10,27_12,27_14";"";"";"27.5.a,27.5.b,27.5.b.1,27.5.b.2,27.6.a,27.6.a.n,27.6.a.s,27.6.b,27.7.a,27.7.b,27.7.c,27.7.e,27.7.f,27.7.g,27.7.h,27.7.j,27.7.k,27.8.a,27.8.b,27.8.c,27.8.d,27.8.e,27.9.a,27.9.b,27.9.b.1,27.9.b.2,27.10,27.10.a,27.10.b,27.12,27.14,27.14.a,27.14.b,27.14.b.1,27.14.b.2";"Zeus faber";"1620100101";"Zeus faber"
"Mediterranean and Black Sea";"Pontic shad";"Alosa immaculata";"GFCM";NA;"SHC";"No TAC";"GSAs 28-29";"37_4_1,37_4_2";"";"";"37.4.1,37.4.2";"Alosa immaculata";NA;"Alosa immaculata"
"Mediterranean and Black Sea";"European Eel";"Anguilla anguilla";"GFCM";NA;"ELE";"No TAC";"GSAs 1-27";"37_1_1,37_1_2,37_1_3,37_2_1,37_2_2,37_3_1,37_3_2";"";"";"37.1.1,37.1.2,37.1.3,37.2.1,37.2.2,37.3.1,37.3.2";"Anguilla anguilla";"1430200201";"Anguilla anguilla"
"Mediterranean and Black Sea";"Transparent gobid";"Aphia minuta";"GFCM";NA;"FIM";"No TAC";"GSAs 9, 10, 16, 19";"37_1_3,37_2_2";"";"";"37.1.3,37.2.2";"Aphia minuta";"1732100401";"Aphia minuta"
"Mediterranean and Black Sea";"Giant red shrimp";"Aristaeomorpha foliacea";"GFCM";NA;"ARS";"No TAC";"GSAs 1-16, 19-27";"37_1_1,37_1_2,37_1_3,37_2_2,37_3_1,37_3_2";"";"";"37.1.1,37.1.2,37.1.3,37.2.2,37.3.1,37.3.2";"Aristaeomorpha foliacea";"2280203001";"Aristaeomorpha foliacea"
"Mediterranean and Black Sea";"Red shrimp";"Aristeus antennatus";"GFCM";NA;"ARA";"No TAC";"GSAs 1-16, 19-27";"37_1_1,37_1_2,37_1_3,37_2_2,37_3_1,37_3_2";"";"";"37.1.1,37.1.2,37.1.3,37.2.2,37.3.1,37.3.2";"Aristeus antennatus";"2280203101";"Aristeus antennatus"
"Mediterranean and Black Sea";"Sand smelt";"Atherina spp.";"GFCM";NA;"AVX";"No TAC";"GSAs 9, 10, 16, 19";"37_1_3,37_2_2";"";"";"37.1.3,37.2.2";"Atherina spp.";"16302003XX";"Atherina spp."
"Mediterranean and Black Sea";"Bogue";"Boops boops";"GFCM";NA;"BOG";"No TAC";"GSAs 1-27";"37_1_1,37_1_2,37_1_3,37_2_1,37_2_2,37_3_1,37_3_2";"";"";"37.1.1,37.1.2,37.1.3,37.2.1,37.2.2,37.3.1,37.3.2";"Boops boops";"1703926101";"Boops boops"
"Mediterranean and Black Sea";"Blue crab";"Callinectes sapidus";"GFCM";NA;"CRB";"No TAC";"GSAs 8-10, 11.2, 12-16, 18-21";"37_1_3,37_2_2";"";"";"37.1.3,37.2.2";"Callinectes sapidus";"2311101202";"Callinectes sapidus"
"Mediterranean and Black Sea";"Striped Venus clam";"Chamelea gallina";"GFCM";NA;"SVE";"No TAC";"GSAs 17-18";"37_2_1";"";"";"37.2.1";"Chamelea gallina";"3161100105";"Chamelea gallina"
"Mediterranean and Black Sea";"Sardinia coral";"Corallium rubrum";"GFCM";NA;"COL";"No TAC";"GSAs 1-27";"37_1_1,37_1_2,37_1_3,37_2_1,37_2_2,37_3_1,37_3_2";"";"";"37.1.1,37.1.2,37.1.3,37.2.1,37.2.2,37.3.1,37.3.2";"Corallium rubrum";"6190100301";"Corallium rubrum"
"Mediterranean and Black Sea";"Dolphinfish";"Coryphaena hippurus";"GFCM";NA;"DOL";"No TAC";"GSAs 12-27";"37_2_2,37_3_1,37_3_2";"";"";"37.2.2,37.3.1,37.3.2";"Coryphaena hippurus";"1702807101";"Coryphaena hippurus"
"Mediterranean and Black Sea";"Sea bass";"Dicentrarchus labrax";"GFCM";NA;"BSS";"No TAC";"GSAs 1-27";"37_1_1,37_1_2,37_1_3,37_2_1,37_2_2,37_3_1,37_3_2";"";"";"37.1.1,37.1.2,37.1.3,37.2.1,37.2.2,37.3.1,37.3.2";"Dicentrarchus labrax";"1700634503";"Dicentrarchus labrax"
"Mediterranean and Black Sea";"Annular seabream";"Diplodus annularis";"GFCM";NA;"ANN";"No TAC";"GSAs 12-16, 19-21";"37_2_2";"";"";"37.2.2";"Diplodus annularis";"1703903302";"Diplodus annularis"
"Mediterranean and Black Sea";"Horned/curled octopus";"Eledone cirrhosa";"GFCM";NA;"EOI";"No TAC";"GSAs 1-23";"37_1_1,37_1_2,37_1_3,37_2_1,37_2_2,37_3_1";"";"";"37.1.1,37.1.2,37.1.3,37.2.1,37.2.2,37.3.1";"Eledone cirrhosa";"3210902401";"Eledone cirrhosa"
"Mediterranean and Black Sea";"Musky octopus";"Eledone moschata";"GFCM";NA;"EDT";"No TAC";"GSAs 8-23";"37_1_2,37_1_3,37_2_1,37_2_2,37_3_1";"";"";"37.1.2,37.1.3,37.2.1,37.2.2,37.3.1";"Eledone moschata";"3210902402";"Eledone moschata"
"Mediterranean and Black Sea";"Anchovy";"Engraulis encrasicolus";"GFCM";NA;"ANE";"No TAC";"GSAs 1-29";"37_1_1,37_1_2,37_1_3,37_2_1,37_2_2,37_3_1,37_3_2,37_4_1,37_4_2";"";"";"37.1.1,37.1.2,37.1.3,37.2.1,37.2.2,37.3.1,37.3.2,37.4.1,37.4.2";"Engraulis encrasicolus";"1210600201";"Engraulis encrasicolus"
"Mediterranean and Black Sea";"Grey gurnard";"Eutrigla gurnardus";"GFCM";NA;"GUG";"No TAC";"GSAs 13-16, 18-23";"37_2_2,37_3_1";"";"";"37.2.2,37.3.1";"Eutrigla gurnardus";"1780207001";"Eutrigla gurnardus"
"Mediterranean and Black Sea";"Blackmouth catshark";"Galeus melastomus";"GFCM";NA;"SHO";"No TAC";"GSAs 1-11";"37_1_1";"";"";"37.1.1";"Galeus melastomus";"1080100104";"Galeus melastomus"
"Mediterranean and Black Sea";"Squid";"Illex spp., Todarodes spp.";"GFCM";NA;"ILL";"No TAC";"GSAs 1-27";"37_1_1,37_1_2,37_1_3,37_2_1,37_2_2,37_3_1,37_3_2";"";"";"37.1.1,37.1.2,37.1.3,37.2.1,37.2.2,37.3.1,37.3.2";"Illex spp. Todarodes spp.";NA;"Illex spp. Todarodes spp."
"Mediterranean and Black Sea";"Silver-cheeked toadfish";"Lagocephalus sceleratus";"GFCM";NA;"LFZ";"No TAC";"GSAs 1-27";"37_1_1,37_1_2,37_1_3,37_2_1,37_2_2,37_3_1,37_3_2";"";"";"37.1.1,37.1.2,37.1.3,37.2.1,37.2.2,37.3.1,37.3.2";"Lagocephalus sceleratus";"1900200505";"Lagocephalus sceleratus"
"Mediterranean and Black Sea";"Common squid";"Loligo vulgaris";"GFCM";NA;"SQR";"No TAC";"GSAs 1-27";"37_1_1,37_1_2,37_1_3,37_2_1,37_2_2,37_3_1,37_3_2";"";"";"37.1.1,37.1.2,37.1.3,37.2.1,37.2.2,37.3.1,37.3.2";"Loligo vulgaris";"3210400109";"Loligo vulgaris"
"Mediterranean and Black Sea";"Black-bellied angler";"Lophius budegassa";"GFCM";NA;"ANF,MNZ";"No TAC";"GSAs 1-16, 19-23";"37_1_1,37_1_2,37_1_3,37_2_2";"";"";"37.1.1,37.1.2,37.1.3,37.2.2";"Lophius budegassa";"1950100102";"Lophius budegassa"
"Mediterranean and Black Sea";"Anglerfish";"Lophius piscatorius";"GFCM";NA;"MON,MNZ";"No TAC";"GSAs 1-16, 18-23";"37_1_1,37_1_2,37_1_3,37_2_2";"";"";"37.1.1,37.1.2,37.1.3,37.2.2";"Lophius piscatorius";"1950100101";"Lophius piscatorius"
"Mediterranean and Black Sea";"Whiting";"Merlangius merlangus";"GFCM";NA;"WHG";"No TAC";"GSAs 28-29";"37_4_1,37_4_2";"";"";"37.4.1,37.4.2";"Merlangius merlangus";"1480403401";"Merlangius merlangus"
"Mediterranean and Black Sea";"Hake";"Merluccius merluccius";"GFCM";NA;"HKE";"No TAC";"GSAs 1-27";"37_1_1,37_1_2,37_1_3,37_2_1,37_2_2,37_3_1,37_3_2";"";"";"37.1.1,37.1.2,37.1.3,37.2.1,37.2.2,37.3.1,37.3.2";"Merluccius merluccius";"1480500401";"Merluccius merluccius"
"Mediterranean and Black Sea";"Blue whiting";"Micromesistius poutassou";"GFCM";NA;"WHB";"No TAC";"GSAs 1-11, 22-23";"37_1_1,37_3_1";"";"";"37.1.1,37.3.1";"Micromesistius poutassou";"1480403301";"Micromesistius poutassou"
"Mediterranean and Black Sea";"Grey mullets";"Mugilidae";"GFCM";NA;"MGS";"No TAC";"GSAs 8-10, 11.2, 12-23";"37_1_3,37_2_1,37_2_2,37_3_1";"";"";"37.1.3,37.2.1,37.2.2,37.3.1";"Mugilidae";"16501XXXXX";"Mugilidae"
"Mediterranean and Black Sea";"Red mullet";"Mullus barbatus";"GFCM";NA;"MUT";"No TAC";"GSAs 1-29";"37_1_1,37_1_2,37_1_3,37_2_1,37_2_2,37_3_1,37_3_2,37_4_1,37_4_2";"";"";"37.1.1,37.1.2,37.1.3,37.2.1,37.2.2,37.3.1,37.3.2,37.4.1,37.4.2";"Mullus barbatus";"1704100702";"Mullus barbatus"
"Mediterranean and Black Sea";"Striped red mullet";"Mullus surmuletus";"GFCM";NA;"MUR";"No TAC";"GSAs 1-16, 19-27";"37_1_1,37_1_2,37_1_3,37_2_1,37_2_2";"";"";"37.1.1,37.1.2,37.1.3,37.2.1,37.2.2";"Mullus surmuletus";"1704100701";"Mullus surmuletus"
"Mediterranean and Black Sea";"Norway lobster";"Nephrops norvegicus";"GFCM";NA;"NEP";"No TAC";"GSAs 1-21";"37_1_1,37_1_2,37_1_3,37_2_1,37_2_2";"";"";"37.1.1,37.1.2,37.1.3,37.2.1,37.2.2";"Nephrops norvegicus";"2294200602";"Nephrops norvegicus"
"Mediterranean and Black Sea";"Common octopus";"Octopus vulgaris";"GFCM";NA;"OCC";"No TAC";"GSAs 1-27";"37_1_1,37_1_2,37_1_3,37_2_1,37_2_2,37_3_1,37_3_2";"";"";"37.1.1,37.1.2,37.1.3,37.2.1,37.2.2,37.3.1,37.3.2";"Octopus vulgaris";"3210900507";"Octopus vulgaris"
"Mediterranean and Black Sea";"Blackspot seabream";"Pagellus bogaraveo";"GFCM";NA;"SBR";"No TAC";"GSAs 1-11";"37_1_1";"";"";"37.1.1";"Pagellus bogaraveo";"1703900801";"Pagellus bogaraveo"
"Mediterranean and Black Sea";"Common pandora";"Pagellus erythrinus";"GFCM";NA;"PAC";"No TAC";"GSAs 1-27";"37_1_1,37_1_2,37_1_3,37_2_1,37_2_2,37_3_1,37_3_2";"";"";"37.1.1,37.1.2,37.1.3,37.2.1,37.2.2,37.3.1,37.3.2";"Pagellus erythrinus";"1703900802";"Pagellus erythrinus"
"Mediterranean and Black Sea";"Caramote prawn";"Penaeus kerathurus";"GFCM";NA;"TGS";"No TAC";"GSAs 22-23";"37_3_1";"";"";"37.3.1";"Penaeus kerathurus";"2280100117";"Penaeus kerathurus"
"Mediterranean and Black Sea";"Deepwater rose shrimp";"Parapenaeus longirostris";"GFCM";NA;"DPS";"No TAC";"GSAs 1-27";"37_1_1,37_1_2,37_1_3,37_2_1,37_2_2,37_3_1,37_3_2";"";"";"37.1.1,37.1.2,37.1.3,37.2.1,37.2.2,37.3.1,37.3.2";"Parapenaeus longirostris";"2280101701";"Parapenaeus longirostris"
"Mediterranean and Black Sea";"Blue crab";"Portunus segnis";"GFCM";NA;"QSO";"No TAC";"GSAs 8-10, 11.2, 12-16, 18-21";"37_1_3,37_2_2";"";"";"37.1.3,37.2.2";"Portunus segnis";"2311100412";"Portunus segnis"
"Mediterranean and Black Sea";"Devil firefish";"Pterois miles";"GFCM";NA;"UHQ";"No TAC";"GSAs 1-27";"37_1_1,37_1_2,37_1_3,37_2_1,37_2_2,37_3_1,37_3_2";"";"";"37.1.1,37.1.2,37.1.3,37.2.1,37.2.2,37.3.1,37.3.2";"Pterois miles";"1780103606";"Pterois miles"
"Mediterranean and Black Sea";"Mediterranean starry ray";"Raja asterias";"GFCM";NA;"JRS";"No TAC";"GSAs 1-11";"37_1_1";"";"";"37.1.1";"Raja asterias";"1100400137";"Raja asterias"
"Mediterranean and Black Sea";"Thornback ray";"Raja clavata";"GFCM";NA;"RJC";"No TAC";"GSAs 1-16, 19-21";"37_1_1,37_1_2,37_1_3,37_2_2";"";"";"37.1.1,37.1.2,37.1.3,37.2.2";"Raja clavata";"1100400102";"Raja clavata"
"Mediterranean and Black Sea";"Rapa whelk";"Rapana venosa";"GFCM";NA;"RPW";"No TAC";"GSAs 28-29";"37_4_1,37_4_2";"";"";"37.4.1,37.4.2";"Rapana venosa";"3070201801";"Rapana venosa"
"Mediterranean and Black Sea";"Sardine";"Sardina pilchardus";"GFCM";NA;"PIL";"No TAC";"GSAs 1-27";"37_1_1,37_1_2,37_1_3,37_2_1,37_2_2,37_3_1,37_3_2";"";"";"37.1.1,37.1.2,37.1.3,37.2.1,37.2.2,37.3.1,37.3.2";"Sardina pilchardus";"1210506401";"Sardina pilchardus"
"Mediterranean and Black Sea";"Round sardinella";"Sardinella aurita";"GFCM";NA;"SAA";"No TAC";"GSAs 1-16, 19-27";"37_1_1,37_1_2,37_1_3,37_2_1,37_2_2";"";"";"37.1.1,37.1.2,37.1.3,37.2.1,37.2.2";"Sardinella aurita";"1210501210";"Sardinella aurita"
"Mediterranean and Black Sea";"Lizardfish";"Saurida lessepsianus";"GFCM";NA;"SZX";"No TAC";"GSAs 22-27";"37_3_1,37_3_2";"";"";"37.3.1,37.3.2";"Saurida lessepsianus";NA;"Saurida lessepsianus"
"Mediterranean and Black Sea";"Brushtooth lizardfish";"Saurida undosquamis";"GFCM";NA;"LIB";"No TAC";"GSAs 22-27";"37_3_1,37_3_2";"";"";"37.3.1,37.3.2";"Saurida undosquamis";"1311606804";"Saurida undosquamis"
"Mediterranean and Black Sea";"Turbot";"Scophthalmus maximus";"GFCM";NA;"TUR";"F3742C";"GSAs 28-29";"37_4_1,37_4_2";"Black Sea (Division 37.4.2) - EU waters";"";"37.4.1,37.4.2";"Scophthalmus maximus";"1830506403";"Scophthalmus maximus,Psetta maxima"
"Mediterranean and Black Sea";"Atlantic chub mackerel";"Scomber colias";"GFCM";NA;"VMA";"";"GSAs 1-11, 22-27";"37_1_1,37_3_1,37_3_2";"";"";"37.1.1,37.3.1,37.3.2";"Scomber colias";"1750100209";"Scomber colias"
"Mediterranean and Black Sea";"Mackerel";"Scomber scombrus";"GFCM";NA;"MAC";"No TAC";"GSAs 1-16, 19-21";"37_1_1,37_1_2,37_1_3,37_2_2";"";"";"37.1.1,37.1.2,37.1.3,37.2.2";"Scomber scombrus";"1750100205";"Scomber scombrus"
"Mediterranean and Black Sea";"All commercial sharks, rays and skates";"Selachii, Rajidae";"GFCM";NA;"";"";"GSAs 1-29";"37_1_1,37_1_2,37_1_3,37_2_1,37_2_2,37_3_1,37_3_2,37_4_1,37_4_2";"";"";"37.1.1,37.1.2,37.1.3,37.2.1,37.2.2,37.3.1,37.3.2,37.4.1,37.4.2";"Selachii, Rajidae";NA;"Selachii, Rajidae"
"Mediterranean and Black Sea";"Cuttlefish";"Sepia officinalis";"GFCM";NA;"CTC";"No TAC";"GSAs 1-21";"37_1_1,37_1_2,37_1_3,37_2_1,37_2_2";"";"";"37.1.1,37.1.2,37.1.3,37.2.1,37.2.2";"Sepia officinalis";"3210200202";"Sepia officinalis"
"Mediterranean and Black Sea";"Dusky spinefoot";"Siganus luridus";"GFCM";NA;"IGU";"";"GSAs 22-27";"37_3_1,37_3_2";"";"";"37.3.1,37.3.2";"Siganus luridus";"1740700111";"Siganus luridus"
"Mediterranean and Black Sea";"Marbled spinefoot";"Siganus rivulatus";"GFCM";NA;"SRI";"";"GSAs 22-27";"37_3_1,37_3_2";"";"";"37.3.1,37.3.2";"Siganus rivulatus";"1740700106";"Siganus rivulatus"
"Mediterranean and Black Sea";"Sole";"Solea solea (Solea vulgaris)";"GFCM";NA;"SOL";"No TAC";"GSAs 17-18, 22-27";"37_2_1,37_3_1,37_3_2";"";"";"37.2.1,37.3.1,37.3.2";"Solea solea (Solea vulgaris)";NA;"Solea solea (Solea vulgaris)"
"Mediterranean and Black Sea";"Gilthead sea bream";"Sparus aurata";"GFCM";NA;"SBG";"No TAC";"GSAs 7, 22-23";"37_1_1,37_3_1";"";"";"37.1.1,37.3.1";"Sparus aurata";"1703923508";"Sparus aurata"
"Mediterranean and Black Sea";"European barracuda";"Sphyraena sphyraena";"GFCM";NA;"YRS";"";"GSAs 12-16, 19-21";"37_2_2";"";"";"37.2.2";"Sphyraena sphyraena";"1771000101";"Sphyraena sphyraena"
"Mediterranean and Black Sea";"Picarels";"Spicara smaris";"GFCM";NA;"SPC";"No TAC";"GSAs 17-18, 22-27";"37_2_1,37_3_1,37_3_2";"";"";"37.2.1,37.3.1,37.3.2";"Spicara smaris";"1704007502";"Spicara smaris"
"Mediterranean and Black Sea";"European sprat";"Sprattus sprattus";"GFCM";NA;"SPR";"F3742C";"GSAs 28-29";"37_4_1,37_4_2";"";"";"37.4.1,37.4.2";"Sprattus sprattus";"1210506601";"Sprattus sprattus"
"Mediterranean and Black Sea";"Picked dogfish";"Squalus acanthias";"GFCM";NA;"DGS";"No TAC";"GSAs 28-29";"37_4_1,37_4_2";"";"";"37.4.1,37.4.2";"Squalus acanthias";"1090100704";"Squalus acanthias"
"Mediterranean and Black Sea";"Mantis shrimp";"Squilla mantis";"GFCM";NA;"MTS";"No TAC";"GSAs 17-18";"37_2_2";"";"";"37.2.2";"Squilla mantis";"2250100102";"Squilla mantis"
"Mediterranean and Black Sea";"Mediterranean horse mackerel";"Trachurus mediterraneus";"GFCM";NA;"HMM";"No TAC";"GSAs 1-29";"37_1_1,37_1_2,37_1_3,37_2_1,37_2_2,37_3_1,37_3_2,37_4_1,37_4_2";"";"";"37.1.1,37.1.2,37.1.3,37.2.1,37.2.2,37.3.1,37.3.2,37.4.1,37.4.2";"Trachurus mediterraneus";"1702300408";"Trachurus mediterraneus"
"Mediterranean and Black Sea";"Blue jack mackerel";"Trachurus picturatus";"GFCM";NA;"JAA";"";"GSAs 1-11";"37_1_1";"";"";"37.1.1";"Trachurus picturatus";"1702300402";"Trachurus picturatus"
"Mediterranean and Black Sea";"Atlantic horse mackerel";"Trachurus trachurus";"GFCM";NA;"HOM";"No TAC";"GSAs 1-29";"37_1_1,37_1_2,37_1_3,37_2_1,37_2_2,37_3_1,37_3_2,37_4_1,37_4_2";"";"";"37.1.1,37.1.2,37.1.3,37.2.1,37.2.2,37.3.1,37.3.2,37.4.1,37.4.2";"Trachurus trachurus";"1702300401";"Trachurus trachurus"
"Mediterranean and Black Sea";"Poor cod";"Trisopterus minutus";"GFCM";NA;"POD";"No TAC";"GSAs 1-29";"37_1_1,37_1_2,37_1_3,37_2_1,37_2_2,37_3_1,37_3_2,37_4_1,37_4_2";"";"";"37.1.1,37.1.2,37.1.3,37.2.1,37.2.2,37.3.1,37.3.2,37.4.1,37.4.2";"Trisopterus minutus";"1480403202";"Trisopterus minutus"
"Mediterranean and Black Sea";"Clam";"Veneridae";"GFCM";NA;"CLV";"No TAC";"GSAs 6, 13-21";"37_1_1,37_2_2";"";"";"37.1.1,37.2.2";"Veneridae";"31611XXXXX";"Veneridae"
"Outermost regions";"Limpets";"Patellidae";"";NA;"LPZ";"No TAC";"Azores EEZ, Canary/Madeira EEZ";"27_10,34_1_2";"";"";"27.10,27.10.a,27.10.b,34.1.2";"Patellidae";NA;"Patellidae"
"Outermost regions";"Sardine";"Sardina pilchardus";"";NA;"PIL";"No TAC";"Azores EEZ, Canary/Madeira EEZ";"27_10,34_1_2";"";"";"27.10,27.10.a,27.10.b,34.1.2";"Sardina pilchardus";"1210506401";"Sardina pilchardus"
"Outermost regions";"Sardinella";"Sardinella aurita";"";NA;"SAA";"";"Canary/Madeira EEZ";"34_1_2";"";"";"34.1.2";"Sardinella aurita";"1210501210";"Sardinella aurita"
"Outermost regions";"Sardinella";"Sardinella maderensis";"";NA;"SAE";"No TAC";"Azores EEZ";"27_10";"";"";"27.10,27.10.a,27.10.b";"Sardinella maderensis";"1210501217";"Sardinella maderensis"
"Outermost regions";"Parrotfish";"Sparisoma cretense";"";NA;"PRR";"No TAC";"Azores EEZ, Canary/Madeira EEZ";"27_10,34_1_2";"";"";"27.10,27.10.a,27.10.b,34.1.2";"Sparisoma cretense";"1706505506";"Sparisoma cretense"
"Outermost regions";"Softhead sea catfish";"Amphiarius rugispinis";"";NA;"AWR";"";"French Guiana EEZ";"31";"";"";"31";"Amphiarius rugispinis";"1410209602";"Amphiarius rugispinis"
"Outermost regions";"Kumakuma";"Brachyplatystoma filamentosum";"";NA;"BPF";"";"French Guiana EEZ";"31";"";"";"31";"Brachyplatystoma filamentosum";"1412200501";"Brachyplatystoma filamentosum"
"Outermost regions";"Crevalle jack";"Caranx hippos";"";NA;"CVJ";"";"French Guiana EEZ";"31";"";"";"31";"Caranx hippos";"1702304429";"Caranx hippos"
"Outermost regions";"Snooks";"Centropomus spp.";"";NA;"ROB";"No TAC";"French Guiana EEZ";"31";"";"";"31";"Centropomus spp.";"17001025XX";"Centropomus spp."
"Outermost regions";"Acoupa weakfish";"Cynoscion acoupa";"";NA;"YNA";"No TAC";"French Guiana EEZ";"31";"";"";"31";"Cynoscion acoupa";"1703701601";"Cynoscion acoupa"
"Outermost regions";"Smalltooth weakfish";"Cynoscion steindachneri";"";NA;"WKB";"No TAC";"French Guiana EEZ";"31";"";"";"31";"Cynoscion steindachneri";"1703701616";"Cynoscion steindachneri"
"Outermost regions";"Green weakfish";"Cynoscion virescens";"";NA;"YNV";"No TAC";"French Guiana EEZ";"31";"";"";"31";"Cynoscion virescens";"1703701618";"Cynoscion virescens"
"Outermost regions";"Atlantic goliath grouper";"Epinephelus itajara";"";NA;"EET";"";"French Guiana EEZ";"31";"";"";"31";"Epinephelus itajara";"1700204243";"Epinephelus itajara"
"Outermost regions";"Torroto grunt";"Genyatremus luteus";"";NA;"GEU";"No TAC";"French Guiana EEZ";"31";"";"";"31";"Genyatremus luteus";"1703614602";"Genyatremus luteus"
"Outermost regions";"Tripletail";"Lobotes surinamensis";"";NA;"LOB";"No TAC";"French Guiana EEZ";"31";"";"";"31";"Lobotes surinamensis";"1703402901";"Lobotes surinamensis"
"Outermost regions";"Houndsharks, smoothhounds nei";"Lutjanus purpureus";"";NA;"SNC,SNA";"No TAC";"French Guiana EEZ";"31";"";"";"31";"Lutjanus purpureus";"1703202722";"Lutjanus purpureus"
"Outermost regions";"King weakfish";"Macrodon ancylodon";"";NA;"WKK";"";"French Guiana EEZ";"31";"";"";"31";"Macrodon ancylodon";"1703709601";"Macrodon ancylodon"
"Outermost regions";"Tarpon";"Megalops atlanticus";"";NA;"TAR";"";"French Guiana EEZ";"31";"";"";"31";"Megalops atlanticus";"1290200401";"Megalops atlanticus"
"Outermost regions";"Penaeus shrimp";"Penaeus subtilis";"";NA;"PEN";"FGU.";"French Guiana EEZ";"31";"";"";"31";"Penaeus subtilis";"2280100133";"Penaeus subtilis"
"Outermost regions";"South American silver croaker";"Plagioscion squamosissimus";"";NA;"LGQ";"";"French Guiana EEZ";"31";"";"";"31";"Plagioscion squamosissimus";"1703720506";"Plagioscion squamosissimus"
"Outermost regions";"Gillbacker sea catfish";"Sciades parkeri";"";NA;"AWP";"No TAC";"French Guiana EEZ";"31";"";"";"31";"Sciades parkeri";"1410209905";"Sciades parkeri"
"Outermost regions";"Crucifix sea catfish";"Sciades proops";"";NA;"AXP";"No TAC";"French Guiana EEZ";"31";"";"";"31";"Sciades proops";NA;"Sciades proops"
"Outermost regions";"Seerfishes nei";"Scomberomorus spp.";"";NA;"KGX";"No TAC";"French Guiana EEZ";"31";"";"";"31";"Scomberomorus spp.";"17501015XX";"Scomberomorus spp."
"Outermost regions";"Honeycomb cowfish";"Acanthostracion polygonius";"";NA;"BXF";"No TAC";"Guadeloupe and Martinique EEZ";"31";"";"";"31";"Acanthostracion polygonius";"1900100902";"Acanthostracion polygonius"
"Outermost regions";"Scrawled cowfish";"Acanthostracion quadricornis";"";NA;"BXF";"No TAC";"Guadeloupe and Martinique EEZ";"31";"";"";"31";"Acanthostracion quadricornis";"1900100901";"Acanthostracion quadricornis"
"Outermost regions";"Ocean surgeon";"Acanthurus bahianus";"";NA;"SUR";"No TAC";"Guadeloupe and Martinique EEZ";"31";"";"";"31";"Acanthurus bahianus";"1740200402";"Acanthurus bahianus"
"Outermost regions";"Doctorfish";"Acanthurus chirurgus";"";NA;"SUR";"No TAC";"Guadeloupe and Martinique EEZ";"31";"";"";"31";"Acanthurus chirurgus";"1740200410";"Acanthurus chirurgus"
"Outermost regions";"Scribbled leatherjac. Filefish";"aluterus scriptus";"";NA;"FFX";"No TAC";"Guadeloupe and Martinique EEZ";"31";"";"";"31";"aluterus scriptus";NA;"aluterus scriptus"
"Outermost regions";"Black margate";"Anisotremus surinamensis";"";NA;"HNU";"No TAC";"Guadeloupe and Martinique EEZ";"31";"";"";"31";"Anisotremus surinamensis";"1703602006";"Anisotremus surinamensis"
"Outermost regions";"Batoid fishes nei";"Batoidimorpha (Hypotremata)";"";NA;"BAI";"No TAC";"Guadeloupe and Martinique EEZ";"31";"";"";"31";"Batoidimorpha (Hypotremata)";"199XXXXXXX052";"Batoidimorpha (Hypotremata)"
"Outermost regions";"Queen triggerfish";"Balistes vetula";"";NA;"TRI";"No TAC";"Guadeloupe and Martinique EEZ";"31";"";"";"31";"Balistes vetula";"1901000202";"Balistes vetula"
"Outermost regions";"Jolthead porgy";"Calamus bajonado";"";NA;"CBD";"No TAC";"Guadeloupe and Martinique EEZ";"31";"";"";"31";"Calamus bajonado";"1703903403";"Calamus bajonado"
"Outermost regions";"American whitespotted filefish";"Cantherhines macrocerus";"";NA;"FFX";"No TAC";"Guadeloupe and Martinique EEZ";"31";"";"";"31";"Cantherhines macrocerus";NA;"Cantherhines macrocerus"
"Outermost regions";"Ocean triggerfish";"Canthidermis sufflamen";"";NA;"TRI";"No TAC";"Guadeloupe and Martinique EEZ";"31";"";"";"31";"Canthidermis sufflamen";"1901000403";"Canthidermis sufflamen"
"Outermost regions";"Yellow jack";"Caranx bartholomaei";"";NA;"CGX";"No TAC";"Guadeloupe and Martinique EEZ";"31";"";"";"31";"Caranx bartholomaei";NA;"Caranx bartholomaei"
"Outermost regions";"Horse-eye jack";"Caranx latus";"";NA;"CGX";"No TAC";"Guadeloupe and Martinique EEZ";"31";"";"";"31";"Caranx latus";"1702304406";"Caranx latus"
"Outermost regions";"Bar jack";"Caranx ruber";"";NA;"CGX";"No TAC";"Guadeloupe and Martinique EEZ";"31";"";"";"31";"Caranx ruber";"1702304431";"Caranx ruber"
"Outermost regions";"Graysby";"Cephalopholis cruentata";"";NA;"CFL,USB";"No TAC";"Guadeloupe and Martinique EEZ";"31";"";"";"31";"Cephalopholis cruentata";"1700211501";"Cephalopholis cruentata"
"Outermost regions";"Coney";"Cephalopholis fulva";"";NA;"CFJ,USB";"No TAC";"Guadeloupe and Martinique EEZ";"31";"";"";"31";"Cephalopholis fulva";"1700211502";"Cephalopholis fulva"
"Outermost regions";"Rock hind";"Epinephelus adscensionis";"";NA;"GPX";"No TAC";"Guadeloupe and Martinique EEZ";"31";"";"";"31";"Epinephelus adscensionis";"1700204221";"Epinephelus adscensionis"
"Outermost regions";"Red hind";"Epinephelus guttatus";"";NA;"GPX";"No TAC";"Guadeloupe and Martinique EEZ";"31";"";"";"31";"Epinephelus guttatus";"1700204225";"Epinephelus guttatus"
"Outermost regions";"Nassau grouper";"Epinephelus striatus";"";NA;"GPN";"No TAC";"Guadeloupe and Martinique EEZ";"31";"";"";"31";"Epinephelus striatus";"1700204220";"Epinephelus striatus"
"Outermost regions";"Queen snapper";"Etelis oculatus";"";NA;"EEO";"No TAC";"Guadeloupe and Martinique EEZ";"31";"";"";"31";"Etelis oculatus";"1703214001";"Etelis oculatus"
"Outermost regions";"Caesar grunt";"Haemulon carbonarium";"";NA;"HLC,GRX";"No TAC";"Guadeloupe and Martinique EEZ";"31";"";"";"31";"Haemulon carbonarium";"1703603003";"Haemulon carbonarium"
"Outermost regions";"French grunt";"Haemulon flavolineatum";"";NA;"HLV,GRX";"No TAC";"Guadeloupe and Martinique EEZ";"31";"";"";"31";"Haemulon flavolineatum";"1703603005";"Haemulon flavolineatum"
"Outermost regions";"Sailor's grunt";"Haemulon parra";"";NA;"HLP,GRX";"No TAC";"Guadeloupe and Martinique EEZ";"31";"";"";"31";"Haemulon parra";"1703603009";"Haemulon parra"
"Outermost regions";"White grunt";"Haemulon plumierii";"";NA;"HLI,GRX";"No TAC";"Guadeloupe and Martinique EEZ";"31";"";"";"31";"Haemulon plumierii";"1703603010";"Haemulon plumierii"
"Outermost regions";"Bluestriped grunt";"Haemulon sciurus";"";NA;"HHI,GRX";"No TAC";"Guadeloupe and Martinique EEZ";"31";"";"";"31";"Haemulon sciurus";"1703603011";"Haemulon sciurus"
"Outermost regions";"Mutton snapper";"Lutjanus analis";"";NA;"LJN,SNA";"No TAC";"Guadeloupe and Martinique EEZ";"31";"";"";"31";"Lutjanus analis";"1703202717";"Lutjanus analis"
"Outermost regions";"Schoolmaster snapper";"Lutjanus apodus";"";NA;"LJP,SNA";"No TAC";"Guadeloupe and Martinique EEZ";"31";"";"";"31";"Lutjanus apodus";"1703202718";"Lutjanus apodus"
"Outermost regions";"Dog snapper";"Lutjanus jocu";"";NA;"LJJ,SNA";"No TAC";"Guadeloupe and Martinique EEZ";"31";"";"";"31";"Lutjanus jocu";"1703202730";"Lutjanus jocu"
"Outermost regions";"Silk snapper";"Lutjanus vivanus";"";NA;"LTJ,SNA";"No TAC";"Guadeloupe and Martinique EEZ";"31";"";"";"31";"Lutjanus vivanus";"1703202734";"Lutjanus vivanus"
"Outermost regions";"Yellow goatfish";"Mulloidichthys martinicus";"";NA;"YMZ";"No TAC";"Guadeloupe and Martinique EEZ";"31";"";"";"31";"Mulloidichthys martinicus";"1704118103";"Mulloidichthys martinicus"
"Outermost regions";"Yellowtail snapper";"Ocyurus chrysurus";"";NA;"SNY";"No TAC";"Guadeloupe and Martinique EEZ";"31";"";"";"31";"Ocyurus chrysurus";"1703202801";"Ocyurus chrysurus"
"Outermost regions";"Green spiny lobster";"Panulirus argus";"";NA;"SLC";"No TAC";"Guadeloupe and Martinique EEZ";"31";"";"";"31";"Panulirus argus";"2290100108";"Panulirus argus"
"Outermost regions";"Spotted spiny lobster";"Panulirus guttatus";"";NA;"NLG";"No TAC";"Guadeloupe and Martinique EEZ";"31";"";"";"31";"Panulirus guttatus";"2290100120";"Panulirus guttatus"
"Outermost regions";"Keeltail needlefish";"Platybelone argalus";"";NA;"PTA";"No TAC";"Guadeloupe and Martinique EEZ";"31";"";"";"31";"Platybelone argalus";"1470100301";"Platybelone argalus"
"Outermost regions";"Atlantic bigeye";"Priacanthus arenatus";"";NA;"PQR";"No TAC";"Guadeloupe and Martinique EEZ";"31";"";"";"31";"Priacanthus arenatus";"1701102602";"Priacanthus arenatus"
"Outermost regions";"Spotted goatfish";"Pseudupeneus maculatus";"";NA;"UDU,MUX";"No TAC";"Guadeloupe and Martinique EEZ";"31";"";"";"31";"Pseudupeneus maculatus";"1704149904";"Pseudupeneus maculatus"
"Outermost regions";"Lion fish";"Pterois volitans";"";NA;"PZO";"No TAC";"Guadeloupe and Martinique EEZ";"31";"";"";"31";"Pterois volitans";"1780103602";"Pterois volitans"
"Outermost regions";"Various sharks nei";"Selachimorpha (Pleurotremata)";"";NA;"SKH";"No TAC";"Guadeloupe and Martinique EEZ";"31";"";"";"31";"Selachimorpha (Pleurotremata)";"199XXXXXXX053";"Selachimorpha (Pleurotremata)"
"Outermost regions";"Redband parrotfish";"Sparisoma aurofrenatum";"";NA;"RMF,PWT";"No TAC";"Guadeloupe and Martinique EEZ";"31";"";"";"31";"Sparisoma aurofrenatum";"1706505502";"Sparisoma aurofrenatum"
"Outermost regions";"Redtail parrotfish";"Sparisoma chrysopterum";"";NA;"RSY,PWT";"No TAC";"Guadeloupe and Martinique EEZ";"31";"";"";"31";"Sparisoma chrysopterum";"1706505503";"Sparisoma chrysopterum"
"Outermost regions";"Redfin parrotfish";"Sparisoma rubripinne";"";NA;"QZV,PWT";"No TAC";"Guadeloupe and Martinique EEZ";"31";"";"";"31";"Sparisoma rubripinne";"1706505507";"Sparisoma rubripinne"
"Outermost regions";"Queen conch";"Strombus gigas";"";NA;"COO,CON";"No TAC";"Guadeloupe and Martinique EEZ";"31";"";"";"31";"Strombus gigas";"3070600201";"Strombus gigas"
"Outermost regions";"Green jobfish";"Aprion virescens";"";NA;"AVR";"No TAC";"Mayotte and La Runion EEZ";"51";"";"";"51";"Aprion virescens";"1703210001";"Aprion virescens"
"Outermost regions";"Bluefin trevally";"Caranx melampygus";"";NA;"NXM";"No TAC";"Mayotte and La Runion EEZ";"51";"";"";"51";"Caranx melampygus";"1702304408";"Caranx melampygus"
"Outermost regions";"Yellow-edge lyretail";"Variola louti";"";NA;"VRL";"No TAC";"Mayotte and La Runion EEZ";"51";"";"";"51";"Variola louti";"1700255701";"Variola louti"
"Outermost regions";"Rusty jobfish";"Aphareus rutilans";"";NA;"ARQ";"No TAC";"La Runion EEZ";"51";"";"";"51";"Aphareus rutilans";"1703209801";"Aphareus rutilans"
"Outermost regions";"Golden hind";"Cephalopholis aurantia";"";NA;"CFZ";"No TAC";"La Runion EEZ";"51";"";"";"51";"Cephalopholis aurantia";"1700211515";"Cephalopholis aurantia"
"Outermost regions";"Blacktip grouper";"Epinephelus fasciatus";"";NA;"GPX";"No TAC";"La Runion EEZ";"51";"";"";"51";"Epinephelus fasciatus";"1700204233";"Epinephelus fasciatus"
"Outermost regions";"Oblique-banded grouper";"Epinephelus radiatus";"";NA;"GPX";"No TAC";"La Runion EEZ";"51";"";"";"51";"Epinephelus radiatus";"1700204286";"Epinephelus radiatus"
"Outermost regions";"Deep water red snapper";"Etelis carbunculus";"";NA;"ETA";"No TAC";"La Runion EEZ";"51";"";"";"51";"Etelis carbunculus";"1703214002";"Etelis carbunculus"
"Outermost regions";"Deep water longtail red snapper";"Etelis coruscans";"";NA;"SNA";"No TAC";"La Runion EEZ";"51";"";"";"51";"Etelis coruscans";"1703214004";"Etelis coruscans"
"Outermost regions";"Brilliant pomfret";"Eumegistus illustris";"";NA;"EBS";"No TAC";"La Runion EEZ";"51";"";"";"51";"Eumegistus illustris";"1702701002";"Eumegistus illustris"
"Outermost regions";"Spotcheek emperor";"Lethrinus rubrioperculatus";"";NA;"EMP";"No TAC";"La Runion EEZ";"51";"";"";"51";"Lethrinus rubrioperculatus";"1703817220";"Lethrinus rubrioperculatus"
"Outermost regions";"Common bluestrip snapper";"Lutjanus kasmira";"";NA;"LVK";"No TAC";"La Runion EEZ";"51";"";"";"51";"Lutjanus kasmira";"1703202750";"Lutjanus kasmira"
"Outermost regions";"Bluestrip snapper";"Lutjanus notatus";"";NA;"LVK";"No TAC";"La Runion EEZ";"51";"";"";"51";"Lutjanus notatus";"1703202763";"Lutjanus notatus"
"Outermost regions";"Ornate jobfish";"Pristipomoides argyrogrammicus";"";NA;"LRY";"No TAC";"La Runion EEZ";"51";"";"";"51";"Pristipomoides argyrogrammicus";"1703221701";"Pristipomoides argyrogrammicus"
"Outermost regions";"Goldbanded jobfish";"Pristipomoides multidens";"";NA;"SNA";"No TAC";"La Runion EEZ";"51";"";"";"51";"Pristipomoides multidens";"1703221705";"Pristipomoides multidens"
"Outermost regions";"Bigeye scad";"Selar crumenophthalmus";"";NA;"BIS";"No TAC";"La Runion EEZ";"51";"";"";"51";"Selar crumenophthalmus";"1702329101";"Selar crumenophthalmus"
"Outermost regions";"Amber jacks";"Seriola riviolana";"";NA;"CGX";"No TAC";"La Runion EEZ";"51";"";"";"51";"Seriola riviolana";NA;"Seriola riviolana"
"Outermost regions";"White-edge lyretail";"Variola albimarginata";"";NA;"VRA";"No TAC";"La Runion EEZ";"51";"";"";"51";"Variola albimarginata";"1700255702";"Variola albimarginata"
"Other regions";"Thorny skate";"Amblyraja radiata";"NAFO";NA;"RJR";"";"3LNOPs";"21_3_L,21_3_N,21_3_0,21_3_P_S";"";"";"21.3.L,21.3.N,21.3.0,21.3.P.S";"Amblyraja radiata";NA;"Amblyraja radiata"
"Other regions";"Deep water catsharks";"Apristurus spp.";"NAFO";NA;"API";"";"SA1-6";"21_1,21_2,21_3,21_4,21_5,21_6";"";"";"21.1,21.1.A,21.1.B,21.1.C,21.1.D,21.1.E,21.1.F21.2.H,21.2.J21.3,21.3.K,21.3.L,21.3.M,21.3.N,21.3.O21.6.G";"Apristurus spp.";"10801014XX";"Apristurus spp.,Apristurus acanutus,Apristurus atlanticus,Apristurus brunneus,Apristurus canutus,Apristurus gibbosus,Apristurus herklotsi,Apristurus indicus,Apristurus investigatoris,Apristurus japonicus,Apristurus kampae,Apristurus laurussonii,Apristurus longicephalus,Apristurus macrorhynchus,Apristurus macrostomus,Apristurus maderensis,Apristurus manis,Apristurus microps,Apristurus micropterygeus,Apristurus nasutus,Apristurus parvipinnis,Apristurus platyrhynchus,Apristurus profundorum,Apristurus riveri,Apristurus saldanha,Apristurus sibogae,Apristurus sinensis,Apristurus spongiceps,Apristurus stenseni,Apristurus verweyi,Apristurus spp.,Apristurus"
"Other regions";"Alfonsinos";"Beryx spp.";"NAFO";NA;"ALF";"";"6G";"21_6_G";"";"";"21.6.G";"Beryx spp.";"16102003XX";"Beryx spp.,Beryx decadactylus,Beryx splendens,Beryx spp.,Beryx"
"Other regions";"Roundnose Grenadier";"Coryphaenoides rupestris";"NAFO";NA;"RNG";"No TAC";"SA1-3";"21_1,21_2,21_3";"";"";"21.1,21.1.A,21.1.B,21.1.C,21.1.D,21.1.E,21.1.F21.2.H,21.2.J21.3,21.3.K,21.3.L,21.3.M,21.3.N,21.3.O";"Coryphaenoides rupestris";"1480600401";"Coryphaenoides rupestris"
"Other regions";"Gulper shark";"Centrophorus spp.";"NAFO";NA;"CWO";"";"SA1-6";"21_1,21_2,21_3,21_4,21_5,21_6";"";"";"21.1,21.1.A,21.1.B,21.1.C,21.1.D,21.1.E,21.1.F21.2.H,21.2.J21.3,21.3.K,21.3.L,21.3.M,21.3.N,21.3.O21.6.G";"Centrophorus spp.";"10901008XX";"Centrophorus spp.,Centrophorus granulosus,Centrophorus uyato,Centrophorus squamosus,Centrophorus lusitanicus,Centrophorus acus,Centrophorus harrissoni,Centrophorus moluccensis,Centrophorus niaukang,Centrophorus tessellatus,Centrophorus atromarginatus,Centrophorus isodon,Centrophorus spp."
"Other regions";"Portuguese dogfish";"Centroscymnus coelolepis";"NAFO";NA;"CYO";"";"SA1-6";"21_1,21_2,21_3,21_4,21_5,21_6";"";"";"21.1,21.1.A,21.1.B,21.1.C,21.1.D,21.1.E,21.1.F21.2.H,21.2.J21.3,21.3.K,21.3.L,21.3.M,21.3.N,21.3.O21.6.G";"Centroscymnus coelolepis";"1090101601";"Centroscymnus coelolepis"
"Other regions";"Longnose velvet dogfish";"Centroscymnus crepidater";"NAFO";NA;"CYP";"";"SA1-6";"21_1,21_2,21_3,21_4,21_5,21_6";"";"";"21.1,21.1.A,21.1.B,21.1.C,21.1.D,21.1.E,21.1.F21.2.H,21.2.J21.3,21.3.K,21.3.L,21.3.M,21.3.N,21.3.O21.6.G";"Centroscymnus crepidater";"1090101602";"Centroscymnus crepidater"
"Other regions";"Black dogfish";"Centroscyllium fabricii";"NAFO";NA;"CFB";"";"SA1-6";"21_1,21_2,21_3,21_4,21_5,21_6";"";"";"21.1,21.1.A,21.1.B,21.1.C,21.1.D,21.1.E,21.1.F21.2.H,21.2.J21.3,21.3.K,21.3.L,21.3.M,21.3.N,21.3.O21.6.G";"Centroscyllium fabricii";"1090101901";"Centroscyllium fabricii"
"Other regions";"Frilled shark";"Chlamydoselachus anguineus";"NAFO";NA;"HXC";"";"SA1-6";"21_1,21_2,21_3,21_4,21_5,21_6";"";"";"21.1,21.1.A,21.1.B,21.1.C,21.1.D,21.1.E,21.1.F21.2.H,21.2.J21.3,21.3.K,21.3.L,21.3.M,21.3.N,21.3.O21.6.G";"Chlamydoselachus anguineus";"1050100101";"Chlamydoselachus anguineus"
"Other regions";"Kitefin shark";"Dalatias licha";"NAFO";NA;"SCK";"";"SA1-6";"21_1,21_2,21_3,21_4,21_5,21_6";"";"";"21.1,21.1.A,21.1.B,21.1.C,21.1.D,21.1.E,21.1.F21.2.H,21.2.J21.3,21.3.K,21.3.L,21.3.M,21.3.N,21.3.O21.6.G";"Dalatias licha";"1090101801";"Dalatias licha"
"Other regions";"Birdbeak dogfish";"Deania calcea";"NAFO";NA;"DCA";"";"SA1-6";"21_1,21_2,21_3,21_4,21_5,21_6";"";"";"21.1,21.1.A,21.1.B,21.1.C,21.1.D,21.1.E,21.1.F21.2.H,21.2.J21.3,21.3.K,21.3.L,21.3.M,21.3.N,21.3.O21.6.G";"Deania calcea";"1090101401";"Deania calcea"
"Other regions";"Great lanternshark";"Etmopterus princeps";"NAFO";NA;"ETR";"";"SA1-6";"21_1,21_2,21_3,21_4,21_5,21_6";"";"";"21.1,21.1.A,21.1.B,21.1.C,21.1.D,21.1.E,21.1.F21.2.H,21.2.J21.3,21.3.K,21.3.L,21.3.M,21.3.N,21.3.O21.6.G";"Etmopterus princeps";"1090101005";"Etmopterus princeps"
"Other regions";"Velvet belly";"Etmopterus spinax";"NAFO";NA;"ETX";"";"SA1-6";"21_1,21_2,21_3,21_4,21_5,21_6";"";"";"21.1,21.1.A,21.1.B,21.1.C,21.1.D,21.1.E,21.1.F21.2.H,21.2.J21.3,21.3.K,21.3.L,21.3.M,21.3.N,21.3.O21.6.G";"Etmopterus spinax";"1090101001";"Etmopterus spinax"
"Other regions";"Cod";"Gadus morhua";"NAFO";NA;"COD";"N3M.";"3M";"21_3_M";"";"";"21.3.M";"Gadus morhua";"1480400202";"Gadus morhua"
"Other regions";"Cod";"Gadus morhua";"NAFO";NA;"COD";"N3NO.";"3NO";"21_3_N,21_3_O";"";"";"21.3.N,21.3.O";"Gadus morhua";"1480400202";"Gadus morhua"
"Other regions";"Cod";"Gadus morhua";"NAFO";NA;"COD";"no TAC";"3Ps";"21_3_P_S";"";"";"21.3.P.S";"Gadus morhua";"1480400202";"Gadus morhua"
"Other regions";"Cod";"Gadus morhua";"NAFO";NA;"COD";"N1GL14";"SA1";"21_1";"";"";"21.1,21.1.A,21.1.B,21.1.C,21.1.D,21.1.E,21.1.F";"Gadus morhua";"1480400202";"Gadus morhua"
"Other regions";"Mouse catshark";"Galeus murinus";"NAFO";NA;"GAM";"";"SA1-6";"21_1,21_2,21_3,21_4,21_5,21_6";"";"";"21.1,21.1.A,21.1.B,21.1.C,21.1.D,21.1.E,21.1.F21.2.H,21.2.J21.3,21.3.K,21.3.L,21.3.M,21.3.N,21.3.O21.6.G";"Galeus murinus";"1080100106";"Galeus murinus"
"Other regions";"Witch flounder";"Glyptocephalus cynoglossus";"NAFO";NA;"WIT";"N3NO.";"3NO";"21_3_N,21_3_O";"";"";"21.3.N,21.3.O";"Glyptocephalus cynoglossus";"1830201102";"Glyptocephalus cynoglossus"
"Other regions";"Witch flounder";"Glyptocephalus cynoglossus";"NAFO";NA;"WIT";"N3L.";"2J3KL";"21_2_J,21_3_K,21_3_L";"";"";"21.2.J,21.3.K,21.3.L";"Glyptocephalus cynoglossus";"1830201102";"Glyptocephalus cynoglossus"
"Other regions";"Bluntnose sixgill shark";"Hexanchus griseus";"NAFO";NA;"SBL";"";"SA1-6";"21_1,21_2,21_3,21_4,21_5,21_6";"";"";"21.1,21.1.A,21.1.B,21.1.C,21.1.D,21.1.E,21.1.F21.2.H,21.2.J21.3,21.3.K,21.3.L,21.3.M,21.3.N,21.3.O21.6.G";"Hexanchus griseus";"1050200201";"Hexanchus griseus"
"Other regions";"American plaice";"Hippoglossoides platessoides";"NAFO";NA;"PLA";"N3LNO.";"3LNO";"21_3_L,21_3_N,21_3_O";"";"";"21.3.L,21.3.N,21.3.O";"Hippoglossoides platessoides";"1830201401";"Hippoglossoides platessoides"
"Other regions";"American plaice";"Hippoglossoides platessoides";"NAFO";NA;"PLA";"N3M.";"3M";"21_3_M";"";"";"21.3.M";"Hippoglossoides platessoides";"1830201401";"Hippoglossoides platessoides"
"Other regions";"Shortfin squid";"Illex illecebrosus";"NAFO";NA;"SQI";"N34.";"SA3-4";"21_3,21_4";"";"";"21.3,21.3.K,21.3.L,21.3.M,21.3.N,21.3.O";"Illex illecebrosus";"3210501001";"Illex illecebrosus"
"Other regions";"Yellowtail flounder";"Limanda ferruginea";"NAFO";NA;"YEL";"N3LNO.";"3LNO";"21_3_L,21_3_N,21_3_O";"";"";"21.3.L,21.3.N,21.3.O";"Limanda ferruginea";"1830202404";"Limanda ferruginea"
"Other regions";"Roughhead grenadier";"Macrourus berglax";"NAFO";NA;"RHG";"N1GRN.";"SA1-3";"21_1,21_2,21_3";"";"";"21.1,21.1.A,21.1.B,21.1.C,21.1.D,21.1.E,21.1.F21.2.H,21.2.J21.3,21.3.K,21.3.L,21.3.M,21.3.N,21.3.O";"Macrourus berglax";"1480600103";"Macrourus berglax"
"Other regions";"Capelin";"Mallotus villosus";"NAFO";NA;"CAP";"N3NO.";"3NO";"21_3_N,21_3_O";"";"";"21.3.N,21.3.O";"Mallotus villosus";"1230400201";"Mallotus villosus"
"Other regions";"Sailfin roughshark (Sharpback shark)";"Oxynotus paradoxus";"NAFO";NA;"OXN";"";"SA1-6";"21_1,21_2,21_3,21_4,21_5,21_6";"";"";"21.1,21.1.A,21.1.B,21.1.C,21.1.D,21.1.E,21.1.F21.2.H,21.2.J21.3,21.3.K,21.3.L,21.3.M,21.3.N,21.3.O21.6.G";"Oxynotus paradoxus";"1090500602";"Oxynotus paradoxus"
"Other regions";"Northern shrimp";"Pandalus borealis";"NAFO";NA;"PRA";"N1GRM.";"SA1";"21_1";"";"";"21.1,21.1.A,21.1.B,21.1.C,21.1.D,21.1.E,21.1.F";"Pandalus borealis";"2280400203";"Pandalus borealis"
"Other regions";"Northern shrimp";"Pandalus borealis";"NAFO";NA;"PRA";"N3LNO.";"3LNO";"21_3_L,21_3_N,21_3_O";"";"";"21.3.L,21.3.N,21.3.O";"Pandalus borealis";"2280400203";"Pandalus borealis"
"Other regions";"Northern shrimp";"Pandalus borealis";"NAFO";NA;"PRA";"*N3M.";"3M";"21_3_M";"";"";"21.3.M";"Pandalus borealis";"2280400203";"Pandalus borealis"
"Other regions";"Greenland halibut";"Reinhardtius hippoglossoides";"NAFO";NA;"GHL";"N3LMNO";"3KLMNO";"21_3_K,21_3_L,21_3_M,21_3_N,21_3_O";"";"";"21.3.K,21.3.L,21.3.M,21.3.N,21.3.O";"Reinhardtius hippoglossoides";"1830200501";"Reinhardtius hippoglossoides"
"Other regions";"Greenland halibut";"Reinhardtius hippoglossoides";"NAFO";NA;"GHL";"N1GRN.";"SA1";"21_1";"";"";"21.1,21.1.A,21.1.B,21.1.C,21.1.D,21.1.E,21.1.F";"Reinhardtius hippoglossoides";"1830200501";"Reinhardtius hippoglossoides"
"Other regions";"Salmon";"Salmo salar";"NAFO";NA;"SAL";"No TAC";"SA1";"21_1";"";"";"21.1,21.1.A,21.1.B,21.1.C,21.1.D,21.1.E,21.1.F";"Salmo salar";"1230100401";"Salmo salar"
"Other regions";"Knifetooth dogfish";"Scymnodon ringenes";"NAFO";NA;"SYR";"";"SA1-6";"21_1,21_2,21_3,21_4,21_5,21_6";"";"";"21.1,21.1.A,21.1.B,21.1.C,21.1.D,21.1.E,21.1.F21.2.H,21.2.J21.3,21.3.K,21.3.L,21.3.M,21.3.N,21.3.O21.6.G";"Scymnodon ringenes";NA;"Scymnodon ringenes,Scymnodon ringens"
"Other regions";"Beaked redfish";"Sebastes mentella";"NAFO";NA;"REB";"No TAC";"SA1";"21_1";"";"";"21.1,21.1.A,21.1.B,21.1.C,21.1.D,21.1.E,21.1.F";"Sebastes mentella";"1780100112";"Sebastes mentella"
"Other regions";"Redfish";"Sebastes spp.";"NAFO";NA;"RED";"N3LN.";"3LN";"21_3_L,21_3_N";"";"";"21.3.L,21.3.N";"Sebastes spp.";"17801001XX";"Sebastes spp.,Sebastes marinus,Sebastes viviparus,Sebastes entomelas,Sebastes flavidus,Sebastes serriceps,Sebastes rosaceus,Sebastes serranoides,Sebastes mystinus,Sebastes alutus,Sebastes paucispinis,Sebastes miniatus,Sebastes mentella,Sebastes capensis,Sebastes fasciatus,Sebastes pinniger,Sebastes goodei,Sebastes constellatus,Sebastes aleutianus,Sebastes borealis,Sebastes caurinus,Sebastes diploproa,Sebastes elongatus,Sebastes inermis,Sebastes jordani,Sebastes maliger,Sebastes minor,Sebastes schlegeli,Sebastes taczanowskii,Sebastes reedi,Sebastes brevispinis,Sebastes melanops,Sebastes nigrocinctus,Sebastes proriger,Sebastes ruberrimus,Sebastes wilsoni,Sebastes ciliatus,Sebastes saxicola,Sebastes variegatus,Sebastes polyspinis,Sebastes nebulosus,Sebastes helvomaculatus,Sebastes babcocki,Sebastes aurora,Sebastes zacentrus,Sebastes melanostomus,Sebastes crameri,Sebastes oculatus,Sebastes chlorostictus,Sebastes carnatus,Sebastes levis,Sebastes rufus,Sebastes auriculatus,Sebastes spp.,Sebastes"
"Other regions";"Redfish";"Sebastes spp.";"NAFO";NA;"RED";"N3M.";"3M";"21_3_M";"";"";"21.3.M";"Sebastes spp.";"17801001XX";"Sebastes spp.,Sebastes marinus,Sebastes viviparus,Sebastes entomelas,Sebastes flavidus,Sebastes serriceps,Sebastes rosaceus,Sebastes serranoides,Sebastes mystinus,Sebastes alutus,Sebastes paucispinis,Sebastes miniatus,Sebastes mentella,Sebastes capensis,Sebastes fasciatus,Sebastes pinniger,Sebastes goodei,Sebastes constellatus,Sebastes aleutianus,Sebastes borealis,Sebastes caurinus,Sebastes diploproa,Sebastes elongatus,Sebastes inermis,Sebastes jordani,Sebastes maliger,Sebastes minor,Sebastes schlegeli,Sebastes taczanowskii,Sebastes reedi,Sebastes brevispinis,Sebastes melanops,Sebastes nigrocinctus,Sebastes proriger,Sebastes ruberrimus,Sebastes wilsoni,Sebastes ciliatus,Sebastes saxicola,Sebastes variegatus,Sebastes polyspinis,Sebastes nebulosus,Sebastes helvomaculatus,Sebastes babcocki,Sebastes aurora,Sebastes zacentrus,Sebastes melanostomus,Sebastes crameri,Sebastes oculatus,Sebastes chlorostictus,Sebastes carnatus,Sebastes levis,Sebastes rufus,Sebastes auriculatus,Sebastes spp.,Sebastes"
"Other regions";"Redfish";"Sebastes spp.";"NAFO";NA;"RED";"N3O.";"3O";"21_3_O";"";"";"21.3.O";"Sebastes spp.";"17801001XX";"Sebastes spp.,Sebastes marinus,Sebastes viviparus,Sebastes entomelas,Sebastes flavidus,Sebastes serriceps,Sebastes rosaceus,Sebastes serranoides,Sebastes mystinus,Sebastes alutus,Sebastes paucispinis,Sebastes miniatus,Sebastes mentella,Sebastes capensis,Sebastes fasciatus,Sebastes pinniger,Sebastes goodei,Sebastes constellatus,Sebastes aleutianus,Sebastes borealis,Sebastes caurinus,Sebastes diploproa,Sebastes elongatus,Sebastes inermis,Sebastes jordani,Sebastes maliger,Sebastes minor,Sebastes schlegeli,Sebastes taczanowskii,Sebastes reedi,Sebastes brevispinis,Sebastes melanops,Sebastes nigrocinctus,Sebastes proriger,Sebastes ruberrimus,Sebastes wilsoni,Sebastes ciliatus,Sebastes saxicola,Sebastes variegatus,Sebastes polyspinis,Sebastes nebulosus,Sebastes helvomaculatus,Sebastes babcocki,Sebastes aurora,Sebastes zacentrus,Sebastes melanostomus,Sebastes crameri,Sebastes oculatus,Sebastes chlorostictus,Sebastes carnatus,Sebastes levis,Sebastes rufus,Sebastes auriculatus,Sebastes spp.,Sebastes"
"Other regions";"Greenland shark";"Somniosus microcephalus";"NAFO";NA;"GSK";"";"SA1-6";"21_1,21_2,21_3,21_4,21_5,21_6";"";"";"21.1,21.1.A,21.1.B,21.1.C,21.1.D,21.1.E,21.1.F21.2.H,21.2.J21.3,21.3.K,21.3.L,21.3.M,21.3.N,21.3.O21.6.G";"Somniosus microcephalus";"1090100201";"Somniosus microcephalus"
"Other regions";"White hake";"Urophycis tenuis";"NAFO";NA;"HKW";"N3NO.";"3NO";"21_3_N,21_3_O";"";"";"21.3.N,21.3.O";"Urophycis tenuis";"1480400803";"Urophycis tenuis"
"Other regions";"Black scabbardfish";"Aphanopus carbo";"CECAF";NA;"BSF";"C3412-";"All areas";"34";"";"";"34";"Aphanopus carbo";"1750601201";"Aphanopus carbo"
"Other regions";"Intermediate scabbardfish";"Aphanopus intermedius";"CECAF";NA;"APH";"";"All areas";"34";"";"";"34";"Aphanopus intermedius";"1750601202";"Aphanopus intermedius"
"Other regions";"Deep water catsharks";"Apristurus spp.";"CECAF";NA;"API";"";"34.1.1, 34.1.2, 34.2";"34_1_1,34_1_2,34_2";"";"";"34.1.1,34.1.2,34.2";"Apristurus spp.";"10801014XX";"Apristurus spp."
"Other regions";"Striped red shrimp";"Aristeus varidens";"CECAF";NA;"ARV";"";"All areas";"34";"";"";"34";"Aristeus varidens";"2280203102";"Aristeus varidens"
"Other regions";"Grunt";"Brachydeuterus spp.";"CECAF";NA;"HWX";"No TAC";"All areas";"34";"";"";"34";"Brachydeuterus spp.";NA;"Brachydeuterus spp."
"Other regions";"Atlantic pomfret";"Brama brama";"CECAF";NA;"POA";"";"All areas";"34";"";"";"34";"Brama brama";"1702700301";"Brama brama"
"Other regions";"Jack";"Caranx spp.";"CECAF";NA;"TRE";"No TAC";"34.3.1, 34.3.3-6";"34_3_1,34_3_3,34_3_4,34_3_5,34_3_6";"";"";"34.3.1,34.3.3,34.3.4,34.3.5,34.3.6";"Caranx spp.";"17023044XX";"Caranx spp."
"Other regions";"Gulper shark";"Centrophorus spp.";"CECAF";NA;"CWO";"";"34.1.1, 34.1.2, 34.2";"34_1_1,34_1_2,34_2";"";"";"34.1.1,34.1.2,34.2";"Centrophorus spp.";"10901008XX";"Centrophorus spp."
"Other regions";"Portuguese dogfish";"Centroscymnus coelolepis";"CECAF";NA;"CYO";"";"34.1.1, 34.1.2, 34.2";"34_1_1,34_1_2,34_2";"";"";"34.1.1,34.1.2,34.2";"Centroscymnus coelolepis";"1090101601";"Centroscymnus coelolepis"
"Other regions";"Longnose velvet dogfish";"Centroscymnus crepidater";"CECAF";NA;"CYP";"";"34.1.1, 34.1.2, 34.2";"34_1_1,34_1_2,34_2";"";"";"34.1.1,34.1.2,34.2";"Centroscymnus crepidater";"1090101602";"Centroscymnus crepidater"
"Other regions";"Black dogfish";"Centroscyllium fabricii";"CECAF";NA;"CFB";"";"34.1.1, 34.1.2, 34.2";"34_1_1,34_1_2,34_2";"";"";"34.1.1,34.1.2,34.2";"Centroscyllium fabricii";"1090101901";"Centroscyllium fabricii"
"Other regions";"Frilled shark";"Chlamydoselachus anguineus";"CECAF";NA;"HXC";"";"34.1.1, 34.1.2, 34.2";"34_1_1,34_1_2,34_2";"";"";"34.1.1,34.1.2,34.2";"Chlamydoselachus anguineus";"1050100101";"Chlamydoselachus anguineus"
"Other regions";"Tongue sole";"Cynoglossus spp.";"CECAF";NA;"YOX";"No TAC";"All areas";"34";"";"";"34";"Cynoglossus spp.";"18304031XX";"Cynoglossus spp."
"Other regions";"Kitefin shark";"Dalatias licha";"CECAF";NA;"SCK";"";"34.1.1, 34.1.2, 34.2";"34_1_1,34_1_2,34_2";"";"";"34.1.1,34.1.2,34.2";"Dalatias licha";"1090101801";"Dalatias licha"
"Other regions";"Birdbeak dogfish";"Deania calcea";"CECAF";NA;"DCA";"";"34.1.1, 34.1.2, 34.2";"34_1_1,34_1_2,34_2";"";"";"34.1.1,34.1.2,34.2";"Deania calcea";"1090101401";"Deania calcea"
"Other regions";"Scad";"Decapterus spp.";"CECAF";NA;"SDX";"No TAC";"34.3.1, 34.3.3-6";"34_3_1,34_3_3,34_3_4,34_3_5,34_3_6";"";"";"34.3.1,34.3.3,34.3.4,34.3.5,34.3.6";"Decapterus spp.";"17023043XX";"Decapterus spp."
"Other regions";"Large-eye dentex";"Dentex macrophthalmus";"CECAF";NA;"DEL";"No TAC";"All areas";"34";"";"";"34";"Dentex macrophthalmus";"1703906002";"Dentex macrophthalmus"
"Other regions";"Anchovy";"Engraulis encrasicolus";"CECAF";NA;"ANE";"No TAC";"All areas";"34";"";"";"34";"Engraulis encrasicolus";"1210600201";"Engraulis encrasicolus"
"Other regions";"White grouper";"Epinephelus aeneus";"CECAF";NA;"GPW";"No TAC";"34.1.3, 34.3.1, 34.3.3-6";"34_1_3,34_3_1,34_3_3,34_3_4,34_3_5,34_3_6";"";"";"34.1.3,34.3.1,34.3.3,34.3.4,34.3.5,34.3.6";"Epinephelus aeneus";"1700204202";"Epinephelus aeneus"
"Other regions";"Bonga shad";"Ethmalosa fimbriata";"CECAF";NA;"BOA";"No TAC";"34.3.1, 34.3.3-6";"34_3_1,34_3_3,34_3_4,34_3_5,34_3_6";"";"";"34.3.1,34.3.3,34.3.4,34.3.5,34.3.6";"Ethmalosa fimbriata";"1210503002";"Ethmalosa fimbriata"
"Other regions";"Great lanternshark";"Etmopterus princeps";"CECAF";NA;"ETR";"";"34.1.1, 34.1.2, 34.2";"34_1_1,34_1_2,34_2";"";"";"34.1.1,34.1.2,34.2";"Etmopterus princeps";"1090101005";"Etmopterus princeps"
"Other regions";"Velvet belly";"Etmopterus spinax";"CECAF";NA;"ETX";"";"34.1.1, 34.1.2, 34.2";"34_1_1,34_1_2,34_2";"";"";"34.1.1,34.1.2,34.2";"Etmopterus spinax";"1090101001";"Etmopterus spinax"
"Other regions";"Southern pink shrimp";"Farfantepenaeus notialis";"CECAF";NA;"SOP";"No TAC";"All areas";"34";"";"";"34";"Farfantepenaeus notialis";NA;"Farfantepenaeus notialis"
"Other regions";"Lesser African threadfin";"Galeoides decadactylus";"CECAF";NA;"GAL";"No TAC";"34.1.3, 34.3.1, 34.3.3-6";"34_1_3,34_3_1,34_3_3,34_3_4,34_3_5,34_3_6";"";"";"34.1.3,34.3.1,34.3.3,34.3.4,34.3.5,34.3.6";"Galeoides decadactylus";"1707700302";"Galeoides decadactylus"
"Other regions";"Mouse catshark";"Galeus murinus";"CECAF";NA;"GAM";"";"34.1.1, 34.1.2, 34.2";"34_1_1,34_1_2,34_2";"";"";"34.1.1,34.1.2,34.2";"Galeus murinus";"1080100106";"Galeus murinus"
"Other regions";"Bluntnose sixgill shark";"Hexanchus griseus";"CECAF";NA;"SBL";"";"34.1.1, 34.1.2, 34.2";"34_1_1,34_1_2,34_2";"";"";"34.1.1,34.1.2,34.2";"Hexanchus griseus";"1050200201";"Hexanchus griseus"
"Other regions";"Common squid";"Loligo vulgaris";"CECAF";NA;"SQR";"No TAC";"All areas";"34";"";"";"34";"Loligo vulgaris";"3210400109";"Loligo vulgaris"
"Other regions";"Benguela hake";"Merluccius polli";"CECAF";NA;"HKB";"No TAC";"All areas";"34";"";"";"34";"Merluccius polli";"1480500408";"Merluccius polli"
"Other regions";"Senegalese hake";"Merluccius senegalensis";"CECAF";NA;"HKM";"No TAC";"All areas";"34";"";"";"34";"Merluccius senegalensis";"1480500402";"Merluccius senegalensis"
"Other regions";"Common octopus";"Octopus vulgaris";"CECAF";NA;"OCC";"No TAC";"All areas";"34";"";"";"34";"Octopus vulgaris";"3210900507";"Octopus vulgaris"
"Other regions";"Sailfin roughshark (Sharpback shark)";"Oxynotus paradoxus";"CECAF";NA;"OXN";"";"34.1.1, 34.1.2, 34.2";"34_1_1,34_1_2,34_2";"";"";"34.1.1,34.1.2,34.2";"Oxynotus paradoxus";"1090500602";"Oxynotus paradoxus"
"Other regions";"axillary sea bream";"Pagellus acarne";"CECAF";NA;"SBA";"No TAC";"34.1.1";"34_1_1";"";"";"34.1.1";"Pagellus acarne";"1703900803";"Pagellus acarne"
"Other regions";"Red pandora";"Pagellus bellottii";"CECAF";NA;"PAR";"No TAC";"All areas";"34";"";"";"34";"Pagellus bellottii";"1703900807";"Pagellus bellottii"
"Other regions";"Blue spotted sea bream";"Pagrus caeruleostictus";"CECAF";NA;"BSC";"No TAC";"All areas";"34";"";"";"34";"Pagrus caeruleostictus";"1703919101";"Pagrus caeruleostictus"
"Other regions";"Deepwater rose shrimp";"Parapenaeus longirostris";"CECAF";NA;"DPS";"No TAC";"All areas";"34";"";"";"34";"Parapenaeus longirostris";"2280101701";"Parapenaeus longirostris"
"Other regions";"Grunt";"Pomadasys spp.";"CECAF";NA;"BGX";"No TAC";"All areas";"34";"";"";"34";"Pomadasys spp.";"17036209XX";"Pomadasys spp."
"Other regions";"West African croakers";"Pseudotolithus spp.";"CECAF";NA;"CKW";"No TAC";"34.1.1";"34_1_1";"";"";"34.1.1";"Pseudotolithus spp.";"17037457XX";"Pseudotolithus spp."
"Other regions";"Sardine";"Sardina pilchardus";"CECAF";NA;"PIL";"No TAC";"34.1.1, 34.1.3";"34_1_1,34_1_3";"";"";"34.1.1,34.1.3";"Sardina pilchardus";"1210506401";"Sardina pilchardus"
"Other regions";"Round sardinella";"Sardinella aurita";"CECAF";NA;"SAA";"No TAC";"All areas";"34";"";"";"34";"Sardinella aurita";"1210501210";"Sardinella aurita"
"Other regions";"Short-body sardinella";"Sardinella maderensis";"CECAF";NA;"SAE";"No TAC";"All areas";"34";"";"";"34";"Sardinella maderensis";"1210501217";"Sardinella maderensis"
"Other regions";"Chub mackerel";"Scomber colias";"CECAF";NA;"VMA";"No TAC";"All areas";"34";"";"";"34";"Scomber colias";"1750100209";"Scomber colias"
"Other regions";"Knifetooth dogfish";"Scymnodon ringenes";"CECAF";NA;"SYR";"";"34.1.1, 34.1.2, 34.2";"34_1_1,34_1_2,34_2";"";"";"34.1.1,34.1.2,34.2";"Scymnodon ringenes";NA;"Scymnodon ringenes,Scymnodon ringens"
"Other regions";"Cuttlefish";"Sepia hierredda";"CECAF";NA;"CVT";"No TAC";"All areas";"34";"";"";"34";"Sepia hierredda";"3210200237";"Sepia hierredda"
"Other regions";"Common cuttlefish";"Sepia officinalis";"CECAF";NA;"CTC";"No TAC";"All areas";"34";"";"";"34";"Sepia officinalis";"3210200202";"Sepia officinalis"
"Other regions";"Sea bream";"Sparus spp.";"CECAF";NA;"SBX";"No TAC";"34.1.1";"34_1_1";"";"";"34.1.1";"Sparus spp.";NA;"Sparus spp."
"Other regions";"Horse mackerel";"Trachurus spp.";"CECAF";NA;"JAX";"No TAC";"All areas";"34";"";"";"34";"Trachurus spp.";"17023004XX";"Trachurus spp."
"Other regions";"Jack mackerel";"Trachurus murphyi";"SPRFMO";NA;"CJM";"SPRFMO";"All areas";"81.870000000000005";"";"";"81.870000000000005";"Trachurus murphyi";"1702300405";"Trachurus murphyi"
"Other regions";"Wahoo";"Acanthocybium solandri";"ICCAT";NA;"WAH";"No TAC";"All areas";"21,31,27,34,37";"";"";"21.0.A,21.0.B,21.1,21.1.A,21.1.B,21.1.C,21.1.D,21.1.E,21.1.F,21.2.H,21.2.J,21.3,21.3.K,21.3.L,21.3.M,21.3.N,21.3.O,21.6.G,27.3.a.21,31,27,34,37";"Acanthocybium solandri";"1750101001";"Acanthocybium solandri"
"Other regions";"Bigeye thresher shark";"Alopias superciliosus";"ICCAT";NA;"BTH";"";"All areas";"21,31,27,34,37";"";"";"21.0.A,21.0.B,21.1,21.1.A,21.1.B,21.1.C,21.1.D,21.1.E,21.1.F,21.2.H,21.2.J,21.3,21.3.K,21.3.L,21.3.M,21.3.N,21.3.O,21.6.G,27.3.a.21,31,27,34,37";"Alopias superciliosus";"1060600603";"Alopias superciliosus"
"Other regions";"Common thresher shark";"Alopias vulpinus";"ICCAT";NA;"ALV";"";"All areas";"21,31,27,34,37";"";"";"21.0.A,21.0.B,21.1,21.1.A,21.1.B,21.1.C,21.1.D,21.1.E,21.1.F,21.2.H,21.2.J,21.3,21.3.K,21.3.L,21.3.M,21.3.N,21.3.O,21.6.G,27.3.a.21,31,27,34,37";"Alopias vulpinus";"1060600601";"Alopias vulpinus"
"Other regions";"Bullet tuna";"Auxis rochei";"ICCAT";NA;"BLT";"No TAC";"All areas";"21,31,27,34,37";"";"";"21.0.A,21.0.B,21.1,21.1.A,21.1.B,21.1.C,21.1.D,21.1.E,21.1.F,21.2.H,21.2.J,21.3,21.3.K,21.3.L,21.3.M,21.3.N,21.3.O,21.6.G,27.3.a.21,31,27,34,37";"Auxis rochei";"1750102303";"Auxis rochei"
"Other regions";"Frigate tuna";"Auxis thazard";"ICCAT";NA;"FRZ";"No TAC";"All areas";"21,31,27,34,37";"";"";"21.0.A,21.0.B,21.1,21.1.A,21.1.B,21.1.C,21.1.D,21.1.E,21.1.F,21.2.H,21.2.J,21.3,21.3.K,21.3.L,21.3.M,21.3.N,21.3.O,21.6.G,27.3.a.21,31,27,34,37";"Auxis thazard";"1750102301";"Auxis thazard"
"Other regions";"Silky shark";"Carcharhinus falciformis";"ICCAT";NA;"FAL";"";"All areas";"21,31,27,34,37";"";"";"21.0.A,21.0.B,21.1,21.1.A,21.1.B,21.1.C,21.1.D,21.1.E,21.1.F,21.2.H,21.2.J,21.3,21.3.K,21.3.L,21.3.M,21.3.N,21.3.O,21.6.G,27.3.a.21,31,27,34,37";"Carcharhinus falciformis";"1080201017";"Carcharhinus falciformis"
"Other regions";"Oceanic whitetip shark";"Carcharhinus longimanus";"ICCAT";NA;"OCS";"";"All areas";"21,31,27,34,37";"";"";"21.0.A,21.0.B,21.1,21.1.A,21.1.B,21.1.C,21.1.D,21.1.E,21.1.F,21.2.H,21.2.J,21.3,21.3.K,21.3.L,21.3.M,21.3.N,21.3.O,21.6.G,27.3.a.21,31,27,34,37";"Carcharhinus longimanus";"1080201011";"Carcharhinus longimanus"
"Other regions";"Requiem sharks";"Carcharhinus spp.";"ICCAT";NA;"CWZ";"";"All areas";"21,31,27,34,37";"";"";"21.0.A,21.0.B,21.1,21.1.A,21.1.B,21.1.C,21.1.D,21.1.E,21.1.F,21.2.H,21.2.J,21.3,21.3.K,21.3.L,21.3.M,21.3.N,21.3.O,21.6.G,27.3.a.21,31,27,34,37";"Carcharhinus spp.";"10802010XX";"Carcharhinus spp."
"Other regions";"Dolphinfish";"Coryphaena hippurus";"ICCAT";NA;"DOL";"No TAC";"All areas";"21,31,27,34,37";"";"";"21.0.A,21.0.B,21.1,21.1.A,21.1.B,21.1.C,21.1.D,21.1.E,21.1.F,21.2.H,21.2.J,21.3,21.3.K,21.3.L,21.3.M,21.3.N,21.3.O,21.6.G,27.3.a.21,31,27,34,37";"Coryphaena hippurus";"1702807101";"Coryphaena hippurus"
"Other regions";"Atlantic black skipjack";"Euthynnus alletteratus";"ICCAT";NA;"LTA";"No TAC";"All areas";"21,31,27,34,37";"";"";"21.0.A,21.0.B,21.1,21.1.A,21.1.B,21.1.C,21.1.D,21.1.E,21.1.F,21.2.H,21.2.J,21.3,21.3.K,21.3.L,21.3.M,21.3.N,21.3.O,21.6.G,27.3.a.21,31,27,34,37";"Euthynnus alletteratus";"1750102401";"Euthynnus alletteratus"
"Other regions";"Sailfish";"Istiophorus albicans";"ICCAT";NA;"SAI";"AE45W,AW45W";"All areas";"21,31,27,34,37";"";"";"21.0.A,21.0.B,21.1,21.1.A,21.1.B,21.1.C,21.1.D,21.1.E,21.1.F,21.2.H,21.2.J,21.3,21.3.K,21.3.L,21.3.M,21.3.N,21.3.O,21.6.G,27.3.a.21,31,27,34,37";"Istiophorus albicans";"1750300404";"Istiophorus albicans"
"Other regions";"Shortfin mako";"Isurus oxyrinchus";"ICCAT";NA;"SMA";"";"All areas";"21,31,27,34,37";"";"";"21.0.A,21.0.B,21.1,21.1.A,21.1.B,21.1.C,21.1.D,21.1.E,21.1.F,21.2.H,21.2.J,21.3,21.3.K,21.3.L,21.3.M,21.3.N,21.3.O,21.6.G,27.3.a.21,31,27,34,37";"Isurus oxyrinchus";"1060800201";"Isurus oxyrinchus"
"Other regions";"Longfin mako shark";"Isurus paucus";"ICCAT";NA;"LMA";"";"All areas";"21,31,27,34,37";"";"";"21.0.A,21.0.B,21.1,21.1.A,21.1.B,21.1.C,21.1.D,21.1.E,21.1.F,21.2.H,21.2.J,21.3,21.3.K,21.3.L,21.3.M,21.3.N,21.3.O,21.6.G,27.3.a.21,31,27,34,37";"Isurus paucus";"1060800203";"Isurus paucus"
"Other regions";"White marlin";"Kajikia albida";"ICCAT";NA;"WHM";"ATLANT";"All areas";"21,31,27,34,37";"";"";"21.0.A,21.0.B,21.1,21.1.A,21.1.B,21.1.C,21.1.D,21.1.E,21.1.F,21.2.H,21.2.J,21.3,21.3.K,21.3.L,21.3.M,21.3.N,21.3.O,21.6.G,27.3.a.21,31,27,34,37";"Kajikia albida";NA;"Kajikia albida"
"Other regions";"Skipjack tuna";"Katsuwonus pelamis";"ICCAT";NA;"SKJ";"No TAC";"All areas";"21,31,27,34,37";"";"";"21.0.A,21.0.B,21.1,21.1.A,21.1.B,21.1.C,21.1.D,21.1.E,21.1.F,21.2.H,21.2.J,21.3,21.3.K,21.3.L,21.3.M,21.3.N,21.3.O,21.6.G,27.3.a.21,31,27,34,37";"Katsuwonus pelamis";"1750102501";"Katsuwonus pelamis"
"Other regions";"Porbeagle";"Lamna nasus";"ICCAT";NA;"POR";"";"All areas";"21,31,27,34,37";"";"";"21.0.A,21.0.B,21.1,21.1.A,21.1.B,21.1.C,21.1.D,21.1.E,21.1.F,21.2.H,21.2.J,21.3,21.3.K,21.3.L,21.3.M,21.3.N,21.3.O,21.6.G,27.3.a.21,31,27,34,37";"Lamna nasus";"1060800301";"Lamna nasus"
"Other regions";"Blue marlin";"Makaira nigricans (or mazara)";"ICCAT";NA;"BUM";"ATLANT";"All areas";"21,31,27,34,37";"";"";"21.0.A,21.0.B,21.1,21.1.A,21.1.B,21.1.C,21.1.D,21.1.E,21.1.F,21.2.H,21.2.J,21.3,21.3.K,21.3.L,21.3.M,21.3.N,21.3.O,21.6.G,27.3.a.21,31,27,34,37";"Makaira nigricans (or mazara)";NA;"Makaira nigricans (or mazara)"
"Other regions";"Mobulidae-manta rays";"Mobula spp.";"ICCAT";NA;"RMV";"";"All areas";"21,31,27,34,37";"";"";"21.0.A,21.0.B,21.1,21.1.A,21.1.B,21.1.C,21.1.D,21.1.E,21.1.F,21.2.H,21.2.J,21.3,21.3.K,21.3.L,21.3.M,21.3.N,21.3.O,21.6.G,27.3.a.21,31,27,34,37";"Mobula spp.";"11008010XX";"Mobula spp."
"Other regions";"Plain bonito";"Orcynopsis unicolor";"ICCAT";NA;"BOP";"No TAC";"All areas";"21,31,27,34,37";"";"";"21.0.A,21.0.B,21.1,21.1.A,21.1.B,21.1.C,21.1.D,21.1.E,21.1.F,21.2.H,21.2.J,21.3,21.3.K,21.3.L,21.3.M,21.3.N,21.3.O,21.6.G,27.3.a.21,31,27,34,37";"Orcynopsis unicolor";"1750100601";"Orcynopsis unicolor"
"Other regions";"Blue shark";"Prionace glauca";"ICCAT";NA;"BSH";"AN05N, AS05N";"All areas";"21,31,27,34,37";"";"";"21.0.A,21.0.B,21.1,21.1.A,21.1.B,21.1.C,21.1.D,21.1.E,21.1.F,21.2.H,21.2.J,21.3,21.3.K,21.3.L,21.3.M,21.3.N,21.3.O,21.6.G,27.3.a.21,31,27,34,37";"Prionace glauca";"1080200401";"Prionace glauca"
"Other regions";"Whale shark";"Rhincodon typus";"ICCAT";NA;"RHN";"";"All areas";"21,31,27,34,37";"";"";"21.0.A,21.0.B,21.1,21.1.A,21.1.B,21.1.C,21.1.D,21.1.E,21.1.F,21.2.H,21.2.J,21.3,21.3.K,21.3.L,21.3.M,21.3.N,21.3.O,21.6.G,27.3.a.21,31,27,34,37";"Rhincodon typus";"1070500401";"Rhincodon typus"
"Other regions";"Atlantic bonito";"Sarda sarda";"ICCAT";NA;"BON";"No TAC";"All areas";"21,31,27,34,37";"";"";"21.0.A,21.0.B,21.1,21.1.A,21.1.B,21.1.C,21.1.D,21.1.E,21.1.F,21.2.H,21.2.J,21.3,21.3.K,21.3.L,21.3.M,21.3.N,21.3.O,21.6.G,27.3.a.21,31,27,34,37";"Sarda sarda";"1750100101";"Sarda sarda"
"Other regions";"Serra Spanish mackerel";"Scomberomorus brasiliensis";"ICCAT";NA;"BRS";"No TAC";"All areas";"21,31,27,34,37";"";"";"21.0.A,21.0.B,21.1,21.1.A,21.1.B,21.1.C,21.1.D,21.1.E,21.1.F,21.2.H,21.2.J,21.3,21.3.K,21.3.L,21.3.M,21.3.N,21.3.O,21.6.G,27.3.a.21,31,27,34,37";"Scomberomorus brasiliensis";"1750101515";"Scomberomorus brasiliensis"
"Other regions";"King mackerel";"Scomberomorus cavalla";"ICCAT";NA;"KGM";"No TAC";"All areas";"21,31,27,34,37";"";"";"21.0.A,21.0.B,21.1,21.1.A,21.1.B,21.1.C,21.1.D,21.1.E,21.1.F,21.2.H,21.2.J,21.3,21.3.K,21.3.L,21.3.M,21.3.N,21.3.O,21.6.G,27.3.a.21,31,27,34,37";"Scomberomorus cavalla";"1750101506";"Scomberomorus cavalla"
"Other regions";"Atlantic Spanish mackerel";"Scomberomorus maculatus";"ICCAT";NA;"SSM";"No TAC";"All areas";"21,31,27,34,37";"";"";"21.0.A,21.0.B,21.1,21.1.A,21.1.B,21.1.C,21.1.D,21.1.E,21.1.F,21.2.H,21.2.J,21.3,21.3.K,21.3.L,21.3.M,21.3.N,21.3.O,21.6.G,27.3.a.21,31,27,34,37";"Scomberomorus maculatus";"1750101507";"Scomberomorus maculatus"
"Other regions";"Cero";"Scomberomorus regalis";"ICCAT";NA;"CER";"No TAC";"All areas";"21,31,27,34,37";"";"";"21.0.A,21.0.B,21.1,21.1.A,21.1.B,21.1.C,21.1.D,21.1.E,21.1.F,21.2.H,21.2.J,21.3,21.3.K,21.3.L,21.3.M,21.3.N,21.3.O,21.6.G,27.3.a.21,31,27,34,37";"Scomberomorus regalis";"1750101508";"Scomberomorus regalis"
"Other regions";"West African Spanish mackerel";"Scomberomorus tritor";"ICCAT";NA;"MAW";"No TAC";"All areas";"21,31,27,34,37";"";"";"21.0.A,21.0.B,21.1,21.1.A,21.1.B,21.1.C,21.1.D,21.1.E,21.1.F,21.2.H,21.2.J,21.3,21.3.K,21.3.L,21.3.M,21.3.N,21.3.O,21.6.G,27.3.a.21,31,27,34,37";"Scomberomorus tritor";"1750101511";"Scomberomorus tritor"
"Other regions";"Scalopped hammerhead shark";"Sphyrna lewini";"ICCAT";NA;"SPL";"";"All areas";"21,31,27,34,37";"";"";"21.0.A,21.0.B,21.1,21.1.A,21.1.B,21.1.C,21.1.D,21.1.E,21.1.F,21.2.H,21.2.J,21.3,21.3.K,21.3.L,21.3.M,21.3.N,21.3.O,21.6.G,27.3.a.21,31,27,34,37";"Sphyrna lewini";"1080300506";"Sphyrna lewini"
"Other regions";"Great hammerhead shark";"Sphyrna mokarran";"ICCAT";NA;"SPK";"";"All areas";"21,31,27,34,37";"";"";"21.0.A,21.0.B,21.1,21.1.A,21.1.B,21.1.C,21.1.D,21.1.E,21.1.F,21.2.H,21.2.J,21.3,21.3.K,21.3.L,21.3.M,21.3.N,21.3.O,21.6.G,27.3.a.21,31,27,34,37";"Sphyrna mokarran";"1080300510";"Sphyrna mokarran"
"Other regions";"Smooth hammerhead shark";"Sphyrna zygaena";"ICCAT";NA;"SPZ";"";"All areas";"21,31,27,34,37";"";"";"21.0.A,21.0.B,21.1,21.1.A,21.1.B,21.1.C,21.1.D,21.1.E,21.1.F,21.2.H,21.2.J,21.3,21.3.K,21.3.L,21.3.M,21.3.N,21.3.O,21.6.G,27.3.a.21,31,27,34,37";"Sphyrna zygaena";"1080300501";"Sphyrna zygaena"
"Other regions";"Mediterranean spearfish";"Tetrapturus belone";"ICCAT";NA;"MSP";"";"All areas";"21,31,27,34,37";"";"";"21.0.A,21.0.B,21.1,21.1.A,21.1.B,21.1.C,21.1.D,21.1.E,21.1.F,21.2.H,21.2.J,21.3,21.3.K,21.3.L,21.3.M,21.3.N,21.3.O,21.6.G,27.3.a.21,31,27,34,37";"Tetrapturus belone";"1750300901";"Tetrapturus belone"
"Other regions";"Roundscale spearfish";"Tetrapturus georgii";"ICCAT";NA;"RSP";"";"All areas";"21,31,27,34,37";"";"";"21.0.A,21.0.B,21.1,21.1.A,21.1.B,21.1.C,21.1.D,21.1.E,21.1.F,21.2.H,21.2.J,21.3,21.3.K,21.3.L,21.3.M,21.3.N,21.3.O,21.6.G,27.3.a.21,31,27,34,37";"Tetrapturus georgii";"1750300907";"Tetrapturus georgii"
"Other regions";"Longbill spearfish";"Tetrapturus pfluegeri";"ICCAT";NA;"SPF";"";"All areas";"21,31,27,34,37";"";"";"21.0.A,21.0.B,21.1,21.1.A,21.1.B,21.1.C,21.1.D,21.1.E,21.1.F,21.2.H,21.2.J,21.3,21.3.K,21.3.L,21.3.M,21.3.N,21.3.O,21.6.G,27.3.a.21,31,27,34,37";"Tetrapturus pfluegeri";"1750300906";"Tetrapturus pfluegeri"
"Other regions";"Albacore tuna";"Thunnus alalunga";"ICCAT";NA;"ALB";"AS05N,AN05N";"All areas";"31,34,41,47";"";"";"31,34,41,47";"Thunnus alalunga";"1750102605";"Thunnus alalunga"
"Other regions";"Yellowfin tuna";"Thunnus albacares";"ICCAT";NA;"YFT";"ATLANT";"All areas";"21,27,37";"";"";"21.0.A,21.0.B,21.1,21.1.A,21.1.B,21.1.C,21.1.D,21.1.E,21.1.F,21.2.H,21.2.J,21.3,21.3.K,21.3.L,21.3.M,21.3.N,21.3.O,21.6.G,27.3.a.21,27,37";"Thunnus albacares";"1750102610";"Thunnus albacares"
"Other regions";"Blackfin tuna";"Thunnus atlanticus";"ICCAT";NA;"BLF";"No TAC";"All areas";"21,31,27,34,37";"";"";"21.0.A,21.0.B,21.1,21.1.A,21.1.B,21.1.C,21.1.D,21.1.E,21.1.F,21.2.H,21.2.J,21.3,21.3.K,21.3.L,21.3.M,21.3.N,21.3.O,21.6.G,27.3.a.21,31,27,34,37";"Thunnus atlanticus";"1750102604";"Thunnus atlanticus"
"Other regions";"Bigeye tuna";"Thunnus obesus";"ICCAT";NA;"BET";"ATLLL,ATLPS,ATLANT";"All areas";"21,31,27,34,37";"";"";"21.0.A,21.0.B,21.1,21.1.A,21.1.B,21.1.C,21.1.D,21.1.E,21.1.F,21.2.H,21.2.J,21.3,21.3.K,21.3.L,21.3.M,21.3.N,21.3.O,21.6.G,27.3.a.21,31,27,34,37";"Thunnus obesus";"1750102612";"Thunnus obesus"
"Other regions";"Bluefin tuna";"Thunnus thynnus";"ICCAT";NA;"BFT";"*641,*643,*8301,*8302,'*8303F,AE45WM,AVARCH";"All areas";"31,27,34,37,47";"";"";"31,27,34,37,47";"Thunnus thynnus";"1750102601";"Thunnus thynnus"
"Other regions";"Swordfish";"Xiphias gladius";"ICCAT";NA;"SWO";"AN05N,AS05N,MED";"All areas";"21,31,27,34,37";"";"";"21.0.A,21.0.B,21.1,21.1.A,21.1.B,21.1.C,21.1.D,21.1.E,21.1.F,21.2.H,21.2.J,21.3,21.3.K,21.3.L,21.3.M,21.3.N,21.3.O,21.6.G,27.3.a.21,31,27,34,37";"Xiphias gladius";"1750400301";"Xiphias gladius"
"Other regions";"Wahoo";"Acanthocybium solandri";"IOTC";NA;"WAH";"";"All areas";"51.57";"";"";"51.57";"Acanthocybium solandri";"1750101001";"Acanthocybium solandri"
"Other regions";"Pelagic thresher shark";"Alopias pelagicus";"IOTC";NA;"PTH";"No TAC";"All areas";"51.57";"";"";"51.57";"Alopias pelagicus";"1060600602";"Alopias pelagicus"
"Other regions";"Bigeye thresher shark";"Alopias superciliosus";"IOTC";NA;"BTH";"No TAC";"All areas";"51.57";"";"";"51.57";"Alopias superciliosus";"1060600603";"Alopias superciliosus"
"Other regions";"Bullet tuna";"Auxis rochei";"IOTC";NA;"BLT";"No TAC";"All areas";"51.57";"";"";"51.57";"Auxis rochei";"1750102303";"Auxis rochei"
"Other regions";"Frigate tuna";"Auxis thazard";"IOTC";NA;"FRZ";"No TAC";"All areas";"51.57";"";"";"51.57";"Auxis thazard";"1750102301";"Auxis thazard"
"Other regions";"Silky shark";"Carcharhinus falciformis";"IOTC";NA;"FAL";"No TAC";"All areas";"51.57";"";"";"51.57";"Carcharhinus falciformis";"1080201017";"Carcharhinus falciformis"
"Other regions";"Oceanic whitetip shark";"Carcharhinus longimanus";"IOTC";NA;"OCS";"No TAC";"All areas";"51.57";"";"";"51.57";"Carcharhinus longimanus";"1080201011";"Carcharhinus longimanus"
"Other regions";"Requiem sharks";"Carcharhinus spp.";"IOTC";NA;"CWZ";"";"All areas";"51.57";"";"";"51.57";"Carcharhinus spp.";"10802010XX";"Carcharhinus spp."
"Other regions";"Dolphinfish";"Coryphaena hippurus";"IOTC";NA;"DOL";"No TAC";"All areas";"51.57";"";"";"51.57";"Coryphaena hippurus";"1702807101";"Coryphaena hippurus"
"Other regions";"Kawakawa";"Euthynnus affinis";"IOTC";NA;"KAW";"No TAC";"All areas";"51.57";"";"";"51.57";"Euthynnus affinis";"1750102406";"Euthynnus affinis"
"Other regions";"Black marlin";"Istiompax indica";"IOTC";NA;"BLM";"No TAC";"All areas";"51.57";"";"";"51.57";"Istiompax indica";NA;"Istiompax indica"
"Other regions";"Indo-Pacific sailfish";"Istiophorus platypterus";"IOTC";NA;"SFA";"No TAC";"All areas";"51.57";"";"";"51.57";"Istiophorus platypterus";"1750300402";"Istiophorus platypterus"
"Other regions";"Shortfin mako";"Isurus oxyrinchus";"IOTC";NA;"SMA";"";"All areas";"51.57";"";"";"51.57";"Isurus oxyrinchus";"1060800201";"Isurus oxyrinchus"
"Other regions";"Longfin mako shark";"Isurus paucus";"IOTC";NA;"LMA";"";"All areas";"51.57";"";"";"51.57";"Isurus paucus";"1060800203";"Isurus paucus"
"Other regions";"Skipjack tuna";"Katsuwonus pelamis";"IOTC";NA;"SKJ";"No TAC";"All areas";"51.57";"";"";"51.57";"Katsuwonus pelamis";"1750102501";"Katsuwonus pelamis"
"Other regions";"Porbeagle";"Lamna nasus";"IOTC";NA;"POR";"";"All areas";"51.57";"";"";"51.57";"Lamna nasus";"1060800301";"Lamna nasus"
"Other regions";"Blue marlin";"Makaira nigricans (or mazara)";"IOTC";NA;"BUM";"No TAC";"All areas";"51.57";"";"";"51.57";"Makaira nigricans (or mazara)";NA;"Makaira nigricans (or mazara)"
"Other regions";"Mobulidae-manta rays";"Mobula spp.";"IOTC";NA;"RMV";"";"All areas";"51.57";"";"";"51.57";"Mobula spp.";"11008010XX";"Mobula spp."
"Other regions";"Blue shark";"Prionace glauca";"IOTC";NA;"BSH";"No TAC";"All areas";"51.57";"";"";"51.57";"Prionace glauca";"1080200401";"Prionace glauca"
"Other regions";"Whale shark";"Rhincodon typus";"IOTC";NA;"RHN";"";"All areas";"51.57";"";"";"51.57";"Rhincodon typus";"1070500401";"Rhincodon typus"
"Other regions";"Indo-Pacific king mackerel";"Scomberomorus guttatus";"IOTC";NA;"GUT";"No TAC";"All areas";"51.57";"";"";"51.57";"Scomberomorus guttatus";"1750101504";"Scomberomorus guttatus"
"Other regions";"Narrow-barred Spanish mackerel";"Scomberomorus commerson";"IOTC";NA;"COM";"No TAC";"All areas";"51.57";"";"";"51.57";"Scomberomorus commerson";"1750101503";"Scomberomorus commerson"
"Other regions";"Longtail tuna";"Thunnus tonggol";"IOTC";NA;"LOT";"No TAC";"All areas";"51.57";"";"";"51.57";"Thunnus tonggol";"1750102603";"Thunnus tonggol"
"Other regions";"Scalloped hammerhead shark";"Sphyrna lewini";"IOTC";NA;"SPL";"No TAC";"All areas";"51.57";"";"";"51.57";"Sphyrna lewini";"1080300506";"Sphyrna lewini"
"Other regions";"Great hammerhead shark";"Sphyrna mokarran";"IOTC";NA;"SPK";"";"All areas";"51.57";"";"";"51.57";"Sphyrna mokarran";"1080300510";"Sphyrna mokarran"
"Other regions";"Smooth hammerhead shark";"Sphyrna zygaena";"IOTC";NA;"SPZ";"";"All areas";"51.57";"";"";"51.57";"Sphyrna zygaena";"1080300501";"Sphyrna zygaena"
"Other regions";"Striped marlin";"Tetrapturus audax";"IOTC";NA;"MLS";"No TAC";"All areas";"51.57";"";"";"51.57";"Tetrapturus audax";"1750300903";"Tetrapturus audax"
"Other regions";"Shortbill spearfish";"Tetrapturus angustirostris";"IOTC";NA;"SSP";"";"All areas";"51.57";"";"";"51.57";"Tetrapturus angustirostris";"1750300905";"Tetrapturus angustirostris"
"Other regions";"Albacore tuna";"Thunnus alalunga";"IOTC";NA;"ALB";"No TAC";"All areas";"51.57";"";"";"51.57";"Thunnus alalunga";"1750102605";"Thunnus alalunga"
"Other regions";"Yellowfin tuna";"Thunnus albacares";"IOTC";NA;"YFT";"IOTC";"All areas";"51.57";"";"";"51.57";"Thunnus albacares";"1750102610";"Thunnus albacares"
"Other regions";"Bigeye tuna";"Thunnus obesus";"IOTC";NA;"BET";"No TAC";"All areas";"51.57";"";"";"51.57";"Thunnus obesus";"1750102612";"Thunnus obesus"
"Other regions";"Swordfish";"Xiphias gladius";"IOTC";NA;"SWO";"No TAC";"All areas";"51.57";"";"";"51.57";"Xiphias gladius";"1750400301";"Xiphias gladius"
"Other regions";"Pelagic thresher";"Alopias pelagicus";"WCPFC";NA;"PTH";"No TAC";"All areas";"71";"";"";"71";"Alopias pelagicus";"1060600602";"Alopias pelagicus"
"Other regions";"big eye thresher";"Alopias superciliosus";"WCPFC";NA;"BTH";"No TAC";"All areas";"71";"";"";"71";"Alopias superciliosus";"1060600603";"Alopias superciliosus"
"Other regions";"Common thresher";"Alopias vulpinus";"WCPFC";NA;"ALV";"No TAC";"All areas";"71";"";"";"71";"Alopias vulpinus";"1060600601";"Alopias vulpinus"
"Other regions";"Silky shark";"Carcharhinus falciformis";"WCPFC";NA;"FAL";"No TAC";"All areas";"71";"";"";"71";"Carcharhinus falciformis";"1080201017";"Carcharhinus falciformis"
"Other regions";"Oceanic whitetip shark";"Carcharhinus longimanus";"WCPFC";NA;"OCS";"No TAC";"All areas";"71";"";"";"71";"Carcharhinus longimanus";"1080201011";"Carcharhinus longimanus"
"Other regions";"Black marlin";"Istiompax indica";"WCPFC";NA;"BLM";"No TAC";"All areas";"71";"";"";"71";"Istiompax indica";NA;"Istiompax indica"
"Other regions";"Shortfin mako shark";"Isurus oxyrinchus";"WCPFC";NA;"SMA";"";"All areas";"71";"";"";"71";"Isurus oxyrinchus";"1060800201";"Isurus oxyrinchus"
"Other regions";"Longfin mako shark";"Isurus paucus";"WCPFC";NA;"LMA";"";"All areas";"71";"";"";"71";"Isurus paucus";"1060800203";"Isurus paucus"
"Other regions";"Skipjack tuna";"Katsuwonus pelamis";"WCPFC";NA;"SKJ";"No TAC";"All areas";"71";"";"";"71";"Katsuwonus pelamis";"1750102501";"Katsuwonus pelamis"
"Other regions";"Porbeagle";"Lamna nasus";"WCPFC";NA;"POR";"";"All areas";"71";"";"";"71";"Lamna nasus";"1060800301";"Lamna nasus"
"Other regions";"Blue marlin";"Makaira nigricans (or mazara)";"WCPFC";NA;"BUM";"No TAC";"All areas";"71";"";"";"71";"Makaira nigricans (or mazara)";NA;"Makaira nigricans (or mazara)"
"Other regions";"Blue shark";"Prionace glauca";"WCPFC";NA;"BSH";"No TAC";"All areas";"71";"";"";"71";"Prionace glauca";"1080200401";"Prionace glauca"
"Other regions";"Whale shark";"Rhincodon typus";"WCPFC";NA;"RHN";"";"All areas";"71";"";"";"71";"Rhincodon typus";"1070500401";"Rhincodon typus"
"Other regions";"Scalopped hammerhead shark";"Sphyrna lewini";"WCPFC";NA;"SPL";"";"All areas";"71";"";"";"71";"Sphyrna lewini";"1080300506";"Sphyrna lewini"
"Other regions";"Great hammerhead shark";"Sphyrna mokarran";"WCPFC";NA;"SPK";"";"All areas";"71";"";"";"71";"Sphyrna mokarran";"1080300510";"Sphyrna mokarran"
"Other regions";"Smooth hammerhead shark";"Sphyrna zygaena";"WCPFC";NA;"SPZ";"";"All areas";"71";"";"";"71";"Sphyrna zygaena";"1080300501";"Sphyrna zygaena"
"Other regions";"Striped marlin";"Tetrapturus audax";"WCPFC";NA;"MLS";"No TAC";"All areas";"71";"";"";"71";"Tetrapturus audax";"1750300903";"Tetrapturus audax"
"Other regions";"Albacore tuna";"Thunnus alalunga";"WCPFC";NA;"ALB";"No TAC";"All areas";"71";"";"";"71";"Thunnus alalunga";"1750102605";"Thunnus alalunga"
"Other regions";"Yellowfin tuna";"Thunnus albacares";"WCPFC";NA;"YFT";"No TAC";"All areas";"71";"";"";"71";"Thunnus albacares";"1750102610";"Thunnus albacares"
"Other regions";"Bigeye tuna";"Thunnus obesus";"WCPFC";NA;"BET";"F7120S";"All areas";"71";"";"";"71";"Thunnus obesus";"1750102612";"Thunnus obesus"
"Other regions";"Pacific bluefin tuna";"Thunnus orientalis";"WCPFC";NA;"PBF";"No TAC";"All areas";"71";"";"";"71";"Thunnus orientalis";"1750102602";"Thunnus orientalis"
"Other regions";"Swordfish";"Xiphias gladius";"WCPFC";NA;"SWO";"F7120S";"All areas";"71";"";"";"71";"Xiphias gladius";"1750400301";"Xiphias gladius"
"Other regions";"Mobulidae-manta rays";"Mobula spp.";"WCPFC";NA;"RMV";"";"All areas";"71";"";"";"71";"Mobula spp.";"11008010XX";"Mobula spp."
"Other regions";"Silky shark";"Carcharhinus falciformis";"IATTC";NA;"FAL";"";"All areas";"77,87";"";"";"77,87";"Carcharhinus falciformis";"1080201017";"Carcharhinus falciformis"
"Other regions";"Oceanic whitetip shark";"Carcharhinus longimanus";"IATTC";NA;"OCS";"";"All areas";"77,87";"";"";"77,87";"Carcharhinus longimanus";"1080201011";"Carcharhinus longimanus"
"Other regions";"Black marlin";"Istiompax indica";"IATTC";NA;"BLM";"No TAC";"All areas";"77,87";"";"";"77,87";"Istiompax indica";NA;"Istiompax indica"
"Other regions";"Mako sharks";"Isurus spp.";"IATTC";NA;"MAK";"";"All areas";"77,87";"";"";"77,87";"Isurus spp.";"10608002XX";"Isurus spp."
"Other regions";"Skipjack tuna";"Katsuwonus pelamis";"IATTC";NA;"SKJ";"No TAC";"All areas";"77,87";"";"";"77,87";"Katsuwonus pelamis";"1750102501";"Katsuwonus pelamis"
"Other regions";"Porbeagle";"Lamna nasus";"IATTC";NA;"POR";"";"All areas";"77,87";"";"";"77,87";"Lamna nasus";"1060800301";"Lamna nasus"
"Other regions";"Blue marlin";"Makaira nigricans (or mazara)";"IATTC";NA;"BUM";"No TAC";"All areas";"77,87";"";"";"77,87";"Makaira nigricans (or mazara)";NA;"Makaira nigricans (or mazara)"
"Other regions";"Whale shark";"Rhincodon typus";"IATTC";NA;"RHN";"";"All areas";"77,87";"";"";"77,87";"Rhincodon typus";"1070500401";"Rhincodon typus"
"Other regions";"Scalopped hammerhead shark";"Sphyrna lewini";"IATTC";NA;"SPL";"";"All areas";"77,87";"";"";"77,87";"Sphyrna lewini";"1080300506";"Sphyrna lewini"
"Other regions";"Great hammerhead shark";"Sphyrna mokarran";"IATTC";NA;"SPK";"";"All areas";"77,87";"";"";"77,87";"Sphyrna mokarran";"1080300510";"Sphyrna mokarran"
"Other regions";"Smooth hammerhead shark";"Sphyrna zygaena";"IATTC";NA;"SPZ";"";"All areas";"77,87";"";"";"77,87";"Sphyrna zygaena";"1080300501";"Sphyrna zygaena"
"Other regions";"Striped marlin";"Tetrapturus audax";"IATTC";NA;"MLS";"No TAC";"All areas";"77,87";"";"";"77,87";"Tetrapturus audax";"1750300903";"Tetrapturus audax"
"Other regions";"Albacore tuna";"Thunnus alalunga";"IATTC";NA;"ALB";"No TAC";"All areas";"77,87";"";"";"77,87";"Thunnus alalunga";"1750102605";"Thunnus alalunga"
"Other regions";"Yellowfin tuna";"Thunnus albacares";"IATTC";NA;"YFT";"No TAC";"All areas";"77,87";"";"";"77,87";"Thunnus albacares";"1750102610";"Thunnus albacares"
"Other regions";"Bigeye tuna";"Thunnus obesus";"IATTC";NA;"BET";"IATTC";"All areas";"77,87";"";"";"77,87";"Thunnus obesus";"1750102612";"Thunnus obesus"
"Other regions";"Pacific bluefin tuna";"Thunnus orientalis";"IATTC";NA;"PBF";"No TAC";"All areas";"77,87";"";"";"77,87";"Thunnus orientalis";"1750102602";"Thunnus orientalis"
"Other regions";"Swordfish";"Xiphias gladius";"IATTC";NA;"SWO";"No TAC";"All areas";"77,87";"";"";"77,87";"Xiphias gladius";"1750400301";"Xiphias gladius"
"Other regions";"Mobulidae-manta rays";"Mobula spp.";"IATTC";NA;"RMV";"";"All areas";"77,87";"";"";"77,87";"Mobula spp.";"11008010XX";"Mobula spp."
"Other regions";"Acoupa weakfish";"Cynoscion acoupa";"WECAFC";NA;"YNA";"";"Northern Brazil shelf";"31";"";"";"31";"Cynoscion acoupa";"1703701601";"Cynoscion acoupa"
"Other regions";"Red hind";"Epinephelus guttatus";"WECAFC";NA;"EEU";"";"All areas";"31";"";"";"31";"Epinephelus guttatus";"1700204225";"Epinephelus guttatus"
"Other regions";"Southern brown shrimp";"Farfantepenaeus subtilis";"WECAFC";NA;"PNU";"";"Northern Brazil shelf";"31";"";"";"31";"Farfantepenaeus subtilis";NA;"Farfantepenaeus subtilis"
"Other regions";"Flying fish";"Hirundichthys affinis";"WECAFC";NA;"FFV";"";"All areas";"31";"";"";"31";"Hirundichthys affinis";"1470402201";"Hirundichthys affinis"
"Other regions";"Queen conch";"Lobatus gigas";"WECAFC";NA;"COO";"";"All areas";"31";"";"";"31";"Lobatus gigas";NA;"Lobatus gigas"
"Other regions";"Blackfin snapper";"Lutjanus buccanella";"WECAFC";NA;"LJU";"No TAC";"All areas";"31";"";"";"31";"Lutjanus buccanella";"1703202724";"Lutjanus buccanella"
"Other regions";"Red snapper";"Lutjanus campechanus";"WECAFC";NA;"SNR";"No TAC";"All areas";"31";"";"";"31";"Lutjanus campechanus";"1703202725";"Lutjanus campechanus"
"Other regions";"Southern red snapper";"Lutjanus purpureus";"WECAFC";NA;"SNC";"";"Northern Brazil shelf";"31";"";"";"31";"Lutjanus purpureus";"1703202722";"Lutjanus purpureus"
"Other regions";"Silk snapper";"Lutjanus vivanus";"WECAFC";NA;"LTJ";"";"All areas";"31";"";"";"31";"Lutjanus vivanus";"1703202734";"Lutjanus vivanus"
"Other regions";"Caribbean spiny lobster";"Panulirus argus";"WECAFC";NA;"SLC,SNA";"";"All areas";"31";"";"";"31";"Panulirus argus";"2290100108";"Panulirus argus"
"Other regions";"Alfonsinos";"Beryx spp.";"SEAFO";NA;"ALF";"*F47NA, SEAFO";"All areas";"47";"";"";"47";"Beryx spp.";"16102003XX";"Beryx spp."
"Other regions";"Red/Golden crabs";"Chaceon spp.";"SEAFO";NA;"GER";"No TAC";"All areas";"47";"";"";"47";"Chaceon spp.";"23143001XX";"Chaceon spp."
"Other regions";"Patagonian toothfish";"Dissostichus eleginoides";"SEAFO";NA;"TOP";"F47-D,F47D";"All areas";"47";"";"";"47";"Dissostichus eleginoides";"1709201502";"Dissostichus eleginoides"
"Other regions";"Blackbelly rosefishes";"Helicolenus spp.";"SEAFO";NA;"ROK";"No TAC";"All areas";"47";"";"";"47";"Helicolenus spp.";"17801017XX";"Helicolenus spp."
"Other regions";"Orange roughy";"Hoplostethus atlanticus";"SEAFO";NA;"ORY";"F47NAM";"All areas";"47";"";"";"47";"Hoplostethus atlanticus";"1610500202";"Hoplostethus atlanticus"
"Other regions";"Pelagic armourhead/ Southern boarfish";"Pseudopentaceros richardsoni";"SEAFO";NA;"EDR";"No TAC";"All areas";"47";"";"";"47";"Pseudopentaceros richardsoni";"1705700701";"Pseudopentaceros richardsoni"
"Other regions";"Mackerel";"Scomber spp.";"SEAFO";NA;"MAZ";"No TAC";"All areas";"47";"";"";"47";"Scomber spp.";"17501002XX";"Scomber spp."
"Other regions";"Horse mackerel";"Trachurus spp.";"SEAFO";NA;"JAX";"No TAC";"All areas";"47";"";"";"47";"Trachurus spp.";"17023004XX";"Trachurus spp."
"Other regions";"Alfonsinos";"Beryx spp.";"CCAMLR";NA;"ALF";"";"All areas";"48,58,88";"";"";"48,58,88";"Beryx spp.";"16102003XX";"Beryx spp."
"Other regions";"Icefish";"Champsocephalus gunnari";"CCAMLR";NA;"ANI";"";"All areas";"48,58,88";"";"";"48,58,88";"Champsocephalus gunnari";"1709441701";"Champsocephalus gunnari"
"Other regions";"Toothfish";"Dissostichus spp. Dissostichus eleginoides and Dissostichus mawsoni)";"CCAMLR";NA;"TOT";"F517*dc,F574WR";"All areas";"48,58,88";"";"";"48,58,88";"Dissostichus spp.,Dissostichus eleginoides and Dissostichus mawsoni)";NA;"Dissostichus spp.,Dissostichus eleginoides and Dissostichus mawsoni)"
"Other regions";"Krill";"Euphausia superba";"CCAMLR";NA;"KRI";"No TAC";"All areas";"48,58,88";"";"";"48,58,88";"Euphausia superba";"2260100501";"Euphausia superba"
"Other regions";"Orange roughy";"Hoplostethus atlanticus";"CCAMLR";NA;"ORY";"No TAC";"All areas";"48,58,88";"";"";"48,58,88";"Hoplostethus atlanticus";"1610500202";"Hoplostethus atlanticus"
"Other regions";"Rockcod";"Lepidonotothen spp.";"CCAMLR";NA;"NOX";"";"All areas";"48,58,88";"";"";"48,58,88";"Lepidonotothen spp.";NA;"Lepidonotothen spp."
"Other regions";"Grenadier";"Macrourus spp.";"CCAMLR";NA;"GRV";"";"All areas";"48,58,88";"";"";"48,58,88";"Macrourus spp.";"14806001XX";"Macrourus spp."
"Other regions";"Skates and rays";"Rajiformes";"CCAMLR";NA;"SKX";"";"All areas";"48,58,88";"";"";"48,58,88";"Rajiformes";"110XXXXXXX";"Rajiformes"
"Other regions";"Deep sea sharks";"All species";"CCAMLR";NA;"API";"";"All areas";"48,58,88";"";"";"48,58,88";"All species";NA;"All species"
"North-East Atlantic";"Greater silver smelt";"Argentina silus";"ICES";NA;"ARU";"No TAC";"5a, 14";"27_5_A,27_14";" ";"";"27.5.a,27.14,27.14.a,27.14.b,27.14.b.1,27.14.b.2";"Argentina silus";"1230501503";"Argentina silus"
